[
  {"SIGUN_NM":"군포시","place_name":"다이소 군포당동점","INDUTYPE_NM":"가정,생활 > 생활용품점 > 다이소","road_address_name":"경기 군포시 군포로 486","address_name":"경기 군포시 당동 903-4","phone":"031-396-5230","REFINE_ZIPNO":"","y":"37.3496709668463","x":"126.944638077287","place_url":"http://place.map.kakao.com/27279872","id":"27279872"},
  {"SIGUN_NM":"군포시","place_name":"노브랜드 군포산본역점","INDUTYPE_NM":"가정,생활 > 슈퍼마켓 > 대형슈퍼 > 노브랜드","road_address_name":"경기 군포시 번영로 494","address_name":"경기 군포시 금정동 873-3","phone":"031-399-7417","REFINE_ZIPNO":"","y":"37.3571973049527","x":"126.932577500026","place_url":"http://place.map.kakao.com/376094449","id":"376094449"},
  {"SIGUN_NM":"군포시","place_name":"올리브영 금정역점","INDUTYPE_NM":"가정,생활 > 드럭스토어 > 올리브영","road_address_name":"경기 군포시 군포로 739-1","address_name":"경기 군포시 산본동 266-7","phone":"031-392-3703","REFINE_ZIPNO":"","y":"37.37125162429024","x":"126.94305974114219","place_url":"http://place.map.kakao.com/1231270762","id":"1231270762"},
  {"SIGUN_NM":"군포시","place_name":"토리헤어 산본사거리점","INDUTYPE_NM":"가정,생활 > 미용 > 미용실 > 토리헤어","road_address_name":"경기 군포시 고산로 696","address_name":"경기 군포시 산본동 207-11","phone":"031-391-9007","REFINE_ZIPNO":"","y":"37.37178912549716","x":"126.93575016653135","place_url":"http://place.map.kakao.com/27494957","id":"27494957"},
  {"SIGUN_NM":"군포시","place_name":"올리브영 산본점","INDUTYPE_NM":"가정,생활 > 드럭스토어 > 올리브영","road_address_name":"경기 군포시 산본로323번길 20-17","address_name":"경기 군포시 산본동 1139","phone":"031-393-5522","REFINE_ZIPNO":"","y":"37.3592796867793","x":"126.93119852429","place_url":"http://place.map.kakao.com/18355793","id":"18355793"},
  {"SIGUN_NM":"군포시","place_name":"리안헤어 산본점","INDUTYPE_NM":"가정,생활 > 미용 > 미용실 > 리안헤어","road_address_name":"경기 군포시 산본로323번길 26-22","address_name":"경기 군포시 산본동 1138-2","phone":"031-391-5359","REFINE_ZIPNO":"","y":"37.35937854947904","x":"126.93076949665412","place_url":"http://place.map.kakao.com/11842796","id":"11842796"},
  {"SIGUN_NM":"군포시","place_name":"NH농협은행 금정역지점","INDUTYPE_NM":"금융,보험 > 금융서비스 > 은행 > NH농협은행","road_address_name":"경기 군포시 군포로 733","address_name":"경기 군포시 금정동 40-2","phone":"031-394-0633","REFINE_ZIPNO":"","y":"37.3707075242598","x":"126.943308521897","place_url":"http://place.map.kakao.com/1250212885","id":"1250212885"},
  {"SIGUN_NM":"군포시","place_name":"군포농협하나로마트 본점","INDUTYPE_NM":"가정,생활 > 슈퍼마켓 > 대형슈퍼 > 하나로마트","road_address_name":"경기 군포시 산본로 400","address_name":"경기 군포시 산본동 1099","phone":"031-396-9922","REFINE_ZIPNO":"","y":"37.3658019838275","x":"126.929268959936","place_url":"http://place.map.kakao.com/12274554","id":"12274554"},
  {"SIGUN_NM":"군포시","place_name":"NH농협은행 군포시지부","INDUTYPE_NM":"금융,보험 > 금융서비스 > 은행 > NH농협은행","road_address_name":"경기 군포시 산본로323번길 16-5","address_name":"경기 군포시 산본동 1135-2","phone":"031-396-1600","REFINE_ZIPNO":"","y":"37.3589593287508","x":"126.931903173154","place_url":"http://place.map.kakao.com/11025081","id":"11025081"},
  {"SIGUN_NM":"군포시","place_name":"토리헤어 산본점","INDUTYPE_NM":"가정,생활 > 미용 > 미용실 > 토리헤어","road_address_name":"경기 군포시 산본로323번길 16-30","address_name":"경기 군포시 산본동 1133-1","phone":"031-393-2400","REFINE_ZIPNO":"","y":"37.360170142254","x":"126.931613107778","place_url":"http://place.map.kakao.com/18181317","id":"18181317"},
  {"SIGUN_NM":"군포시","place_name":"군포시청","INDUTYPE_NM":"사회,공공기관 > 지방행정기관 > 시청","road_address_name":"경기 군포시 청백리길 6","address_name":"경기 군포시 금정동 844","phone":"031-392-3000","REFINE_ZIPNO":"","y":"37.36163002691529","x":"126.93520593427584","place_url":"http://place.map.kakao.com/8215482","id":"8215482"},
  {"SIGUN_NM":"군포시","place_name":"올리브영 산본학원가점","INDUTYPE_NM":"가정,생활 > 드럭스토어 > 올리브영","road_address_name":"경기 군포시 산본로 382","address_name":"경기 군포시 산본동 1097","phone":"031-396-5290","REFINE_ZIPNO":"","y":"37.364379028982","x":"126.930393508788","place_url":"http://place.map.kakao.com/916255977","id":"916255977"},
  {"SIGUN_NM":"군포시","place_name":"G샘병원","INDUTYPE_NM":"의료,건강 > 병원 > 종합병원","road_address_name":"경기 군포시 군포로 591","address_name":"경기 군포시 당동 730","phone":"031-389-3000","REFINE_ZIPNO":"","y":"37.3586609072766","x":"126.947448889428","place_url":"http://place.map.kakao.com/20098471","id":"20098471"},
  {"SIGUN_NM":"군포시","place_name":"원광대학교 산본병원","INDUTYPE_NM":"의료,건강 > 병원 > 종합병원","road_address_name":"경기 군포시 산본로 321","address_name":"경기 군포시 산본동 1142","phone":"031-390-2300","REFINE_ZIPNO":"","y":"37.35944683582","x":"126.933577847603","place_url":"http://place.map.kakao.com/27368046","id":"27368046"},
  {"SIGUN_NM":"군포시","place_name":"다비치안경 산본역서부사거리점","INDUTYPE_NM":"가정,생활 > 패션 > 패션잡화점 > 안경,렌즈 > 다비치안경","road_address_name":"경기 군포시 번영로 489","address_name":"경기 군포시 산본동 1142-7","phone":"031-395-0645","REFINE_ZIPNO":"","y":"37.3579066970651","x":"126.931502285414","place_url":"http://place.map.kakao.com/14637414","id":"14637414"},

  {"SIGUN_NM":"군포시","place_name":"NH농협은행 군포용호지점","INDUTYPE_NM":"금융,보험 > 금융서비스 > 은행 > NH농협은행","road_address_name":"경기 군포시 고산로 265","address_name":"경기 군포시 당동 871","phone":"031-392-8311","REFINE_ZIPNO":"","y":"37.3464551713626","x":"126.942699264996","place_url":"http://place.map.kakao.com/8853329","id":"8853329"},
  {"SIGUN_NM":"군포시","place_name":"르노삼성자동차서비스 군포정비사업소","INDUTYPE_NM":"교통,수송 > 자동차 > 자동차정비 > 르노삼성정비센터","road_address_name":"경기 군포시 고산로 138","address_name":"경기 군포시 당정동 447-7","phone":"031-391-0003","REFINE_ZIPNO":"","y":"37.3495352253138","x":"126.956127684529","place_url":"http://place.map.kakao.com/14934007","id":"14934007"},
  {"SIGUN_NM":"군포시","place_name":"현대자동차블루핸즈 당정점","INDUTYPE_NM":"교통,수송 > 자동차 > 자동차정비 > 현대자동차정비센터 > 블루핸즈","road_address_name":"경기 군포시 한세로78번길 37","address_name":"경기 군포시 당정동 989-1","phone":"031-386-8204","REFINE_ZIPNO":"","y":"37.3457911090478","x":"126.95766924516","place_url":"http://place.map.kakao.com/17767895","id":"17767895"},
  {"SIGUN_NM":"군포시","place_name":"다비치안경 군포초교앞점","INDUTYPE_NM":"가정,생활 > 패션 > 패션잡화점 > 안경,렌즈 > 다비치안경","road_address_name":"경기 군포시 군포로 458","address_name":"경기 군포시 당동 920-4","phone":"031-348-1356","REFINE_ZIPNO":"","y":"37.34744669197777","x":"126.94350659199479","place_url":"http://place.map.kakao.com/27508873","id":"27508873"},
  {"SIGUN_NM":"군포시","place_name":"리안헤어 금정역점","INDUTYPE_NM":"가정,생활 > 미용 > 미용실 > 리안헤어","road_address_name":"경기 군포시 산본천로 230","address_name":"경기 군포시 산본동 266-19","phone":"031-396-4876","REFINE_ZIPNO":"","y":"37.37191365687864","x":"126.94260200772827","place_url":"http://place.map.kakao.com/13121291","id":"13121291"},
  {"SIGUN_NM":"군포시","place_name":"군포스타주유소","INDUTYPE_NM":"교통,수송 > 자동차 > 주유,가스 > 주유소 > GS칼텍스","road_address_name":"경기 군포시 고산로 688","address_name":"경기 군포시 산본2동 207-3","phone":"031-393-5189","REFINE_ZIPNO":"","y":"37.3711357715978","x":"126.935053253011","place_url":"http://place.map.kakao.com/18158314","id":"18158314"},
  {"SIGUN_NM":"군포시","place_name":"토리헤어 산본역점","INDUTYPE_NM":"가정,생활 > 미용 > 미용실 > 토리헤어","road_address_name":"경기 군포시 번영로 489","address_name":"경기 군포시 산본동 1142-7","phone":"031-399-6557","REFINE_ZIPNO":"","y":"37.3582531127926","x":"126.932233410804","place_url":"http://place.map.kakao.com/27289235","id":"27289235"},
  {"SIGUN_NM":"군포시","place_name":"삼미상사 금정역주유소","INDUTYPE_NM":"교통,수송 > 자동차 > 주유,가스 > 주유소 > SK주유소","road_address_name":"경기 군포시 엘에스로 178","address_name":"경기 군포시 산본동 18-35","phone":"031-456-5189","REFINE_ZIPNO":"","y":"37.37589300391976","x":"126.9434728448599","place_url":"http://place.map.kakao.com/10502326","id":"10502326"},
  {"SIGUN_NM":"군포시","place_name":"기아오토큐 당동점","INDUTYPE_NM":"교통,수송 > 자동차 > 자동차정비 > 기아자동차서비스센터 > 기아오토큐","road_address_name":"경기 군포시 금당로 25","address_name":"경기 군포시 당동 952-4","phone":"031-455-6794","REFINE_ZIPNO":"","y":"37.3503285462459","x":"126.940569950068","place_url":"http://place.map.kakao.com/12417342","id":"12417342"},
  {"SIGUN_NM":"군포시","place_name":"기아오토큐 금정점","INDUTYPE_NM":"교통,수송 > 자동차 > 자동차정비 > 기아자동차서비스센터 > 기아오토큐","road_address_name":"경기 군포시 번영로 625","address_name":"경기 군포시 금정동 910-3","phone":"031-456-3813","REFINE_ZIPNO":"","y":"37.3643395278992","x":"126.944270583714","place_url":"http://place.map.kakao.com/12417549","id":"12417549"},
  {"SIGUN_NM":"군포시","place_name":"알파 금정점","INDUTYPE_NM":"가정,생활 > 문구,사무용품 > 알파","road_address_name":"경기 군포시 공단로 296","address_name":"경기 군포시 금정동 689-27","phone":"031-452-2625","REFINE_ZIPNO":"","y":"37.3706974484487","x":"126.944866483573","place_url":"http://place.map.kakao.com/16770296","id":"16770296"},
  {"SIGUN_NM":"군포시","place_name":"알파 군포당동점","INDUTYPE_NM":"가정,생활 > 문구,사무용품 > 알파","road_address_name":"경기 군포시 군포로 470","address_name":"경기 군포시 당동 904-4","phone":"031-391-8985","REFINE_ZIPNO":"","y":"37.348265090119","x":"126.944061258024","place_url":"http://place.map.kakao.com/15444061","id":"15444061"},
  {"SIGUN_NM":"군포시","place_name":"군포충전소","INDUTYPE_NM":"교통,수송 > 자동차 > 주유,가스 > LPG충전소 > GS칼텍스 LPG충전소","road_address_name":"경기 군포시 번영로 204","address_name":"경기 군포시 부곡동 1180","phone":"031-462-5500","REFINE_ZIPNO":"","y":"37.3339075144063","x":"126.926559116375","place_url":"http://place.map.kakao.com/22174924","id":"22174924"},
  {"SIGUN_NM":"군포시","place_name":"당정스타주유소","INDUTYPE_NM":"교통,수송 > 자동차 > 주유,가스 > 주유소 > GS칼텍스","road_address_name":"경기 군포시 고산로 109","address_name":"경기 군포시 군포1동 405-1","phone":"031-451-8600","REFINE_ZIPNO":"","y":"37.3499327236351","x":"126.959043862353","place_url":"http://place.map.kakao.com/26481557","id":"26481557"},
  {"SIGUN_NM":"군포시","place_name":"삼표에너지 산본그린주유소","INDUTYPE_NM":"교통,수송 > 자동차 > 주유,가스 > 주유소 > GS칼텍스","road_address_name":"경기 군포시 군포로 231","address_name":"경기 군포시 부곡동 1184","phone":"031-462-0202","REFINE_ZIPNO":"","y":"37.3332517987031","x":"126.926938894267","place_url":"http://place.map.kakao.com/284135131","id":"284135131"},

  {"SIGUN_NM":"군포시","place_name":"현대자동차블루핸즈 금정점","INDUTYPE_NM":"교통,수송 > 자동차 > 자동차정비 > 현대자동차정비센터 > 블루핸즈","road_address_name":"경기 군포시 번영로 614","address_name":"경기 군포시 금정동 742-7","phone":"031-456-4567","REFINE_ZIPNO":"","y":"37.3632723613014","x":"126.943530853222","place_url":"http://place.map.kakao.com/17767874","id":"17767874"},
  {"SIGUN_NM":"군포시","place_name":"현대자동차블루핸즈 산본동부점","INDUTYPE_NM":"교통,수송 > 자동차 > 자동차정비 > 현대자동차정비센터 > 블루핸즈","road_address_name":"경기 군포시 엘에스로182번길 36","address_name":"경기 군포시 산본동 1-19","phone":"031-451-9844","REFINE_ZIPNO":"","y":"37.3774572635956","x":"126.941781477754","place_url":"http://place.map.kakao.com/17767894","id":"17767894"},
  {"SIGUN_NM":"군포시","place_name":"삼미남부주유소","INDUTYPE_NM":"교통,수송 > 자동차 > 주유,가스 > 주유소 > SK주유소","road_address_name":"경기 군포시 고산로 259","address_name":"경기 군포시 당동 871-2","phone":"031-398-6252","REFINE_ZIPNO":"","y":"37.34623928496","x":"126.943448810121","place_url":"http://place.map.kakao.com/16075117","id":"16075117"},
  {"SIGUN_NM":"군포시","place_name":"현대오일뱅크직영 군포제일주유소","INDUTYPE_NM":"교통,수송 > 자동차 > 주유,가스 > 주유소 > 오일뱅크주유소","road_address_name":"경기 군포시 산본로323번길 27","address_name":"경기 군포시 광정동 1142-8","phone":"031-391-2125","REFINE_ZIPNO":"","y":"37.3581011486268","x":"126.931208630197","place_url":"http://place.map.kakao.com/7950252","id":"7950252"},
  {"SIGUN_NM":"군포시","place_name":"대양충전소","INDUTYPE_NM":"교통,수송 > 자동차 > 주유,가스 > LPG충전소 > GS칼텍스 LPG충전소","road_address_name":"경기 군포시 엘에스로 156","address_name":"경기 군포시 금정동 1-49","phone":"031-427-0033","REFINE_ZIPNO":"","y":"37.3745181319122","x":"126.945590769416","place_url":"http://place.map.kakao.com/8287249","id":"8287249"},
  {"SIGUN_NM":"군포시","place_name":"리안헤어 당정역점","INDUTYPE_NM":"가정,생활 > 미용 > 미용실 > 리안헤어","road_address_name":"경기 군포시 당정역로4번길 11","address_name":"경기 군포시 당정동 1013-6","phone":"031-427-5722","REFINE_ZIPNO":"","y":"37.34382273570536","x":"126.94944773598365","place_url":"http://place.map.kakao.com/1916616301","id":"1916616301"},
  {"SIGUN_NM":"군포시","place_name":"리안헤어 산본광정점","INDUTYPE_NM":"가정,생활 > 미용 > 미용실 > 리안헤어","road_address_name":"경기 군포시 산본로 390","address_name":"경기 군포시 산본동 1099-4","phone":"031-393-0090","REFINE_ZIPNO":"","y":"37.3647644637232","x":"126.930046591733","place_url":"http://place.map.kakao.com/26870307","id":"26870307"},
  {"SIGUN_NM":"군포시","place_name":"대야석유","INDUTYPE_NM":"교통,수송 > 자동차 > 주유,가스 > LPG충전소 > GS칼텍스 LPG충전소","road_address_name":"경기 군포시 군포로 148","address_name":"경기 군포시 대야미동 266-18","phone":"031-437-7755","REFINE_ZIPNO":"","y":"37.328137345185","x":"126.921022449489","place_url":"http://place.map.kakao.com/8930168","id":"8930168"},
  {"SIGUN_NM":"군포시","place_name":"알라딘중고서점 산본점","INDUTYPE_NM":"문화,예술 > 도서 > 서점 > 중고서점","road_address_name":"경기 군포시 산본로323번길 16-31","address_name":"경기 군포시 산본동 1136","phone":"1544-2514","REFINE_ZIPNO":"","y":"37.360213063893","x":"126.931048671281","place_url":"http://place.map.kakao.com/20305873","id":"20305873"},
  {"SIGUN_NM":"군포시","place_name":"토즈스터디센터 군포당동센터","INDUTYPE_NM":"교육,학문 > 학습시설 > 독서실 > 토즈스터디센터","road_address_name":"경기 군포시 고산로 262","address_name":"경기 군포시 당동 921-2","phone":"031-391-1114","REFINE_ZIPNO":"","y":"37.3467511427842","x":"126.943601914974","place_url":"http://place.map.kakao.com/1190419273","id":"1190419273"},
  {"SIGUN_NM":"군포시","place_name":"금정주유소","INDUTYPE_NM":"교통,수송 > 자동차 > 주유,가스 > 주유소 > SK주유소","road_address_name":"경기 군포시 공단로 278-29","address_name":"경기 군포시 금정동 689-45","phone":"031-457-9545","REFINE_ZIPNO":"","y":"37.3701287183293","x":"126.946429357889","place_url":"http://place.map.kakao.com/18561773","id":"18561773"},
  {"SIGUN_NM":"군포시","place_name":"산본제일병원","INDUTYPE_NM":"의료,건강 > 병원","road_address_name":"경기 군포시 산본로 374","address_name":"경기 군포시 산본동 1097-4","phone":"031-390-3400","REFINE_ZIPNO":"","y":"37.3636622304335","x":"126.931108730886","place_url":"http://place.map.kakao.com/7910932","id":"7910932"},
  {"SIGUN_NM":"군포시","place_name":"올리브영 롯데피트인산본점","INDUTYPE_NM":"가정,생활 > 드럭스토어 > 올리브영","road_address_name":"경기 군포시 번영로 485","address_name":"경기 군포시 산본동 1145-6","phone":"031-8033-1233","REFINE_ZIPNO":"","y":"37.35780529538572","x":"126.93066709587569","place_url":"http://place.map.kakao.com/582613684","id":"582613684"},
  {"SIGUN_NM":"군포시","place_name":"타이어프로 당동점","INDUTYPE_NM":"교통,수송 > 자동차 > 자동차정비 > 금호타이어 > 타이어프로","road_address_name":"경기 군포시 공단로 145","address_name":"경기 군포시 당동 51","phone":"031-456-7220","REFINE_ZIPNO":"","y":"37.3581210735832","x":"126.949241742826","place_url":"http://place.map.kakao.com/213162448","id":"213162448"},
  {"SIGUN_NM":"군포시","place_name":"남천병원","INDUTYPE_NM":"의료,건강 > 병원","road_address_name":"경기 군포시 고산로 575","address_name":"경기 군포시 산본동 1100-1","phone":"031-390-2114","REFINE_ZIPNO":"","y":"37.3646971250652","x":"126.925996296504","place_url":"http://place.map.kakao.com/8253007","id":"8253007"},

  {"SIGUN_NM":"군포시","place_name":"한살림 산본매장","INDUTYPE_NM":"가정,생활 > 슈퍼마켓 > 유기농슈퍼 > 한살림","road_address_name":"경기 군포시 광정로 59","address_name":"경기 군포시 산본동 1145-4","phone":"031-396-0318","REFINE_ZIPNO":"","y":"37.35832600391307","x":"126.93021533591345","place_url":"http://place.map.kakao.com/16719876","id":"16719876"},
  {"SIGUN_NM":"군포시","place_name":"더건강한내과의원","INDUTYPE_NM":"의료,건강 > 병원 > 내과","road_address_name":"경기 군포시 산본로323번길 16-14","address_name":"경기 군포시 산본동 1134","phone":"031-397-7582","REFINE_ZIPNO":"","y":"37.35966763201931","x":"126.93206959366267","place_url":"http://place.map.kakao.com/1205565440","id":"1205565440"},
  {"SIGUN_NM":"군포시","place_name":"리안헤어 산본2호점","INDUTYPE_NM":"가정,생활 > 미용 > 미용실 > 리안헤어","road_address_name":"경기 군포시 산본로343번길 9","address_name":"경기 군포시 산본동 1132-3","phone":"031-392-5357","REFINE_ZIPNO":"","y":"37.3606207391081","x":"126.931757185465","place_url":"http://place.map.kakao.com/783630928","id":"783630928"},
  {"SIGUN_NM":"군포시","place_name":"이가자헤어비스 산본점","INDUTYPE_NM":"가정,생활 > 미용 > 미용실 > 이가자헤어비스","road_address_name":"경기 군포시 산본로323번길 16-30","address_name":"경기 군포시 산본동 1133-1","phone":"031-391-0085","REFINE_ZIPNO":"","y":"37.36023367704413","x":"126.93163449724061","place_url":"http://place.map.kakao.com/16889693","id":"16889693"},
  {"SIGUN_NM":"군포시","place_name":"대미주유소","INDUTYPE_NM":"교통,수송 > 자동차 > 주유,가스 > 주유소 > S-oil주유소","road_address_name":"경기 군포시 군포로 10","address_name":"경기 군포시 도마교동 446","phone":"031-502-0833","REFINE_ZIPNO":"","y":"37.3165783646473","x":"126.915055391037","place_url":"http://place.map.kakao.com/8290120","id":"8290120"},
  {"SIGUN_NM":"군포시","place_name":"토즈스터디센터 군포산본2센터","INDUTYPE_NM":"교육,학문 > 학습시설 > 독서실 > 토즈스터디센터","road_address_name":"경기 군포시 고산로 681","address_name":"경기 군포시 산본동 1061-2","phone":"031-395-5599","REFINE_ZIPNO":"","y":"37.3712253948346","x":"126.93418613439","place_url":"http://place.map.kakao.com/27277497","id":"27277497"},
  {"SIGUN_NM":"군포시","place_name":"동일석유직영 산업셀프주유소","INDUTYPE_NM":"교통,수송 > 자동차 > 주유,가스 > 주유소 > SK주유소","road_address_name":"경기 군포시 경수대로 457","address_name":"경기 군포시 당정동 13","phone":"031-452-3590","REFINE_ZIPNO":"","y":"37.3637761595452","x":"126.959167286205","place_url":"http://place.map.kakao.com/7846798","id":"7846798"},
  {"SIGUN_NM":"군포시","place_name":"나이스가이 산본점","INDUTYPE_NM":"가정,생활 > 미용 > 미용실 > 나이스가이","road_address_name":"경기 군포시 광정로 70","address_name":"경기 군포시 산본동 1144-1","phone":"031-397-0686","REFINE_ZIPNO":"","y":"37.35939168456596","x":"126.930122692048","place_url":"http://place.map.kakao.com/11988518","id":"11988518"},
  {"SIGUN_NM":"군포시","place_name":"워시뷰","INDUTYPE_NM":"교통,수송 > 자동차 > 세차장 > 셀프세차장","road_address_name":"경기 군포시 고산로148번길 6","address_name":"경기 군포시 당정동 450","phone":"","REFINE_ZIPNO":"","y":"37.34957891051164","x":"126.95489067405576","place_url":"http://place.map.kakao.com/389915718","id":"389915718"},
  {"SIGUN_NM":"군포시","place_name":"더쥬","INDUTYPE_NM":"가정,생활 > 반려동물","road_address_name":"경기 군포시 산본천로 211","address_name":"경기 군포시 산본동 91-41","phone":"070-7607-5517","REFINE_ZIPNO":"","y":"37.37135496677182","x":"126.94066626341719","place_url":"http://place.map.kakao.com/1503985525","id":"1503985525"},
  {"SIGUN_NM":"군포시","place_name":"자연드림 군포산본점","INDUTYPE_NM":"가정,생활 > 슈퍼마켓 > 유기농슈퍼 > 자연드림","road_address_name":"경기 군포시 산본로 394","address_name":"경기 군포시 산본동 1099-2","phone":"031-399-4567","REFINE_ZIPNO":"","y":"37.3652615460733","x":"126.929567489093","place_url":"http://place.map.kakao.com/21307131","id":"21307131"},
  {"SIGUN_NM":"군포시","place_name":"더풋샵 산본점","INDUTYPE_NM":"가정,생활 > 미용 > 발관리 > 더풋샵","road_address_name":"경기 군포시 산본로323번길 4-21","address_name":"경기 군포시 산본동 1131-1","phone":"031-399-1688","REFINE_ZIPNO":"","y":"37.3602751000691","x":"126.932376078661","place_url":"http://place.map.kakao.com/13100979","id":"13100979"},
  {"SIGUN_NM":"군포시","place_name":"탑텐 산본점","INDUTYPE_NM":"가정,생활 > 패션 > 의류판매 > 탑텐","road_address_name":"경기 군포시 번영로 485","address_name":"경기 군포시 산본동 1145-6","phone":"031-390-7541","REFINE_ZIPNO":"","y":"37.35779808981447","x":"126.9306716175395","place_url":"http://place.map.kakao.com/26314849","id":"26314849"},
  {"SIGUN_NM":"군포시","place_name":"쌍용자동차 군포서비스프라자","INDUTYPE_NM":"교통,수송 > 자동차 > 자동차정비 > 쌍용자동차정비센터","road_address_name":"경기 군포시 군포로 613","address_name":"경기 군포시 금정동 775-7","phone":"031-459-5582","REFINE_ZIPNO":"","y":"37.3605207793795","x":"126.947790747752","place_url":"http://place.map.kakao.com/13031329","id":"13031329"},
  {"SIGUN_NM":"군포시","place_name":"스트라이크존 군포산본구장","INDUTYPE_NM":"스포츠,레저 > 야구 > 야구연습장 > 스크린야구장 > 스트라이크존","road_address_name":"경기 군포시 산본로323번길 16-12","address_name":"경기 군포시 산본동 1134-1","phone":"031-398-0077","REFINE_ZIPNO":"","y":"37.3594676791594","x":"126.932200712818","place_url":"http://place.map.kakao.com/1064890392","id":"1064890392"},

  {"SIGUN_NM":"군포시","place_name":"복아구찜 해물탕원조집","INDUTYPE_NM":"음식점 > 한식 > 해물,생선","road_address_name":"경기 군포시 군포로707번길 20","address_name":"경기 군포시 금정동 45-11","phone":"","REFINE_ZIPNO":"","y":"37.36806945933959","x":"126.94359950857657","place_url":"http://place.map.kakao.com/19014805","id":"19014805"},
  {"SIGUN_NM":"군포시","place_name":"당리주유소","INDUTYPE_NM":"교통,수송 > 자동차 > 주유,가스 > 주유소 > SK주유소","road_address_name":"경기 군포시 용호1로1번길 16","address_name":"경기 군포시 군포2동 978-6","phone":"031-393-9604","REFINE_ZIPNO":"","y":"37.3418069257673","x":"126.937683141623","place_url":"http://place.map.kakao.com/11377720","id":"11377720"},
  {"SIGUN_NM":"군포시","place_name":"한유에너지직영 금정주유소","INDUTYPE_NM":"교통,수송 > 자동차 > 주유,가스 > 주유소 > SK주유소","road_address_name":"경기 군포시 군포로 617","address_name":"경기 군포시 금정동 774-1","phone":"031-454-5151","REFINE_ZIPNO":"","y":"37.3608595456079","x":"126.947745360879","place_url":"http://place.map.kakao.com/11546616","id":"11546616"},
  {"SIGUN_NM":"군포시","place_name":"주막보리밥 군포점","INDUTYPE_NM":"음식점 > 한식","road_address_name":"경기 군포시 속달로 108","address_name":"경기 군포시 속달동 66-8","phone":"031-501-6677","REFINE_ZIPNO":"","y":"37.33524345241267","x":"126.90809007349208","place_url":"http://place.map.kakao.com/1880144968","id":"1880144968"},
  {"SIGUN_NM":"군포시","place_name":"한살림 군포매장","INDUTYPE_NM":"가정,생활 > 슈퍼마켓 > 유기농슈퍼 > 한살림","road_address_name":"경기 군포시 금산로 91-2","address_name":"경기 군포시 산본동 1241","phone":"031-399-4600","REFINE_ZIPNO":"","y":"37.367114462876","x":"126.936659755236","place_url":"http://place.map.kakao.com/16341280","id":"16341280"},
  {"SIGUN_NM":"군포시","place_name":"블루클럽 산본시장점","INDUTYPE_NM":"가정,생활 > 미용 > 미용실 > 블루클럽","road_address_name":"경기 군포시 금산로 90","address_name":"경기 군포시 산본동 216-17","phone":"031-399-0112","REFINE_ZIPNO":"","y":"37.3699837252729","x":"126.937402444466","place_url":"http://place.map.kakao.com/11786417","id":"11786417"},
  {"SIGUN_NM":"군포시","place_name":"타이어프로 군포점","INDUTYPE_NM":"교통,수송 > 자동차 > 자동차정비 > 금호타이어 > 타이어프로","road_address_name":"경기 군포시 공단로36번길 25","address_name":"경기 군포시 당정동 534","phone":"031-456-4151","REFINE_ZIPNO":"","y":"37.3479153586369","x":"126.951961794927","place_url":"http://place.map.kakao.com/18371089","id":"18371089"},
  {"SIGUN_NM":"군포시","place_name":"삼성안과의원","INDUTYPE_NM":"의료,건강 > 병원 > 안과","road_address_name":"경기 군포시 산본로323번길 15","address_name":"경기 군포시 산본동 1142-10","phone":"031-348-8275","REFINE_ZIPNO":"","y":"37.3586315545303","x":"126.932251130891","place_url":"http://place.map.kakao.com/26826200","id":"26826200"},
  {"SIGUN_NM":"군포시","place_name":"군포왕족발","INDUTYPE_NM":"음식점 > 한식 > 육류,고기 > 족발,보쌈","road_address_name":"경기 군포시 산본로179번길 23","address_name":"경기 군포시 당동 116-9","phone":"031-454-1560","REFINE_ZIPNO":"","y":"37.3540694618866","x":"126.947885512373","place_url":"http://place.map.kakao.com/8827993","id":"8827993"},
  {"SIGUN_NM":"군포시","place_name":"삼천리자전거 산본중앙점","INDUTYPE_NM":"스포츠,레저 > 스포츠용품 > 자전거판매점 > 삼천리자전거","road_address_name":"경기 군포시 산본천로 99","address_name":"경기 군포시 산본동 1096-2","phone":"031-395-8945","REFINE_ZIPNO":"","y":"37.3629323847983","x":"126.9326491301701","place_url":"http://place.map.kakao.com/26561447","id":"26561447"},
  {"SIGUN_NM":"군포시","place_name":"경동택배 군포당동48영업소","INDUTYPE_NM":"교통,수송 > 운송 > 택배 > 경동택배","road_address_name":"경기 군포시 공단로 131","address_name":"경기 군포시 당동 48-10","phone":"031-456-4091","REFINE_ZIPNO":"","y":"37.3568451759112","x":"126.949143272485","place_url":"http://place.map.kakao.com/8188025","id":"8188025"},
  {"SIGUN_NM":"군포시","place_name":"에뛰드하우스 산본점","INDUTYPE_NM":"가정,생활 > 미용 > 화장품 > 에뛰드","road_address_name":"경기 군포시 산본로323번길 16-7","address_name":"경기 군포시 산본동 1135-1","phone":"031-397-2007","REFINE_ZIPNO":"","y":"37.3592259442727","x":"126.931749418144","place_url":"http://place.map.kakao.com/27543586","id":"27543586"},
  {"SIGUN_NM":"군포시","place_name":"준식당","INDUTYPE_NM":"음식점 > 한식 > 육류,고기 > 삼겹살","road_address_name":"경기 군포시 군포로741번길 4","address_name":"경기 군포시 산본동 259-12","phone":"031-395-1124","REFINE_ZIPNO":"","y":"37.3711396372154","x":"126.942522441364","place_url":"http://place.map.kakao.com/312274155","id":"312274155"},
  {"SIGUN_NM":"군포시","place_name":"삼천리자전거 군포총판점","INDUTYPE_NM":"스포츠,레저 > 스포츠용품 > 자전거판매점 > 삼천리자전거","road_address_name":"경기 군포시 군포로 488","address_name":"경기 군포시 당동 903-3","phone":"031-394-3004","REFINE_ZIPNO":"","y":"37.349798921366315","x":"126.94465604155957","place_url":"http://place.map.kakao.com/19568778","id":"19568778"},
  {"SIGUN_NM":"군포시","place_name":"쉐보레 군포산본전시장","INDUTYPE_NM":"교통,수송 > 자동차 > 자동차판매점 > 한국GM쉐보레","road_address_name":"경기 군포시 고산로 735-4","address_name":"경기 군포시 산본동 48-2","phone":"031-398-7575","REFINE_ZIPNO":"","y":"37.3748751261905","x":"126.93861319984","place_url":"http://place.map.kakao.com/17081969","id":"17081969"},

  {"SIGUN_NM":"군포시","place_name":"롯데피트인 산본점","INDUTYPE_NM":"가정,생활 > 복합쇼핑몰","road_address_name":"경기 군포시 번영로 485","address_name":"경기 군포시 산본동 1145-6","phone":"031-8033-1000","REFINE_ZIPNO":"","y":"37.357726034092","x":"126.93071683413","place_url":"http://place.map.kakao.com/27459407","id":"27459407"},
  {"SIGUN_NM":"군포시","place_name":"스피드메이트 트레이더스군포점","INDUTYPE_NM":"교통,수송 > 자동차 > 자동차정비 > 스피드메이트","road_address_name":"경기 군포시 삼성로 74","address_name":"경기 군포시 부곡동 1227-1","phone":"031-399-7742","REFINE_ZIPNO":"","y":"37.3402628503547","x":"126.934550018462","place_url":"http://place.map.kakao.com/1540153876","id":"1540153876"},
  {"SIGUN_NM":"군포시","place_name":"나이스가이 산본래미안점","INDUTYPE_NM":"가정,생활 > 미용 > 미용실 > 나이스가이","road_address_name":"경기 군포시 산본천로199번길 43","address_name":"경기 군포시 산본동 81-53","phone":"031-396-1369","REFINE_ZIPNO":"","y":"37.3719266142996","x":"126.93792918837","place_url":"http://place.map.kakao.com/25538401","id":"25538401"},
  {"SIGUN_NM":"군포시","place_name":"빙화만두집","INDUTYPE_NM":"음식점 > 중식","road_address_name":"경기 군포시 산본로323번길 7-1","address_name":"경기 군포시 산본동 1128-1","phone":"","REFINE_ZIPNO":"","y":"37.3591833844107","x":"126.932954993388","place_url":"http://place.map.kakao.com/683636029","id":"683636029"},
  {"SIGUN_NM":"군포시","place_name":"GS25 산본타운점","INDUTYPE_NM":"가정,생활 > 편의점 > GS25","road_address_name":"경기 군포시 고산로 695","address_name":"경기 군포시 산본동 1060","phone":"031-392-1603","REFINE_ZIPNO":"","y":"37.3722135733164","x":"126.935372952711","place_url":"http://place.map.kakao.com/12297919","id":"12297919"},
  {"SIGUN_NM":"군포시","place_name":"GS25 군포당정본점","INDUTYPE_NM":"가정,생활 > 편의점 > GS25","road_address_name":"경기 군포시 봉성로 108","address_name":"경기 군포시 당정동 417-3","phone":"031-452-0955","REFINE_ZIPNO":"","y":"37.352440309857","x":"126.956581980223","place_url":"http://place.map.kakao.com/24138986","id":"24138986"},
  {"SIGUN_NM":"군포시","place_name":"스피드메이트 금정점","INDUTYPE_NM":"교통,수송 > 자동차 > 자동차정비 > 스피드메이트","road_address_name":"경기 군포시 당산로 157","address_name":"경기 군포시 금정동 734-6","phone":"031-455-8208","REFINE_ZIPNO":"","y":"37.3649011637275","x":"126.943001323647","place_url":"http://place.map.kakao.com/8438586","id":"8438586"},
  {"SIGUN_NM":"군포시","place_name":"GS25 금정역점","INDUTYPE_NM":"가정,생활 > 편의점 > GS25","road_address_name":"경기 군포시 군포로 743-1","address_name":"경기 군포시 산본동 266-4","phone":"031-391-2524","REFINE_ZIPNO":"","y":"37.3715831275937","x":"126.942905951278","place_url":"http://place.map.kakao.com/12297720","id":"12297720"},
  {"SIGUN_NM":"군포시","place_name":"드림디포 군포IT밸리점","INDUTYPE_NM":"가정,생활 > 문구,사무용품 > 드림디포","road_address_name":"경기 군포시 고산로148번길 17","address_name":"경기 군포시 당정동 1045","phone":"031-8068-1238","REFINE_ZIPNO":"","y":"37.3495595266674","x":"126.953694331808","place_url":"http://place.map.kakao.com/157066063","id":"157066063"},
  {"SIGUN_NM":"군포시","place_name":"유환자동차운전전문학원","INDUTYPE_NM":"교육,학문 > 학원 > 자동차운전학원 > 자동차운전전문학원","road_address_name":"경기 군포시 경수대로 453","address_name":"경기 군포시 당정동 25-1","phone":"031-454-6500","REFINE_ZIPNO":"","y":"37.3630264849945","x":"126.959108992867","place_url":"http://place.map.kakao.com/9324178","id":"9324178"},
  {"SIGUN_NM":"군포시","place_name":"군포성모병원","INDUTYPE_NM":"의료,건강 > 병원","road_address_name":"경기 군포시 용호1로2번길 47-7","address_name":"경기 군포시 당동 962-3","phone":"","REFINE_ZIPNO":"","y":"37.34655447258828","x":"126.94124556476153","place_url":"http://place.map.kakao.com/798837550","id":"798837550"},
  {"SIGUN_NM":"군포시","place_name":"이마트24 산본센트로점","INDUTYPE_NM":"가정,생활 > 편의점 > 이마트24","road_address_name":"경기 군포시 산본천로 56","address_name":"경기 군포시 산본동 1123-3","phone":"02-6916-1500","REFINE_ZIPNO":"","y":"37.3605042582244","x":"126.929793179878","place_url":"http://place.map.kakao.com/1268421985","id":"1268421985"},
  {"SIGUN_NM":"군포시","place_name":"GS25 군포궁내점","INDUTYPE_NM":"가정,생활 > 편의점 > GS25","road_address_name":"경기 군포시 수리산로203번안길 10","address_name":"경기 군포시 산본동 1118-6","phone":"031-399-0772","REFINE_ZIPNO":"","y":"37.3667135149329","x":"126.923005009015","place_url":"http://place.map.kakao.com/12297782","id":"12297782"},
  {"SIGUN_NM":"군포시","place_name":"열린연세정형외과의원","INDUTYPE_NM":"의료,건강 > 병원 > 정형외과","road_address_name":"경기 군포시 산본천로 56","address_name":"경기 군포시 산본동 1123-3","phone":"1811-0807","REFINE_ZIPNO":"","y":"37.3604106718613","x":"126.929996450706","place_url":"http://place.map.kakao.com/306444718","id":"306444718"},
  {"SIGUN_NM":"군포시","place_name":"경동택배 군포금정214영업소","INDUTYPE_NM":"교통,수송 > 운송 > 택배 > 경동택배","road_address_name":"","address_name":"경기 군포시 금정동 214-2","phone":"031-459-3754","REFINE_ZIPNO":"","y":"37.36086191740791","x":"126.94905138651892","place_url":"http://place.map.kakao.com/13603832","id":"13603832"},

  {"SIGUN_NM":"군포시","place_name":"KT플라자 산본점","INDUTYPE_NM":"서비스,산업 > 정보통신 > KT > KT플라자","road_address_name":"경기 군포시 산본로323번길 16-14","address_name":"경기 군포시 산본동 1134","phone":"031-395-4010","REFINE_ZIPNO":"","y":"37.35969014796779","x":"126.93205264155975","place_url":"http://place.map.kakao.com/22555882","id":"22555882"},
  {"SIGUN_NM":"군포시","place_name":"GS25 산본대림점","INDUTYPE_NM":"가정,생활 > 편의점 > GS25","road_address_name":"경기 군포시 산본로 390","address_name":"경기 군포시 산본동 1099-4","phone":"","REFINE_ZIPNO":"","y":"37.3646779732259","x":"126.930060218367","place_url":"http://place.map.kakao.com/12297599","id":"12297599"},
  {"SIGUN_NM":"군포시","place_name":"일키로바베큐","INDUTYPE_NM":"음식점 > 한식 > 육류,고기","road_address_name":"경기 군포시 산본로323번길 20-33","address_name":"경기 군포시 산본동 1137-1","phone":"031-392-1254","REFINE_ZIPNO":"","y":"37.35984530784047","x":"126.9308142194928","place_url":"http://place.map.kakao.com/675399510","id":"675399510"},
  {"SIGUN_NM":"군포시","place_name":"GS25 군포삼익점","INDUTYPE_NM":"가정,생활 > 편의점 > GS25","road_address_name":"경기 군포시 오금로 36","address_name":"경기 군포시 금정동 871-7","phone":"1644-5425","REFINE_ZIPNO":"","y":"37.3528391170802","x":"126.932726998279","place_url":"http://place.map.kakao.com/1700717127","id":"1700717127"},
  {"SIGUN_NM":"군포시","place_name":"이마트24 군포당동점","INDUTYPE_NM":"가정,생활 > 편의점 > 이마트24","road_address_name":"경기 군포시 당산로 74","address_name":"경기 군포시 당동 729-15","phone":"070-4179-7523","REFINE_ZIPNO":"","y":"37.3581052484342","x":"126.946058640064","place_url":"http://place.map.kakao.com/27260591","id":"27260591"},
  {"SIGUN_NM":"군포시","place_name":"이마트24 군포용호점","INDUTYPE_NM":"가정,생활 > 편의점 > 이마트24","road_address_name":"경기 군포시 용호1로21번길 11","address_name":"경기 군포시 당동 979-1","phone":"031-399-6803","REFINE_ZIPNO":"","y":"37.34455008111552","x":"126.93677689775343","place_url":"http://place.map.kakao.com/47907518","id":"47907518"},
  {"SIGUN_NM":"군포시","place_name":"크린토피아 군포당정역점","INDUTYPE_NM":"가정,생활 > 세탁소 > 크린토피아","road_address_name":"경기 군포시 당정역로4번길 7","address_name":"경기 군포시 당정동 1013-8","phone":"031-453-3231","REFINE_ZIPNO":"","y":"37.3432832672755","x":"126.950032682234","place_url":"http://place.map.kakao.com/13076651","id":"13076651"},
  {"SIGUN_NM":"군포시","place_name":"힘정형외과의원","INDUTYPE_NM":"의료,건강 > 병원 > 정형외과","road_address_name":"경기 군포시 광정로 68","address_name":"경기 군포시 산본동 1144-2","phone":"031-393-0083","REFINE_ZIPNO":"","y":"37.359254882880215","x":"126.93038469601314","place_url":"http://place.map.kakao.com/14832569","id":"14832569"},
  {"SIGUN_NM":"군포시","place_name":"이마트24 군포에이스점","INDUTYPE_NM":"가정,생활 > 편의점 > 이마트24","road_address_name":"경기 군포시 금당로17번길 11","address_name":"경기 군포시 당동 954","phone":"031-393-2294","REFINE_ZIPNO":"","y":"37.34994597010238","x":"126.93950481413474","place_url":"http://place.map.kakao.com/1818588634","id":"1818588634"},
  {"SIGUN_NM":"군포시","place_name":"GS25 송정3단지점","INDUTYPE_NM":"가정,생활 > 편의점 > GS25","road_address_name":"경기 군포시 송부로49번길 10","address_name":"경기 군포시 도마교동 458-1","phone":"","REFINE_ZIPNO":"","y":"37.317209340572376","x":"126.91927735246699","place_url":"http://place.map.kakao.com/429503915","id":"429503915"},
  {"SIGUN_NM":"군포시","place_name":"비숲","INDUTYPE_NM":"음식점 > 카페 > 테마카페 > 애견카페","road_address_name":"경기 군포시 둔대로 28","address_name":"경기 군포시 둔대동 423-28","phone":"031-438-2191","REFINE_ZIPNO":"","y":"37.3257691317774","x":"126.889189394767","place_url":"http://place.map.kakao.com/1769903189","id":"1769903189"},
  {"SIGUN_NM":"군포시","place_name":"CU 군포우륵점","INDUTYPE_NM":"가정,생활 > 편의점 > CU","road_address_name":"경기 군포시 산본천로 33","address_name":"경기 군포시 산본동 1146-12","phone":"031-392-2271","REFINE_ZIPNO":"","y":"37.35925242311487","x":"126.92489092266753","place_url":"http://place.map.kakao.com/20435168","id":"20435168"},
  {"SIGUN_NM":"군포시","place_name":"이마트24 군포대림점","INDUTYPE_NM":"가정,생활 > 편의점 > 이마트24","road_address_name":"경기 군포시 군포로 109-5","address_name":"대야미동 364-5","phone":"031-416-3782","REFINE_ZIPNO":"","y":"37.32510296250348","x":"126.9181412039957","place_url":"https://place.map.kakao.com/1791600616","id":"1791600616"},
  {"SIGUN_NM":"군포시","place_name":"미니스톱 군포첨단점","INDUTYPE_NM":"가정,생활 > 편의점 > 미니스톱","road_address_name":"경기 군포시 번영로 44","address_name":"경기 군포시 부곡동 1244-2","phone":"1577-9621","REFINE_ZIPNO":"","y":"37.32650853912404","x":"126.93985758285078","place_url":"http://place.map.kakao.com/1492448845","id":"1492448845"},
  {"SIGUN_NM":"군포시","place_name":"GS25 군포한양점","INDUTYPE_NM":"가정,생활 > 편의점 > GS25","road_address_name":"경기 군포시 산본로432번길 22","address_name":"경기 군포시 산본동 1091","phone":"","REFINE_ZIPNO":"","y":"37.36926071310774","x":"126.92875204959664","place_url":"http://place.map.kakao.com/26181088","id":"26181088"},

  {"SIGUN_NM":"군포시","place_name":"군포시민체육광장","INDUTYPE_NM":"스포츠,레저 > 스포츠시설","road_address_name":"","address_name":"경기 군포시 금정동 871","phone":"031-390-7677","REFINE_ZIPNO":"","y":"37.3552498001142","x":"126.936778083319","place_url":"http://place.map.kakao.com/7965883","id":"7965883"},
  {"SIGUN_NM":"군포시","place_name":"미니스톱 당정역점","INDUTYPE_NM":"가정,생활 > 편의점 > 미니스톱","road_address_name":"경기 군포시 군포역1길 186","address_name":"경기 군포시 당동 923","phone":"1577-9621","REFINE_ZIPNO":"","y":"37.3464358815895","x":"126.947741814884","place_url":"http://place.map.kakao.com/17044428","id":"17044428"},
  {"SIGUN_NM":"군포시","place_name":"비숲","INDUTYPE_NM":"음식점 > 카페 > 테마카페 > 애견카페","road_address_name":"경기 군포시 둔대로 28","address_name":"경기 군포시 둔대동 423-28","phone":"031-438-2191","REFINE_ZIPNO":"","y":"37.3257691317774","x":"126.889189394767","place_url":"http://place.map.kakao.com/1769903189","id":"1769903189"},
  {"SIGUN_NM":"군포시","place_name":"CU 군포금당점","INDUTYPE_NM":"가정,생활 > 편의점 > CU","road_address_name":"경기 군포시 금당로 58-1","address_name":"경기 군포시 당동 759","phone":"031-429-6764","REFINE_ZIPNO":"","y":"37.3528079553556","x":"126.940130066042","place_url":"http://place.map.kakao.com/495991646","id":"495991646"},
  {"SIGUN_NM":"군포시","place_name":"이가자헤어비스 산본롯데피트인점","INDUTYPE_NM":"가정,생활 > 미용 > 미용실 > 이가자헤어비스","road_address_name":"경기 군포시 번영로 485","address_name":"경기 군포시 산본동 1145-6","phone":"031-8033-1433","REFINE_ZIPNO":"","y":"37.3577980871682","x":"126.930667102506","place_url":"http://place.map.kakao.com/1652833220","id":"1652833220"},
  {"SIGUN_NM":"군포시","place_name":"GS25 군포금정점","INDUTYPE_NM":"가정,생활 > 편의점 > GS25","road_address_name":"경기 군포시 금재로12번길 13-1","address_name":"경기 군포시 금정동 747","phone":"031-459-4403","REFINE_ZIPNO":"","y":"37.3611523725601","x":"126.941934047845","place_url":"http://place.map.kakao.com/12297723","id":"12297723"},
  {"SIGUN_NM":"군포시","place_name":"이마트24 군포뉴당동점","INDUTYPE_NM":"가정,생활 > 편의점 > 이마트24","road_address_name":"경기 군포시 당동로12번안길 1","address_name":"경기 군포시 당동 769-6","phone":"02-6916-1500","REFINE_ZIPNO":"","y":"37.3519552901691","x":"126.943191700311","place_url":"http://place.map.kakao.com/403603956","id":"403603956"},
  {"SIGUN_NM":"군포시","place_name":"CU 군포더드림점","INDUTYPE_NM":"가정,생활 > 편의점 > CU","road_address_name":"경기 군포시 송부로 42","address_name":"경기 군포시 도마교동 488-2","phone":"","REFINE_ZIPNO":"","y":"37.3160405316671","x":"126.91903154096","place_url":"http://place.map.kakao.com/1928385544","id":"1928385544"},
  {"SIGUN_NM":"군포시","place_name":"신일산업 군포서비스센터","INDUTYPE_NM":"가정,생활 > 전자제품","road_address_name":"경기 군포시 당산로 32","address_name":"경기 군포시 당동 744-26","phone":"031-477-7837","REFINE_ZIPNO":"","y":"37.35452223181389","x":"126.94490991989497","place_url":"http://place.map.kakao.com/10608974","id":"10608974"},
  {"SIGUN_NM":"군포시","place_name":"GS25 산본경원점","INDUTYPE_NM":"가정,생활 > 편의점 > GS25","road_address_name":"경기 군포시 산본로 329","address_name":"경기 군포시 산본동 1126","phone":"031-399-2526","REFINE_ZIPNO":"","y":"37.3600051849269","x":"126.933067141545","place_url":"http://place.map.kakao.com/12297721","id":"12297721"},
  {"SIGUN_NM":"군포시","place_name":"군포시평생학습원","INDUTYPE_NM":"교육,학문 > 문화센터","road_address_name":"경기 군포시 고산로 263","address_name":"경기 군포시 당동 871-1","phone":"031-390-3050","REFINE_ZIPNO":"","y":"37.3464301342975","x":"126.943096547282","place_url":"http://place.map.kakao.com/23356036","id":"23356036"},
  {"SIGUN_NM":"군포시","place_name":"CU 군포흥진점","INDUTYPE_NM":"가정,생활 > 편의점 > CU","road_address_name":"경기 군포시 오금로 15-30","address_name":"경기 군포시 금정동 875-4","phone":"031-394-1776","REFINE_ZIPNO":"","y":"37.353078865862095","x":"126.9297560768115","place_url":"http://place.map.kakao.com/19205084","id":"19205084"},
  {"SIGUN_NM":"군포시","place_name":"이마트24 군포중앙공원점","INDUTYPE_NM":"가정,생활 > 편의점 > 이마트24","road_address_name":"경기 군포시 고산로 596-15","address_name":"경기 군포시 산본동 1121","phone":"02-6916-1500","REFINE_ZIPNO":"","y":"37.3631031551705","x":"126.930359693291","place_url":"http://place.map.kakao.com/467349093","id":"467349093"},
  {"SIGUN_NM":"군포시","place_name":"롯데슈퍼 대야2점","INDUTYPE_NM":"가정,생활 > 슈퍼마켓 > 대형슈퍼 > 롯데슈퍼","road_address_name":"경기 군포시 대야1로 7","address_name":"경기 군포시 대야미동 662-2","phone":"031-437-5615","REFINE_ZIPNO":"","y":"37.3265714559003","x":"126.918519281104","place_url":"http://place.map.kakao.com/18086222","id":"18086222"},
  {"SIGUN_NM":"군포시","place_name":"GS25 산본주몽점","INDUTYPE_NM":"가정,생활 > 편의점 > GS25","road_address_name":"경기 군포시 광정로 120","address_name":"경기 군포시 산본동 1120-6","phone":"","REFINE_ZIPNO":"","y":"37.36314083322349","x":"126.92709505626374","place_url":"http://place.map.kakao.com/15211996","id":"15211996"},

  {"SIGUN_NM":"군포시","place_name":"KCC페인트 우리도료","INDUTYPE_NM":"서비스,산업 > 건설,건축 > 건설자재 > 페인트,도장","road_address_name":"경기 군포시 봉성로 103","address_name":"경기 군포시 당정동 351-2","phone":"031-427-9110","REFINE_ZIPNO":"","y":"37.3526455056124","x":"126.955936255994","place_url":"http://place.map.kakao.com/26893964","id":"26893964"},
  {"SIGUN_NM":"군포시","place_name":"형제곱창","INDUTYPE_NM":"음식점 > 한식 > 육류,고기 > 곱창,막창","road_address_name":"경기 군포시 산본로323번길 10-6","address_name":"경기 군포시 산본동 1129-2","phone":"031-397-1585","REFINE_ZIPNO":"","y":"37.35943458881025","x":"126.93263419542933","place_url":"http://place.map.kakao.com/10499559","id":"10499559"},
  {"SIGUN_NM":"군포시","place_name":"이마트24 현대케피코점","INDUTYPE_NM":"가정,생활 > 편의점 > 이마트24","road_address_name":"경기 군포시 고산로 102","address_name":"경기 군포시 당정동 376-4","phone":"031-463-1580","REFINE_ZIPNO":"","y":"37.3520702483171","x":"126.959873404705","place_url":"http://place.map.kakao.com/1947555650","id":"1947555650"},
  {"SIGUN_NM":"군포시","place_name":"CU 군포팰리스점","INDUTYPE_NM":"가정,생활 > 편의점 > CU","road_address_name":"경기 군포시 군포로560번길 3","address_name":"경기 군포시 당동 747-22","phone":"","REFINE_ZIPNO":"","y":"37.35608025181179","x":"126.94719785235921","place_url":"http://place.map.kakao.com/321881697","id":"321881697"},
  {"SIGUN_NM":"군포시","place_name":"식도락","INDUTYPE_NM":"음식점 > 한식","road_address_name":"경기 군포시 속달로110번길 16","address_name":"경기 군포시 속달동 59","phone":"031-437-3335","REFINE_ZIPNO":"","y":"37.336257748292205","x":"126.90891259619606","place_url":"http://place.map.kakao.com/1327475806","id":"1327475806"},
  {"SIGUN_NM":"군포시","place_name":"반월농협 대야지점","INDUTYPE_NM":"금융,보험 > 금융서비스 > 협동,소비조합 > 농축협농협","road_address_name":"경기 군포시 대야1로 7","address_name":"경기 군포시 대야미동 662-2","phone":"031-437-1700","REFINE_ZIPNO":"","y":"37.32668407476135","x":"126.91850449168612","place_url":"http://place.map.kakao.com/10403625","id":"10403625"},
  {"SIGUN_NM":"군포시","place_name":"CU 산본중앙점","INDUTYPE_NM":"가정,생활 > 편의점 > CU","road_address_name":"경기 군포시 산본로323번길 16-36","address_name":"경기 군포시 산본동 1133","phone":"031-398-8999","REFINE_ZIPNO":"","y":"37.360350253533696","x":"126.9314503975572","place_url":"http://place.map.kakao.com/19204245","id":"19204245"},
  {"SIGUN_NM":"군포시","place_name":"미니스톱 군포공단점","INDUTYPE_NM":"가정,생활 > 편의점 > 미니스톱","road_address_name":"경기 군포시 공단로 143","address_name":"경기 군포시 당동 51-1","phone":"1577-9621","REFINE_ZIPNO":"","y":"37.3580165253174","x":"126.949174087494","place_url":"http://place.map.kakao.com/287900701","id":"287900701"},
  {"SIGUN_NM":"군포시","place_name":"CU 동군포역점","INDUTYPE_NM":"가정,생활 > 편의점 > CU","road_address_name":"경기 군포시 공단로 97","address_name":"경기 군포시 당동 135-1","phone":"031-454-5788","REFINE_ZIPNO":"","y":"37.3536989258353","x":"126.949470460028","place_url":"http://place.map.kakao.com/16467385","id":"16467385"},
  {"SIGUN_NM":"군포시","place_name":"양키캔들 산본점","INDUTYPE_NM":"가정,생활 > 생활용품점 > 양키캔들","road_address_name":"경기 군포시 산본로323번길 20-17","address_name":"경기 군포시 산본동 1139","phone":"031-394-0088","REFINE_ZIPNO":"","y":"37.35929497336818","x":"126.93114545761176","place_url":"http://place.map.kakao.com/22987175","id":"22987175"},
  {"SIGUN_NM":"군포시","place_name":"GS25 군포고점","INDUTYPE_NM":"가정,생활 > 편의점 > GS25","road_address_name":"경기 군포시 번영로550번길 23","address_name":"경기 군포시 금정동 850-5","phone":"","REFINE_ZIPNO":"","y":"37.3587000039892","x":"126.938811494936","place_url":"http://place.map.kakao.com/2141693436","id":"2141693436"},
  {"SIGUN_NM":"군포시","place_name":"새론정형외과의원","INDUTYPE_NM":"의료,건강 > 병원 > 정형외과","road_address_name":"경기 군포시 고산로264번길 13","address_name":"경기 군포시 당동 904-5","phone":"031-393-0075","REFINE_ZIPNO":"","y":"37.3478108945869","x":"126.94389907522","place_url":"http://place.map.kakao.com/9082766","id":"9082766"},
  {"SIGUN_NM":"군포시","place_name":"CU 군포송정점","INDUTYPE_NM":"가정,생활 > 편의점 > CU","road_address_name":"경기 군포시 송부로96번길 30","address_name":"경기 군포시 도마교동 479","phone":"","REFINE_ZIPNO":"","y":"37.3143050892466","x":"126.924403197538","place_url":"http://place.map.kakao.com/2067418524","id":"2067418524"},
  {"SIGUN_NM":"군포시","place_name":"CU 군포수리점","INDUTYPE_NM":"가정,생활 > 편의점 > CU","road_address_name":"경기 군포시 수리산로 42","address_name":"경기 군포시 산본동 1151-5","phone":"031-393-8704","REFINE_ZIPNO":"","y":"37.3558852231841","x":"126.920659282108","place_url":"http://place.map.kakao.com/15999339","id":"15999339"},
  {"SIGUN_NM":"군포시","place_name":"한우만","INDUTYPE_NM":"음식점 > 한식 > 육류,고기","road_address_name":"경기 군포시 공단로 350","address_name":"경기 군포시 산본동 1026-24","phone":"031-427-8829","REFINE_ZIPNO":"","y":"37.3751439152119","x":"126.942772286281","place_url":"http://place.map.kakao.com/11663760","id":"11663760"},

  {"SIGUN_NM":"군포시","place_name":"CU 군포수리점","INDUTYPE_NM":"가정,생활 > 편의점 > CU","road_address_name":"경기 군포시 수리산로 42","address_name":"경기 군포시 산본동 1151-5","phone":"031-393-8704","REFINE_ZIPNO":"","y":"37.3558852231841","x":"126.920659282108","place_url":"http://place.map.kakao.com/15999339","id":"15999339"},
  {"SIGUN_NM":"군포시","place_name":"GS25 금정센타점","INDUTYPE_NM":"가정,생활 > 편의점 > GS25","road_address_name":"경기 군포시 군포로 759-1","address_name":"경기 군포시 산본동 98","phone":"031-397-1007","REFINE_ZIPNO":"","y":"37.3729523856107","x":"126.942286229198","place_url":"http://place.map.kakao.com/17050007","id":"17050007"},
  {"SIGUN_NM":"군포시","place_name":"장어가","INDUTYPE_NM":"음식점 > 한식 > 해물,생선 > 장어","road_address_name":"경기 군포시 산본천로214번길 46","address_name":"경기 군포시 금정동 41-15","phone":"031-393-0288","REFINE_ZIPNO":"","y":"37.3701090303911","x":"126.94286642643","place_url":"http://place.map.kakao.com/27187155","id":"27187155"},
  {"SIGUN_NM":"군포시","place_name":"GS25 군포태광점","INDUTYPE_NM":"가정,생활 > 편의점 > GS25","road_address_name":"경기 군포시 번영로609번길 6","address_name":"경기 군포시 금정동 738-10","phone":"031-429-8982","REFINE_ZIPNO":"","y":"37.3636145219213","x":"126.943051966072","place_url":"http://place.map.kakao.com/12297661","id":"12297661"},
  {"SIGUN_NM":"군포시","place_name":"군포정형외과의원","INDUTYPE_NM":"의료,건강 > 병원 > 정형외과","road_address_name":"경기 군포시 군포로 493","address_name":"경기 군포시 당동 785-3","phone":"031-396-1133","REFINE_ZIPNO":"","y":"37.3505932453176","x":"126.944032330188","place_url":"http://place.map.kakao.com/1601987673","id":"1601987673"},
  {"SIGUN_NM":"군포시","place_name":"GS25 군포일동점","INDUTYPE_NM":"가정,생활 > 편의점 > GS25","road_address_name":"경기 군포시 산본로234번안길 14","address_name":"경기 군포시 당동 853-3","phone":"031-396-4249","REFINE_ZIPNO":"","y":"37.3564712553042","x":"126.943215386766","place_url":"http://place.map.kakao.com/17050058","id":"17050058"},
  {"SIGUN_NM":"군포시","place_name":"택이네조개전골","INDUTYPE_NM":"음식점 > 한식 > 해물,생선 > 조개","road_address_name":"경기 군포시 산본천로 99","address_name":"경기 군포시 산본동 1096-2","phone":"031-396-3628","REFINE_ZIPNO":"","y":"37.3635331864258","x":"126.932328001277","place_url":"http://place.map.kakao.com/27225940","id":"27225940"},
  {"SIGUN_NM":"군포시","place_name":"세븐일레븐 금정역점","INDUTYPE_NM":"가정,생활 > 편의점 > 세븐일레븐","road_address_name":"경기 군포시 군포로735번길 3","address_name":"경기 군포시 금정동 40-1","phone":"031-397-5920","REFINE_ZIPNO":"","y":"37.3708480690711","x":"126.943276805412","place_url":"http://place.map.kakao.com/21721254","id":"21721254"},
  {"SIGUN_NM":"군포시","place_name":"골든24시셀프세차 군포점","INDUTYPE_NM":"교통,수송 > 자동차 > 세차장 > 셀프세차장","road_address_name":"경기 군포시 용호1로2번길 23","address_name":"경기 군포시 당동 966-10","phone":"031-397-2447","REFINE_ZIPNO":"","y":"37.3452212868211","x":"126.94012254711","place_url":"http://place.map.kakao.com/15319168","id":"15319168"},
  {"SIGUN_NM":"군포시","place_name":"이마트24 금정역점","INDUTYPE_NM":"가정,생활 > 편의점 > 이마트24","road_address_name":"경기 군포시 산본천로199번길 12","address_name":"경기 군포시 산본동 91","phone":"031-391-2492","REFINE_ZIPNO":"","y":"37.3710587778245","x":"126.939379484984","place_url":"http://place.map.kakao.com/27260152","id":"27260152"},
  {"SIGUN_NM":"군포시","place_name":"미니스톱 군포금정점","INDUTYPE_NM":"가정,생활 > 편의점 > 미니스톱","road_address_name":"경기 군포시 금정로18번길 2","address_name":"경기 군포시 금정동 52-12","phone":"031-427-1386","REFINE_ZIPNO":"","y":"37.36729430656064","x":"126.94303563818731","place_url":"http://place.map.kakao.com/15953657","id":"15953657"},
  {"SIGUN_NM":"군포시","place_name":"CU 군포한림점","INDUTYPE_NM":"가정,생활 > 편의점 > CU","road_address_name":"경기 군포시 공단로 284","address_name":"경기 군포시 금정동 689-6","phone":"031-427-4689","REFINE_ZIPNO":"","y":"37.3696490453221","x":"126.945711695316","place_url":"http://place.map.kakao.com/1165875923","id":"1165875923"},
  {"SIGUN_NM":"군포시","place_name":"대성농장생오리훈제 군포금정점","INDUTYPE_NM":"음식점 > 한식 > 육류,고기 > 오리","road_address_name":"경기 군포시 군포로609번안길 22","address_name":"경기 군포시 금정동 773-1","phone":"031-462-2828","REFINE_ZIPNO":"","y":"37.3615081910792","x":"126.94753269399","place_url":"http://place.map.kakao.com/13087688","id":"13087688"},
  {"SIGUN_NM":"군포시","place_name":"GS25 군포흥안점","INDUTYPE_NM":"가정,생활 > 편의점 > GS25","road_address_name":"경기 군포시 군포로456번길 14","address_name":"경기 군포시 당동 922","phone":"031-399-8702","REFINE_ZIPNO":"","y":"37.3465859492685","x":"126.944866060614","place_url":"http://place.map.kakao.com/12297660","id":"12297660"},
  {"SIGUN_NM":"군포시","place_name":"글라스박스 군포산본점","INDUTYPE_NM":"가정,생활 > 패션 > 패션잡화점 > 안경,렌즈 > 글라스박스","road_address_name":"경기 군포시 산본로323번길 26-22","address_name":"경기 군포시 산본동 1138-2","phone":"031-399-0077","REFINE_ZIPNO":"","y":"37.3593875571059","x":"126.930764973249","place_url":"http://place.map.kakao.com/13096581","id":"13096581"},

  {"SIGUN_NM":"군포시","place_name":"미라클요양병원","INDUTYPE_NM":"의료,건강 > 병원 > 노인,요양병원","road_address_name":"경기 군포시 삼성로8번길 4-20","address_name":"경기 군포시 부곡동 1219-3","phone":"031-393-5566","REFINE_ZIPNO":"","y":"37.3363416610722","x":"126.935051626174","place_url":"http://place.map.kakao.com/20708958","id":"20708958"},
  {"SIGUN_NM":"군포시","place_name":"CU 군포금정점","INDUTYPE_NM":"가정,생활 > 편의점 > CU","road_address_name":"경기 군포시 산본천로 224-1","address_name":"경기 군포시 산본동 265-9","phone":"031-399-3083","REFINE_ZIPNO":"","y":"37.3716152135095","x":"126.94218338873","place_url":"http://place.map.kakao.com/16099769","id":"16099769"},
  {"SIGUN_NM":"군포시","place_name":"CU 군포첨단점","INDUTYPE_NM":"가정,생활 > 편의점 > CU","road_address_name":"경기 군포시 군포첨단산업2로8번길 26","address_name":"경기 군포시 부곡동 1253-2","phone":"031-462-5310","REFINE_ZIPNO":"","y":"37.325682579850444","x":"126.94224342173568","place_url":"http://place.map.kakao.com/1416383306","id":"1416383306"},
  {"SIGUN_NM":"군포시","place_name":"모터스테이션 안양군포점","INDUTYPE_NM":"교통,수송 > 자동차 > 자동차정비 > 모터스테이션","road_address_name":"경기 군포시 군포로641번길 3","address_name":"경기 군포시 금정동 772","phone":"031-458-5003","REFINE_ZIPNO":"","y":"37.3627981854577","x":"126.9469131949","place_url":"http://place.map.kakao.com/25671791","id":"25671791"},
  {"SIGUN_NM":"군포시","place_name":"이니스프리 군포점","INDUTYPE_NM":"가정,생활 > 미용 > 화장품 > 이니스프리","road_address_name":"경기 군포시 군포로499번길 2","address_name":"경기 군포시 당동 772-15","phone":"070-7765-9839","REFINE_ZIPNO":"","y":"37.3512422590297","x":"126.944420220589","place_url":"http://place.map.kakao.com/17689316","id":"17689316"},
  {"SIGUN_NM":"군포시","place_name":"이마트24 이마트산본점","INDUTYPE_NM":"가정,생활 > 편의점 > 이마트24","road_address_name":"경기 군포시 산본로 347","address_name":"경기 군포시 산본동 1123","phone":"02-6916-1500","REFINE_ZIPNO":"","y":"37.3610890771577","x":"126.931418118921","place_url":"http://place.map.kakao.com/113889958","id":"113889958"},
  {"SIGUN_NM":"군포시","place_name":"산본스파랜드","INDUTYPE_NM":"가정,생활 > 목욕탕,사우나 > 찜질방","road_address_name":"경기 군포시 번영로 504","address_name":"경기 군포시 산본동 1231","phone":"031-397-0808","REFINE_ZIPNO":"","y":"37.3580157401782","x":"126.93310954369","place_url":"http://place.map.kakao.com/7910872","id":"7910872"},
  {"SIGUN_NM":"군포시","place_name":"한국유통","INDUTYPE_NM":"가정,생활 > 슈퍼마켓 > 대형슈퍼","road_address_name":"경기 군포시 고산로250번길 13","address_name":"경기 군포시 당동 919","phone":"031-398-8114","REFINE_ZIPNO":"","y":"37.3472416935599","x":"126.944427683968","place_url":"http://place.map.kakao.com/15203431","id":"15203431"},
  {"SIGUN_NM":"군포시","place_name":"이마트24 당정역점","INDUTYPE_NM":"가정,생활 > 편의점 > 이마트24","road_address_name":"경기 군포시 당정역로 92","address_name":"경기 군포시 당정동 1010-1","phone":"031-477-3505","REFINE_ZIPNO":"","y":"37.344392863493","x":"126.948925959838","place_url":"http://place.map.kakao.com/27260607","id":"27260607"},
  {"SIGUN_NM":"군포시","place_name":"크린토피아 산본화남상가점","INDUTYPE_NM":"가정,생활 > 세탁소 > 크린토피아","road_address_name":"경기 군포시 금산로 55","address_name":"경기 군포시 산본동 1036-2","phone":"031-391-7074","REFINE_ZIPNO":"","y":"37.367072293712","x":"126.938709869252","place_url":"http://place.map.kakao.com/13076763","id":"13076763"},
  {"SIGUN_NM":"군포시","place_name":"이정래식당 금정점","INDUTYPE_NM":"음식점 > 한식 > 육류,고기","road_address_name":"경기 군포시 군포로719번길 1","address_name":"경기 군포시 금정동 44-1","phone":"031-427-7762","REFINE_ZIPNO":"","y":"37.3694968172898","x":"126.943878415776","place_url":"http://place.map.kakao.com/20909209","id":"20909209"},
  {"SIGUN_NM":"군포시","place_name":"GS25 송정금강점","INDUTYPE_NM":"","road_address_name":"경기 군포시 송부로96번길 13","address_name":"도마교동 471","phone":"","REFINE_ZIPNO":"","y":"37.315690269721074","x":"126.92483153297599","place_url":"https://place.map.kakao.com/1053665244","id":"1053665244"},
  {"SIGUN_NM":"군포시","place_name":"GS25 군포열린점","INDUTYPE_NM":"가정,생활 > 편의점 > GS25","road_address_name":"경기 군포시 당동로22번길 21","address_name":"경기 군포시 당동 763-3","phone":"031-456-4376","REFINE_ZIPNO":"","y":"37.3520845107382","x":"126.942103561736","place_url":"http://place.map.kakao.com/17050009","id":"17050009"},
  {"SIGUN_NM":"군포시","place_name":"수리산채","INDUTYPE_NM":"음식점 > 한식 > 육류,고기 > 불고기,두루치기","road_address_name":"경기 군포시 속달로110번길 6","address_name":"경기 군포시 속달동 66","phone":"031-502-7333","REFINE_ZIPNO":"","y":"37.3355022598767","x":"126.908362837025","place_url":"http://place.map.kakao.com/26910936","id":"26910936"},
  {"SIGUN_NM":"군포시","place_name":"크린토피아 코인워시 군포당정엘지점","INDUTYPE_NM":"가정,생활 > 세탁소 > 크린토피아","road_address_name":"경기 군포시 고산로151번길 26-4","address_name":"경기 군포시 당정동 971-5","phone":"031-456-5680","REFINE_ZIPNO":"","y":"37.34645626473787","x":"126.95574236988779","place_url":"http://place.map.kakao.com/13076877","id":"13076877"},

  {"SIGUN_NM":"군포시","place_name":"세븐일레븐 산본점","INDUTYPE_NM":"가정,생활 > 편의점 > 세븐일레븐","road_address_name":"경기 군포시 고산로 529","address_name":"경기 군포시 산본동 1147","phone":"031-392-6320","REFINE_ZIPNO":"","y":"37.3605286475922","x":"126.922668172856","place_url":"http://place.map.kakao.com/21721231","id":"21721231"},
  {"SIGUN_NM":"군포시","place_name":"대게좋은집 군포점","INDUTYPE_NM":"음식점 > 한식 > 해물,생선 > 게,대게","road_address_name":"경기 군포시 삼성로20번길 16-7","address_name":"경기 군포시 부곡동 1212-4","phone":"031-393-3688","REFINE_ZIPNO":"","y":"37.3381724033896","x":"126.934774704303","place_url":"http://place.map.kakao.com/1135409903","id":"1135409903"},
  {"SIGUN_NM":"군포시","place_name":"CU 금정중앙점","INDUTYPE_NM":"가정,생활 > 편의점 > CU","road_address_name":"경기 군포시 당산로148번안길 28","address_name":"경기 군포시 금정동 84-18","phone":"","REFINE_ZIPNO":"","y":"37.3658350243949","x":"126.943831472478","place_url":"http://place.map.kakao.com/713448106","id":"713448106"},
  {"SIGUN_NM":"군포시","place_name":"CU 산본무궁화점","INDUTYPE_NM":"가정,생활 > 편의점 > CU","road_address_name":"경기 군포시 산본로 294","address_name":"경기 군포시 금정동 849-4","phone":"031-393-9100","REFINE_ZIPNO":"","y":"37.3576497564062","x":"126.93606721112","place_url":"http://place.map.kakao.com/19205515","id":"19205515"},
  {"SIGUN_NM":"군포시","place_name":"손커피연구소 산본역점","INDUTYPE_NM":"음식점 > 카페 > 커피전문점","road_address_name":"경기 군포시 번영로 497","address_name":"경기 군포시 산본동 1142-5","phone":"0507-1350-8058","REFINE_ZIPNO":"","y":"37.3583072054488","x":"126.932287542965","place_url":"http://place.map.kakao.com/1091015560","id":"1091015560"},
  {"SIGUN_NM":"군포시","place_name":"스피드메이트 이마트산본점","INDUTYPE_NM":"교통,수송 > 자동차 > 자동차정비 > 스피드메이트","road_address_name":"경기 군포시 산본로 347","address_name":"경기 군포시 산본동 1123","phone":"031-391-5188","REFINE_ZIPNO":"","y":"37.3610566271044","x":"126.931395572295","place_url":"http://place.map.kakao.com/7969429","id":"7969429"},
  {"SIGUN_NM":"군포시","place_name":"CU 군포IT벨리점","INDUTYPE_NM":"가정,생활 > 편의점 > CU","road_address_name":"경기 군포시 고산로148번길 17","address_name":"경기 군포시 당정동 1045","phone":"031-8086-8222","REFINE_ZIPNO":"","y":"37.3493649749861","x":"126.95387503254","place_url":"http://place.map.kakao.com/22875236","id":"22875236"},
  {"SIGUN_NM":"군포시","place_name":"크린토피아 산본래미안점","INDUTYPE_NM":"가정,생활 > 세탁소 > 크린토피아","road_address_name":"경기 군포시 금산로 89","address_name":"경기 군포시 산본동 1240","phone":"031-393-0999","REFINE_ZIPNO":"","y":"37.3698500444623","x":"126.936783896687","place_url":"http://place.map.kakao.com/13076710","id":"13076710"},
  {"SIGUN_NM":"군포시","place_name":"CU 군포쌍용점","INDUTYPE_NM":"가정,생활 > 편의점 > CU","road_address_name":"경기 군포시 용호2로 47","address_name":"경기 군포시 당동 873","phone":"","REFINE_ZIPNO":"","y":"37.3446533923502","x":"126.9432807151","place_url":"http://place.map.kakao.com/2014332654","id":"2014332654"},
  {"SIGUN_NM":"군포시","place_name":"이브자리 군포산본점","INDUTYPE_NM":"가정,생활 > 생활용품점 > 침구판매 > 이브자리","road_address_name":"경기 군포시 산본천로 184-1","address_name":"경기 군포시 산본동 224-8","phone":"031-396-5433","REFINE_ZIPNO":"","y":"37.3694221805469","x":"126.938730536352","place_url":"http://place.map.kakao.com/9323105","id":"9323105"},
  {"SIGUN_NM":"군포시","place_name":"365늘봄메디칼의원","INDUTYPE_NM":"의료,건강 > 병원 > 일반의원","road_address_name":"경기 군포시 군포첨단산업2로 4","address_name":"경기 군포시 부곡동 1248","phone":"031-461-3119","REFINE_ZIPNO":"","y":"37.3257951615413","x":"126.940332029058","place_url":"http://place.map.kakao.com/506643876","id":"506643876"},
  {"SIGUN_NM":"군포시","place_name":"CU 당동삼성마을점","INDUTYPE_NM":"가정,생활 > 편의점 > CU","road_address_name":"경기 군포시 삼성로87번길 3-3","address_name":"경기 군포시 당동 1029-2","phone":"031-395-3007","REFINE_ZIPNO":"","y":"37.3411824531829","x":"126.935887069306","place_url":"http://place.map.kakao.com/26153761","id":"26153761"},
  {"SIGUN_NM":"군포시","place_name":"CU 군포역전점","INDUTYPE_NM":"가정,생활 > 편의점 > CU","road_address_name":"경기 군포시 군포역1길 32","address_name":"경기 군포시 당동 778-3","phone":"031-429-4943","REFINE_ZIPNO":"","y":"37.3531322969718","x":"126.94766945192","place_url":"http://place.map.kakao.com/19201275","id":"19201275"},
  {"SIGUN_NM":"군포시","place_name":"CU 산본래미안점","INDUTYPE_NM":"가정,생활 > 편의점 > CU","road_address_name":"경기 군포시 금산로 65","address_name":"경기 군포시 산본동 1240","phone":"031-399-8569","REFINE_ZIPNO":"","y":"37.369839280393684","x":"126.93687422086606","place_url":"http://place.map.kakao.com/19207823","id":"19207823"},
  {"SIGUN_NM":"군포시","place_name":"우성현대서비스","INDUTYPE_NM":"교통,수송 > 자동차 > 자동차정비","road_address_name":"경기 군포시 공단로 125","address_name":"경기 군포시 당동 44","phone":"031-427-5546","REFINE_ZIPNO":"","y":"37.3563477775509","x":"126.949071368889","place_url":"http://place.map.kakao.com/1598514600","id":"1598514600"},

  {"SIGUN_NM":"군포시","place_name":"데이지피부과","INDUTYPE_NM":"의료,건강 > 병원 > 피부과","road_address_name":"경기 군포시 고산로 251","address_name":"경기 군포시 당동 871-4","phone":"031-391-7277","REFINE_ZIPNO":"","y":"37.3458719867939","x":"126.944126233853","place_url":"http://place.map.kakao.com/19833443","id":"19833443"},
  {"SIGUN_NM":"군포시","place_name":"CU 군포삼성점","INDUTYPE_NM":"가정,생활 > 편의점 > CU","road_address_name":"경기 군포시 삼성로20번길 1","address_name":"경기 군포시 부곡동 1210-4","phone":"031-396-6163","REFINE_ZIPNO":"","y":"37.3373930189457","x":"126.933172974246","place_url":"http://place.map.kakao.com/1307888732","id":"1307888732"},
  {"SIGUN_NM":"군포시","place_name":"CU 군포금강점","INDUTYPE_NM":"가정,생활 > 편의점 > CU","road_address_name":"","address_name":"경기 군포시 도마교동 458","phone":"031-502-2917","REFINE_ZIPNO":"","y":"37.318135114825985","x":"126.91856449002869","place_url":"http://place.map.kakao.com/1776031615","id":"1776031615"},
  {"SIGUN_NM":"군포시","place_name":"GS25 산본스타점","INDUTYPE_NM":"가정,생활 > 편의점 > GS25","road_address_name":"경기 군포시 고산로724번길 22","address_name":"경기 군포시 산본동 80-5","phone":"031-398-8198","REFINE_ZIPNO":"","y":"37.3729253598781","x":"126.938714139431","place_url":"http://place.map.kakao.com/16311061","id":"16311061"},
  {"SIGUN_NM":"군포시","place_name":"CU 군포SATower점","INDUTYPE_NM":"가정,생활 > 편의점 > CU","road_address_name":"경기 군포시 엘에스로 175","address_name":"경기 군포시 산본동 1026-31","phone":"031-427-7166","REFINE_ZIPNO":"","y":"37.375215493711096","x":"126.94359980352333","place_url":"http://place.map.kakao.com/19205350","id":"19205350"},
  {"SIGUN_NM":"군포시","place_name":"스파렉스","INDUTYPE_NM":"가정,생활 > 목욕탕,사우나 > 찜질방","road_address_name":"경기 군포시 고산로 693","address_name":"경기 군포시 산본동 1060-1","phone":"031-391-0066","REFINE_ZIPNO":"","y":"37.3721016308747","x":"126.934980166057","place_url":"http://place.map.kakao.com/16100385","id":"16100385"},
  {"SIGUN_NM":"군포시","place_name":"버거킹 산본점","INDUTYPE_NM":"음식점 > 패스트푸드 > 버거킹","road_address_name":"경기 군포시 산본로 382","address_name":"경기 군포시 산본동 1097","phone":"031-395-0332","REFINE_ZIPNO":"","y":"37.3644221991097","x":"126.930259134792","place_url":"http://place.map.kakao.com/25108876","id":"25108876"},
  {"SIGUN_NM":"군포시","place_name":"365편한내과의원","INDUTYPE_NM":"의료,건강 > 병원 > 내과","road_address_name":"경기 군포시 군포역1길 10","address_name":"경기 군포시 당동 777-3","phone":"031-477-3654","REFINE_ZIPNO":"","y":"37.3531931090815","x":"126.946644559125","place_url":"http://place.map.kakao.com/19388535","id":"19388535"},
  {"SIGUN_NM":"군포시","place_name":"CU 군포본점","INDUTYPE_NM":"가정,생활 > 편의점 > CU","road_address_name":"경기 군포시 당동로 24","address_name":"경기 군포시 당동 763-20","phone":"031-429-3753","REFINE_ZIPNO":"","y":"37.3512229881115","x":"126.941819800883","place_url":"http://place.map.kakao.com/11285558","id":"11285558"},
  {"SIGUN_NM":"군포시","place_name":"더식당 산본점","INDUTYPE_NM":"음식점 > 양식","road_address_name":"경기 군포시 산본로323번길 16-29","address_name":"경기 군포시 산본동 1136-1","phone":"070-4139-9588","REFINE_ZIPNO":"","y":"37.359927493613085","x":"126.93114375096859","place_url":"http://place.map.kakao.com/21554493","id":"21554493"},
  {"SIGUN_NM":"군포시","place_name":"이마트24 군포송정점","INDUTYPE_NM":"가정,생활 > 편의점 > 이마트24","road_address_name":"경기 군포시 송부로96번길 29","address_name":"경기 군포시 도마교동 471-1","phone":"031-408-9127","REFINE_ZIPNO":"","y":"37.31448753851224","x":"126.92509567498396","place_url":"http://place.map.kakao.com/828435942","id":"828435942"},
  {"SIGUN_NM":"군포시","place_name":"세븐일레븐 군포온누리점","INDUTYPE_NM":"가정,생활 > 편의점 > 세븐일레븐","road_address_name":"경기 군포시 군포로510번길 25","address_name":"경기 군포시 당동 780-2","phone":"031-459-4567","REFINE_ZIPNO":"","y":"37.3520324806163","x":"126.946415131319","place_url":"http://place.map.kakao.com/14495206","id":"14495206"},
  {"SIGUN_NM":"군포시","place_name":"윈치과병원","INDUTYPE_NM":"의료,건강 > 병원 > 치과","road_address_name":"경기 군포시 산본로 398","address_name":"경기 군포시 산본동 1099-1","phone":"1544-7528","REFINE_ZIPNO":"","y":"37.36543264612864","x":"126.92940815803364","place_url":"http://place.map.kakao.com/8509407","id":"8509407"},
  {"SIGUN_NM":"군포시","place_name":"쿠우쿠우 산본점","INDUTYPE_NM":"음식점 > 뷔페 > 해산물뷔페 > 쿠우쿠우","road_address_name":"경기 군포시 산본로323번길 16-30","address_name":"경기 군포시 산본동 1133-1","phone":"031-392-3377","REFINE_ZIPNO":"","y":"37.360170142254","x":"126.931613107778","place_url":"http://place.map.kakao.com/2144215639","id":"2144215639"},
  {"SIGUN_NM":"군포시","place_name":"리싸이클오피스 안양군포점","INDUTYPE_NM":"가정,생활 > 중고용품 > 중고가전","road_address_name":"경기 군포시 엘에스로45번길 49","address_name":"경기 군포시 당정동 231-1","phone":"1600-4278","REFINE_ZIPNO":"","y":"37.365680786367726","x":"126.9538740781277","place_url":"http://place.map.kakao.com/26451346","id":"26451346"},

  {"SIGUN_NM":"군포시","place_name":"에그드랍 산본로데오점","INDUTYPE_NM":"음식점 > 간식 > 샌드위치 > 에그드랍","road_address_name":"경기 군포시 산본로323번길 26-30","address_name":"경기 군포시 산본동 1137-2","phone":"031-395-7779","REFINE_ZIPNO":"","y":"37.359697318979016","x":"126.93043846914664","place_url":"http://place.map.kakao.com/1217120182","id":"1217120182"},
  {"SIGUN_NM":"군포시","place_name":"미니스톱 군포삼성점","INDUTYPE_NM":"가정,생활 > 편의점 > 미니스톱","road_address_name":"경기 군포시 삼성로 41","address_name":"경기 군포시 부곡동 1204","phone":"1577-9621","REFINE_ZIPNO":"","y":"37.3385346641329","x":"126.931664326055","place_url":"http://place.map.kakao.com/27556101","id":"27556101"},
  {"SIGUN_NM":"군포시","place_name":"크린토피아 산본역사상가점","INDUTYPE_NM":"가정,생활 > 세탁소 > 크린토피아","road_address_name":"경기 군포시 번영로 502","address_name":"경기 군포시 금정동 874-1","phone":"031-399-3010","REFINE_ZIPNO":"","y":"37.3576122506495","x":"126.933412408417","place_url":"http://place.map.kakao.com/13076648","id":"13076648"},
  {"SIGUN_NM":"군포시","place_name":"현대약국","INDUTYPE_NM":"의료,건강 > 약국","road_address_name":"경기 군포시 산본로323번길 26-18","address_name":"경기 군포시 산본동 1139-3","phone":"031-399-7780","REFINE_ZIPNO":"","y":"37.3591570129497","x":"126.930968365299","place_url":"http://place.map.kakao.com/1594936478","id":"1594936478"},
  {"SIGUN_NM":"군포시","place_name":"고기창고","INDUTYPE_NM":"음식점 > 한식 > 한정식","road_address_name":"경기 군포시 산본천로226번길 19","address_name":"경기 군포시 산본동 266-11","phone":"031-397-5353","REFINE_ZIPNO":"","y":"37.371089378784","x":"126.94293342046","place_url":"http://place.map.kakao.com/27536329","id":"27536329"},
  {"SIGUN_NM":"군포시","place_name":"정관장 산본역점","INDUTYPE_NM":"의료,건강 > 건강식품판매 > 인삼,홍삼 > 정관장","road_address_name":"경기 군포시 산본로 339","address_name":"경기 군포시 산본동 1125-2","phone":"031-397-0853","REFINE_ZIPNO":"","y":"37.36063923089","x":"126.932578936206","place_url":"http://place.map.kakao.com/16169232","id":"16169232"},
  {"SIGUN_NM":"군포시","place_name":"CU 산본금산점","INDUTYPE_NM":"가정,생활 > 편의점 > CU","road_address_name":"경기 군포시 금산로62번길 11","address_name":"경기 군포시 산본동 229-16","phone":"","REFINE_ZIPNO":"","y":"37.368178935435","x":"126.939061190377","place_url":"http://place.map.kakao.com/143645360","id":"143645360"},
  {"SIGUN_NM":"군포시","place_name":"군포시청소년수련관","INDUTYPE_NM":"교육,학문 > 교육단체 > 청소년수련시설","road_address_name":"경기 군포시 산본로 322","address_name":"경기 군포시 금정동 847-3","phone":"031-390-1400","REFINE_ZIPNO":"","y":"37.35987637741624","x":"126.93475028193767","place_url":"http://place.map.kakao.com/8215483","id":"8215483"},
  {"SIGUN_NM":"군포시","place_name":"택이네조개전골","INDUTYPE_NM":"음식점 > 한식 > 해물,생선 > 조개","road_address_name":"경기 군포시 용호1로2번길 47-7","address_name":"경기 군포시 당동 962-3","phone":"031-392-1357","REFINE_ZIPNO":"","y":"37.3464401582448","x":"126.941480400335","place_url":"http://place.map.kakao.com/227629033","id":"227629033"},
  {"SIGUN_NM":"군포시","place_name":"종로제주아방","INDUTYPE_NM":"음식점 > 한식 > 육류,고기","road_address_name":"경기 군포시 군포로735번길 20","address_name":"경기 군포시 산본동 252-13","phone":"031-394-3883","REFINE_ZIPNO":"","y":"37.370609741957","x":"126.942333181881","place_url":"http://place.map.kakao.com/27197296","id":"27197296"},
  {"SIGUN_NM":"군포시","place_name":"오토오아시스 군포스타점","INDUTYPE_NM":"교통,수송 > 자동차 > 자동차정비 > 오토오아시스","road_address_name":"경기 군포시 고산로 688","address_name":"경기 군포시 산본동 207-6","phone":"031-397-5189","REFINE_ZIPNO":"","y":"37.37132508841912","x":"126.9352382395059","place_url":"http://place.map.kakao.com/11877727","id":"11877727"},
  {"SIGUN_NM":"군포시","place_name":"본정형외과의원","INDUTYPE_NM":"의료,건강 > 병원 > 정형외과","road_address_name":"경기 군포시 군포로 444","address_name":"경기 군포시 당동 872","phone":"031-391-7525","REFINE_ZIPNO":"","y":"37.3462135618495","x":"126.942424073718","place_url":"http://place.map.kakao.com/9024803","id":"9024803"},
  {"SIGUN_NM":"군포시","place_name":"CU 한세대학교점","INDUTYPE_NM":"가정,생활 > 편의점 > CU","road_address_name":"경기 군포시 한세로 30","address_name":"경기 군포시 당정동 964-3","phone":"031-457-5057","REFINE_ZIPNO":"","y":"37.346030698458634","x":"126.95268980296679","place_url":"http://place.map.kakao.com/26897190","id":"26897190"},
  {"SIGUN_NM":"군포시","place_name":"크린토피아 산본퇴계주공점","INDUTYPE_NM":"가정,생활 > 세탁소 > 크린토피아","road_address_name":"경기 군포시 광정로 25-16","address_name":"경기 군포시 금정동 875-2","phone":"031-393-5929","REFINE_ZIPNO":"","y":"37.3557984470018","x":"126.931770581285","place_url":"http://place.map.kakao.com/13076622","id":"13076622"},
  {"SIGUN_NM":"군포시","place_name":"가락공판장식자재마트","INDUTYPE_NM":"가정,생활 > 슈퍼마켓","road_address_name":"경기 군포시 수리산로 8","address_name":"경기 군포시 산본동 1151-5","phone":"031-392-5255","REFINE_ZIPNO":"","y":"37.35785145490354","x":"126.9236856746356","place_url":"http://place.map.kakao.com/415469795","id":"415469795"},

  {"SIGUN_NM":"군포시","place_name":"CU 군포첨단2호점","INDUTYPE_NM":"가정,생활 > 편의점 > CU","road_address_name":"경기 군포시 군포첨단산업2로 3","address_name":"경기 군포시 부곡동 1244-4","phone":"031-461-5310","REFINE_ZIPNO":"","y":"37.326141173273875","x":"126.94036221916431","place_url":"http://place.map.kakao.com/1873073891","id":"1873073891"},
  {"SIGUN_NM":"군포시","place_name":"초록마을 군포삼성마을점","INDUTYPE_NM":"가정,생활 > 슈퍼마켓 > 유기농슈퍼 > 초록마을","road_address_name":"경기 군포시 삼성로87번길 3-7","address_name":"경기 군포시 당동 1029","phone":"031-392-3042","REFINE_ZIPNO":"","y":"37.341120128899576","x":"126.93560499496118","place_url":"http://place.map.kakao.com/1971319505","id":"1971319505"},
  {"SIGUN_NM":"군포시","place_name":"아름다운피부과의원","INDUTYPE_NM":"의료,건강 > 병원 > 피부과","road_address_name":"경기 군포시 산본로323번길 16-26","address_name":"경기 군포시 산본동 1133-2","phone":"031-395-7600","REFINE_ZIPNO":"","y":"37.35993958365414","x":"126.93179392354268","place_url":"http://place.map.kakao.com/11897929","id":"11897929"},
  {"SIGUN_NM":"군포시","place_name":"은빛","INDUTYPE_NM":"음식점 > 한식 > 육류,고기 > 오리","road_address_name":"경기 군포시 고산로151번길 7","address_name":"경기 군포시 당정동 974-3","phone":"031-427-2055","REFINE_ZIPNO":"","y":"37.3480608786605","x":"126.955424287719","place_url":"http://place.map.kakao.com/27081378","id":"27081378"},
  {"SIGUN_NM":"군포시","place_name":"오토오아시스 당정스타점","INDUTYPE_NM":"교통,수송 > 자동차 > 자동차정비 > 오토오아시스","road_address_name":"경기 군포시 고산로 109","address_name":"경기 군포시 당정동 405-1","phone":"031-477-0481","REFINE_ZIPNO":"","y":"37.3497561204196","x":"126.959039443732","place_url":"http://place.map.kakao.com/11877749","id":"11877749"},
  {"SIGUN_NM":"군포시","place_name":"정관장 경기군포역점","INDUTYPE_NM":"의료,건강 > 건강식품판매 > 인삼,홍삼 > 정관장","road_address_name":"경기 군포시 군포로 487","address_name":"경기 군포시 당동 785-16","phone":"031-396-3385","REFINE_ZIPNO":"","y":"37.349950034690615","x":"126.94410402494034","place_url":"http://place.map.kakao.com/11829173","id":"11829173"},
  {"SIGUN_NM":"군포시","place_name":"호텔밴드","INDUTYPE_NM":"여행 > 숙박 > 여관,모텔","road_address_name":"경기 군포시 군포로 647","address_name":"경기 군포시 금정동 771-3","phone":"031-452-2626","REFINE_ZIPNO":"","y":"37.3634467497268","x":"126.946524415811","place_url":"http://place.map.kakao.com/691647336","id":"691647336"},
  {"SIGUN_NM":"군포시","place_name":"크린토피아 군포부곡휴먼시아중앙점","INDUTYPE_NM":"가정,생활 > 세탁소 > 크린토피아","road_address_name":"경기 군포시 송부로273번안길 14","address_name":"경기 군포시 부곡동 1134-6","phone":"031-461-8119","REFINE_ZIPNO":"","y":"37.3220228300384","x":"126.942749410343","place_url":"http://place.map.kakao.com/13076826","id":"13076826"},
  {"SIGUN_NM":"군포시","place_name":"쉐프돈까스","INDUTYPE_NM":"음식점 > 일식 > 돈까스,우동","road_address_name":"경기 군포시 고산로 515","address_name":"경기 군포시 산본동 1151","phone":"031-396-7111","REFINE_ZIPNO":"","y":"37.3593211328812","x":"126.922457200867","place_url":"http://place.map.kakao.com/18948901","id":"18948901"},
  {"SIGUN_NM":"군포시","place_name":"CU 군포한림타워점","INDUTYPE_NM":"가정,생활 > 편의점 > CU","road_address_name":"경기 군포시 공단로140번길 22","address_name":"경기 군포시 당정동 181-4","phone":"","REFINE_ZIPNO":"","y":"37.357167241933816","x":"126.95226291905453","place_url":"http://place.map.kakao.com/1141104897","id":"1141104897"},
  {"SIGUN_NM":"군포시","place_name":"세븐일레븐 군포한세대점","INDUTYPE_NM":"가정,생활 > 편의점 > 세븐일레븐","road_address_name":"경기 군포시 고산로185번길 4","address_name":"경기 군포시 당정동 1002-1","phone":"031-429-5520","REFINE_ZIPNO":"","y":"37.346895246468165","x":"126.95160129416853","place_url":"http://place.map.kakao.com/19031510","id":"19031510"},
  {"SIGUN_NM":"군포시","place_name":"그레닉스 본사","INDUTYPE_NM":"서비스,산업 > 식품 > 식품가공,제조","road_address_name":"경기 군포시 공단로140번길 37","address_name":"경기 군포시 당정동 181-36","phone":"02-512-6257","REFINE_ZIPNO":"","y":"37.35786889322608","x":"126.95390594939376","place_url":"http://place.map.kakao.com/20460700","id":"20460700"},
  {"SIGUN_NM":"군포시","place_name":"숨맑은집 산본점","INDUTYPE_NM":"음식점 > 카페 > 테마카페 > 디저트카페","road_address_name":"경기 군포시 산본로323번길 22","address_name":"경기 군포시 산본동 1140-1","phone":"031-426-0156","REFINE_ZIPNO":"","y":"37.35878079260787","x":"126.93167306463421","place_url":"http://place.map.kakao.com/797016056","id":"797016056"},
  {"SIGUN_NM":"군포시","place_name":"세븐일레븐 금정3호점","INDUTYPE_NM":"가정,생활 > 편의점 > 세븐일레븐","road_address_name":"경기 군포시 군포로707번길 3","address_name":"경기 군포시 금정동 77-16","phone":"031-459-2791","REFINE_ZIPNO":"","y":"37.3682933282393","x":"126.944475379983","place_url":"http://place.map.kakao.com/7950147","id":"7950147"},
  {"SIGUN_NM":"군포시","place_name":"베스트바이크 야마하군포협력점","INDUTYPE_NM":"교통,수송 > 오토바이","road_address_name":"경기 군포시 군포로 579","address_name":"경기 군포시 당동 731-8","phone":"031-452-9596","REFINE_ZIPNO":"","y":"37.3576228975957","x":"126.947390917806","place_url":"http://place.map.kakao.com/1323453236","id":"1323453236"},

  {"SIGUN_NM":"군포시","place_name":"오토오아시스 군포당동점","INDUTYPE_NM":"교통,수송 > 자동차 > 자동차정비 > 오토오아시스","road_address_name":"경기 군포시 번영로 204","address_name":"경기 군포시 부곡동 1180","phone":"031-427-0711","REFINE_ZIPNO":"","y":"37.3339042062926","x":"126.927037561744","place_url":"http://place.map.kakao.com/19452752","id":"19452752"},
  {"SIGUN_NM":"군포시","place_name":"마구로코다와리 산본본점","INDUTYPE_NM":"음식점 > 일식 > 초밥,롤","road_address_name":"경기 군포시 산본로323번길 21","address_name":"경기 군포시 산본동 1141-1","phone":"031-393-6986","REFINE_ZIPNO":"","y":"37.3586024726156","x":"126.931817708973","place_url":"http://place.map.kakao.com/1976926608","id":"1976926608"},
  {"SIGUN_NM":"군포시","place_name":"세븐일레븐 군포역점","INDUTYPE_NM":"가정,생활 > 편의점 > 세븐일레븐","road_address_name":"경기 군포시 군포역1길 10","address_name":"경기 군포시 당동 777-3","phone":"031-427-9901","REFINE_ZIPNO":"","y":"37.3531931050085","x":"126.946635529608","place_url":"http://place.map.kakao.com/10472121","id":"10472121"},
  {"SIGUN_NM":"군포시","place_name":"산본볼링센타","INDUTYPE_NM":"스포츠,레저 > 볼링 > 볼링장","road_address_name":"경기 군포시 고산로 722","address_name":"경기 군포시 산본1동 71","phone":"031-395-3456","REFINE_ZIPNO":"","y":"37.3733250004531","x":"126.937919004227","place_url":"http://place.map.kakao.com/12452741","id":"12452741"},
  {"SIGUN_NM":"군포시","place_name":"온다피자","INDUTYPE_NM":"음식점 > 양식 > 피자","road_address_name":"경기 군포시 산본로323번길 6","address_name":"경기 군포시 산본동 1129-1","phone":"031-394-0667","REFINE_ZIPNO":"","y":"37.359499671110505","x":"126.93300099219654","place_url":"http://place.map.kakao.com/1185486522","id":"1185486522"},
  {"SIGUN_NM":"군포시","place_name":"크린토피아 군포당동용호점","INDUTYPE_NM":"가정,생활 > 세탁소 > 크린토피아","road_address_name":"경기 군포시 용호1로60번길 14","address_name":"경기 군포시 당동 961-2","phone":"031-395-3777","REFINE_ZIPNO":"","y":"37.3470780152777","x":"126.941335444697","place_url":"http://place.map.kakao.com/12586041","id":"12586041"},
  {"SIGUN_NM":"군포시","place_name":"투썸플레이스 군포첨단산업단지점","INDUTYPE_NM":"음식점 > 카페 > 커피전문점 > 투썸플레이스","road_address_name":"경기 군포시 군포첨단산업2로 4","address_name":"부곡동 1248","phone":"031-462-5288","REFINE_ZIPNO":"","y":"37.32579939741724","x":"126.94032847338934","place_url":"https://place.map.kakao.com/965704209","id":"965704209"},
  {"SIGUN_NM":"군포시","place_name":"토담샤브샤브칼국수 산본분점","INDUTYPE_NM":"음식점 > 샤브샤브","road_address_name":"경기 군포시 산본로323번길 20-17","address_name":"경기 군포시 산본동 1139","phone":"031-392-8852","REFINE_ZIPNO":"","y":"37.3592652703476","x":"126.93119853745","place_url":"http://place.map.kakao.com/619605929","id":"619605929"},
  {"SIGUN_NM":"군포시","place_name":"허니듀","INDUTYPE_NM":"음식점 > 양식","road_address_name":"경기 군포시 호수로 124-9","address_name":"경기 군포시 둔대동 346-3","phone":"031-437-5003","REFINE_ZIPNO":"","y":"37.3232855949934","x":"126.892785364644","place_url":"http://place.map.kakao.com/23003346","id":"23003346"},
  {"SIGUN_NM":"군포시","place_name":"CU 군포두산점","INDUTYPE_NM":"가정,생활 > 편의점 > CU","road_address_name":"경기 군포시 군포로464번길 24","address_name":"경기 군포시 당동 913","phone":"","REFINE_ZIPNO":"","y":"37.3474244037262","x":"126.945943264079","place_url":"http://place.map.kakao.com/250519082","id":"250519082"},
  {"SIGUN_NM":"군포시","place_name":"하나로해물찜","INDUTYPE_NM":"음식점 > 한식 > 해물,생선 > 매운탕,해물탕","road_address_name":"경기 군포시 산본천로221번길 3","address_name":"경기 군포시 산본동 93-30","phone":"031-399-3211","REFINE_ZIPNO":"","y":"37.3722130717199","x":"126.941324908941","place_url":"http://place.map.kakao.com/10867423","id":"10867423"},
  {"SIGUN_NM":"군포시","place_name":"세븐일레븐 금정영빈점","INDUTYPE_NM":"가정,생활 > 편의점 > 세븐일레븐","road_address_name":"경기 군포시 산본천로214번길 6","address_name":"경기 군포시 산본동 238-10","phone":"031-395-3789","REFINE_ZIPNO":"","y":"37.3708290677437","x":"126.941267281233","place_url":"http://place.map.kakao.com/13055731","id":"13055731"},
  {"SIGUN_NM":"군포시","place_name":"삼흥환경건설","INDUTYPE_NM":"서비스,산업 > 환경 > 쓰레기,폐기물처리","road_address_name":"경기 군포시 고산로151번길 7","address_name":"경기 군포시 당정동 974-3","phone":"031-458-6162","REFINE_ZIPNO":"","y":"37.34811853260904","x":"126.95539265243882","place_url":"http://place.map.kakao.com/9081115","id":"9081115"},
  {"SIGUN_NM":"군포시","place_name":"우마이스시","INDUTYPE_NM":"음식점 > 일식 > 초밥,롤","road_address_name":"경기 군포시 산본로323번길 16-29","address_name":"경기 군포시 산본동 1136-1","phone":"031-392-3399","REFINE_ZIPNO":"","y":"37.3598562704142","x":"126.931071573494","place_url":"http://place.map.kakao.com/19365247","id":"19365247"},
  {"SIGUN_NM":"군포시","place_name":"그로스병원","INDUTYPE_NM":"의료,건강 > 병원 > 노인,요양병원","road_address_name":"경기 군포시 당산로 104","address_name":"경기 군포시 금정동 765","phone":"031-468-0303","REFINE_ZIPNO":"","y":"37.36098148935273","x":"126.94641328442492","place_url":"http://place.map.kakao.com/17757738","id":"17757738"},

  {"SIGUN_NM":"군포시","place_name":"윤대감참숯등갈비&껍데기","INDUTYPE_NM":"음식점 > 한식 > 육류,고기 > 갈비","road_address_name":"경기 군포시 당동로 22","address_name":"경기 군포시 당동 769-27","phone":"031-427-9290","REFINE_ZIPNO":"","y":"37.3511402970427","x":"126.942235211322","place_url":"http://place.map.kakao.com/16542840","id":"16542840"},
  {"SIGUN_NM":"군포시","place_name":"취애루","INDUTYPE_NM":"음식점 > 중식 > 중화요리","road_address_name":"경기 군포시 산본로197번길 3-1","address_name":"경기 군포시 당동 745-20","phone":"031-477-9898","REFINE_ZIPNO":"","y":"37.3549624928033","x":"126.946124097157","place_url":"http://place.map.kakao.com/526736349","id":"526736349"},
  {"SIGUN_NM":"군포시","place_name":"세븐일레븐 군포당동대로점","INDUTYPE_NM":"가정,생활 > 편의점 > 세븐일레븐","road_address_name":"경기 군포시 군포로 485","address_name":"경기 군포시 당동 785-20","phone":"070-8181-7915","REFINE_ZIPNO":"","y":"37.3496814945368","x":"126.944033119866","place_url":"http://place.map.kakao.com/19429301","id":"19429301"},
  {"SIGUN_NM":"군포시","place_name":"라붐커피 산본점","INDUTYPE_NM":"음식점 > 카페 > 테마카페 > 디저트카페","road_address_name":"경기 군포시 산본천로 56","address_name":"경기 군포시 산본동 1123-3","phone":"","REFINE_ZIPNO":"","y":"37.3603854564699","x":"126.930019050081","place_url":"http://place.map.kakao.com/390292038","id":"390292038"},
  {"SIGUN_NM":"군포시","place_name":"토속정","INDUTYPE_NM":"음식점 > 한식","road_address_name":"경기 군포시 군포로 79","address_name":"경기 군포시 대야미동 450","phone":"031-418-2022","REFINE_ZIPNO":"","y":"37.3230597849133","x":"126.916726916077","place_url":"http://place.map.kakao.com/26906317","id":"26906317"},
  {"SIGUN_NM":"군포시","place_name":"크린토피아 군포무궁화점","INDUTYPE_NM":"가정,생활 > 세탁소 > 크린토피아","road_address_name":"경기 군포시 산본로 296-1","address_name":"경기 군포시 금정동 849-2","phone":"031-395-9949","REFINE_ZIPNO":"","y":"37.3584683111611","x":"126.936852140029","place_url":"http://place.map.kakao.com/13076625","id":"13076625"},
  {"SIGUN_NM":"군포시","place_name":"KFC 군포산본점","INDUTYPE_NM":"음식점 > 패스트푸드 > KFC","road_address_name":"경기 군포시 고산로 681","address_name":"경기 군포시 산본동 1061-2","phone":"031-391-8573","REFINE_ZIPNO":"","y":"37.3712109935051","x":"126.934213242008","place_url":"http://place.map.kakao.com/27315098","id":"27315098"},
  {"SIGUN_NM":"군포시","place_name":"이순신","INDUTYPE_NM":"음식점 > 한식 > 해물,생선 > 회","road_address_name":"경기 군포시 고산로 705","address_name":"경기 군포시 산본동 107","phone":"031-393-8786","REFINE_ZIPNO":"","y":"37.3727402279343","x":"126.936212464115","place_url":"http://place.map.kakao.com/1746721679","id":"1746721679"},
  {"SIGUN_NM":"군포시","place_name":"조셉파리","INDUTYPE_NM":"음식점 > 간식 > 제과,베이커리","road_address_name":"경기 군포시 삼성로20번길 14","address_name":"경기 군포시 부곡동 1217","phone":"031-394-0908","REFINE_ZIPNO":"","y":"37.3379739119816","x":"126.934296407964","place_url":"http://place.map.kakao.com/1060997310","id":"1060997310"},
  {"SIGUN_NM":"군포시","place_name":"크린토피아 대야미대림점","INDUTYPE_NM":"가정,생활 > 세탁소 > 크린토피아","road_address_name":"경기 군포시 대야1로11번길 1","address_name":"경기 군포시 대야미동 662-1","phone":"031-438-1966","REFINE_ZIPNO":"","y":"37.32677491942789","x":"126.91827309317804","place_url":"http://place.map.kakao.com/17721732","id":"17721732"},
  {"SIGUN_NM":"군포시","place_name":"크린토피아 산본한숲점","INDUTYPE_NM":"가정,생활 > 세탁소 > 크린토피아","road_address_name":"경기 군포시 산본천로 43-6","address_name":"경기 군포시 산본동 1146","phone":"031-396-5246","REFINE_ZIPNO":"","y":"37.3606762849019","x":"126.928176575129","place_url":"http://place.map.kakao.com/13076815","id":"13076815"},
  {"SIGUN_NM":"군포시","place_name":"삼성조은내과의원","INDUTYPE_NM":"의료,건강 > 병원 > 내과","road_address_name":"경기 군포시 금산로 109","address_name":"경기 군포시 산본동 207-32","phone":"031-399-5890","REFINE_ZIPNO":"","y":"37.37155745087241","x":"126.93587759847861","place_url":"http://place.map.kakao.com/13026285","id":"13026285"},
  {"SIGUN_NM":"군포시","place_name":"바이온텍 본사","INDUTYPE_NM":"의료,건강 > 의료기기판매","road_address_name":"경기 군포시 공단로 298-15","address_name":"경기 군포시 금정동 689-21","phone":"031-459-3853","REFINE_ZIPNO":"","y":"37.3712347651044","x":"126.945525403169","place_url":"http://place.map.kakao.com/8914523","id":"8914523"},
  {"SIGUN_NM":"군포시","place_name":"굴다리숯불구이본가","INDUTYPE_NM":"음식점 > 한식 > 육류,고기 > 갈비","road_address_name":"경기 군포시 용호1로1번길 10","address_name":"경기 군포시 당동 978-5","phone":"031-391-9291","REFINE_ZIPNO":"","y":"37.3421818585913","x":"126.937881452252","place_url":"http://place.map.kakao.com/13309601","id":"13309601"},
  {"SIGUN_NM":"군포시","place_name":"신진약국","INDUTYPE_NM":"의료,건강 > 약국","road_address_name":"경기 군포시 산본로323번길 13","address_name":"경기 군포시 산본동 1142-12","phone":"031-397-6991","REFINE_ZIPNO":"","y":"37.35884354913647","x":"126.93269454875193","place_url":"http://place.map.kakao.com/16169047","id":"16169047"},

  {"SIGUN_NM":"군포시","place_name":"차앤조정형외과의원","INDUTYPE_NM":"의료,건강 > 병원 > 정형외과","road_address_name":"경기 군포시 금산로 104","address_name":"경기 군포시 산본동 213-12","phone":"031-392-1230","REFINE_ZIPNO":"","y":"37.3711835112739","x":"126.936687945184","place_url":"http://place.map.kakao.com/1564390585","id":"1564390585"},
  {"SIGUN_NM":"군포시","place_name":"연화산","INDUTYPE_NM":"음식점 > 중식 > 중화요리","road_address_name":"경기 군포시 산본로323번길 4-7","address_name":"경기 군포시 산본동 1129","phone":"031-399-9966","REFINE_ZIPNO":"","y":"37.3596770985441","x":"126.932868766384","place_url":"http://place.map.kakao.com/18507185","id":"18507185"},
  {"SIGUN_NM":"군포시","place_name":"온도","INDUTYPE_NM":"음식점 > 카페","road_address_name":"경기 군포시 호수로 120","address_name":"경기 군포시 둔대동 346-16","phone":"","REFINE_ZIPNO":"","y":"37.3236095031672","x":"126.892274936806","place_url":"http://place.map.kakao.com/1409570455","id":"1409570455"},
  {"SIGUN_NM":"군포시","place_name":"크린토피아 에브리데이군포당동점","INDUTYPE_NM":"가정,생활 > 세탁소 > 크린토피아","road_address_name":"경기 군포시 군포로 502","address_name":"경기 군포시 당동 784-6","phone":"070-4383-6030","REFINE_ZIPNO":"","y":"37.3508316470171","x":"126.9449701781336","place_url":"http://place.map.kakao.com/1617294352","id":"1617294352"},
  {"SIGUN_NM":"군포시","place_name":"이경숙산부인과","INDUTYPE_NM":"의료,건강 > 병원 > 산부인과","road_address_name":"경기 군포시 군포로 470","address_name":"경기 군포시 당동 904-4","phone":"031-393-5534","REFINE_ZIPNO":"","y":"37.3481786126839","x":"126.94410646678","place_url":"http://place.map.kakao.com/10666637","id":"10666637"},
  {"SIGUN_NM":"군포시","place_name":"크린토피아 산본신주공점","INDUTYPE_NM":"가정,생활 > 세탁소 > 크린토피아","road_address_name":"경기 군포시 번영로574번길 2","address_name":"경기 군포시 금정동 745-1","phone":"031-427-8277","REFINE_ZIPNO":"","y":"37.3613097727836","x":"126.939576967989","place_url":"http://place.map.kakao.com/13076597","id":"13076597"},
  {"SIGUN_NM":"군포시","place_name":"고구려 수제본갈비","INDUTYPE_NM":"음식점 > 한식 > 육류,고기 > 갈비","road_address_name":"경기 군포시 고산로185번길 3","address_name":"경기 군포시 당정동 995-1","phone":"031-455-9291","REFINE_ZIPNO":"","y":"37.3470359083401","x":"126.951849495425","place_url":"http://place.map.kakao.com/1616491542","id":"1616491542"},
  {"SIGUN_NM":"군포시","place_name":"이마트24 군포모란점","INDUTYPE_NM":"가정,생활 > 편의점 > 이마트24","road_address_name":"경기 군포시 고산로643번길 12","address_name":"경기 군포시 산본동 1065-4","phone":"","REFINE_ZIPNO":"","y":"37.3695546305941","x":"126.930575001731","place_url":"http://place.map.kakao.com/545262344","id":"545262344"},
  {"SIGUN_NM":"군포시","place_name":"흥안타일","INDUTYPE_NM":"서비스,산업 > 건설,건축 > 건설자재","road_address_name":"경기 군포시 당산로148번길 6","address_name":"경기 군포시 금정동 910-1","phone":"031-453-6578","REFINE_ZIPNO":"","y":"37.3644151651412","x":"126.94416667283","place_url":"http://place.map.kakao.com/15242210","id":"15242210"},
  {"SIGUN_NM":"군포시","place_name":"이향원","INDUTYPE_NM":"음식점 > 중식","road_address_name":"경기 군포시 엘에스로 175","address_name":"경기 군포시 산본동 1026-30","phone":"031-427-9881","REFINE_ZIPNO":"","y":"37.3753423713191","x":"126.943250840772","place_url":"http://place.map.kakao.com/11736230","id":"11736230"},
  {"SIGUN_NM":"군포시","place_name":"달보드레PASTA","INDUTYPE_NM":"음식점 > 양식 > 이탈리안","road_address_name":"경기 군포시 번영로 497","address_name":"경기 군포시 산본동 1142-5","phone":"070-7543-1201","REFINE_ZIPNO":"","y":"37.358287395772244","x":"126.93231013608633","place_url":"http://place.map.kakao.com/520819232","id":"520819232"},
  {"SIGUN_NM":"군포시","place_name":"노블클래식의원 산본점","INDUTYPE_NM":"의료,건강 > 병원 > 피부과","road_address_name":"경기 군포시 산본로323번길 16-12","address_name":"경기 군포시 산본동 1134-1","phone":"031-689-3638","REFINE_ZIPNO":"","y":"37.3594712858552","x":"126.93220522471","place_url":"http://place.map.kakao.com/817661390","id":"817661390"},
  {"SIGUN_NM":"군포시","place_name":"세븐일레븐 군포시청점","INDUTYPE_NM":"가정,생활 > 편의점 > 세븐일레븐","road_address_name":"경기 군포시 번영로557번길 28","address_name":"경기 군포시 금정동 718-7","phone":"070-7514-8934","REFINE_ZIPNO":"","y":"37.3613370433974","x":"126.93659236726","place_url":"http://place.map.kakao.com/13055730","id":"13055730"},
  {"SIGUN_NM":"군포시","place_name":"우리안과의원","INDUTYPE_NM":"의료,건강 > 병원 > 안과","road_address_name":"경기 군포시 산본로323번길 16-36","address_name":"경기 군포시 산본동 1133","phone":"031-391-6200","REFINE_ZIPNO":"","y":"37.3603358449537","x":"126.931463956226","place_url":"http://place.map.kakao.com/8018373","id":"8018373"},
  {"SIGUN_NM":"군포시","place_name":"늑대와여우컴퓨터 금정점 ND컴","INDUTYPE_NM":"가정,생활 > 전자제품 > 전자제품판매 > 컴퓨터판매 > 늑대와여우","road_address_name":"경기 군포시 번영로 602","address_name":"경기 군포시 금정동 743-3","phone":"031-459-2233","REFINE_ZIPNO":"","y":"37.362792400403","x":"126.942257888341","place_url":"http://place.map.kakao.com/15416113","id":"15416113"},

  {"SIGUN_NM":"군포시","place_name":"송수사","INDUTYPE_NM":"음식점 > 일식 > 일식집","road_address_name":"경기 군포시 산본로323번길 7","address_name":"경기 군포시 산본동 1128","phone":"031-393-0116","REFINE_ZIPNO":"","y":"37.359345709766","x":"126.933203181059","place_url":"http://place.map.kakao.com/8433019","id":"8433019"},
  {"SIGUN_NM":"군포시","place_name":"숨두부촌","INDUTYPE_NM":"음식점 > 한식 > 두부전문점","road_address_name":"경기 군포시 산본로482번길 7","address_name":"경기 군포시 산본2동 1082-2","phone":"031-394-0292","REFINE_ZIPNO":"","y":"37.3720868458882","x":"126.928116023027","place_url":"http://place.map.kakao.com/16563168","id":"16563168"},
  {"SIGUN_NM":"군포시","place_name":"카프로샵 군포본점","INDUTYPE_NM":"교통,수송 > 자동차 > 자동차정비","road_address_name":"경기 군포시 이당로 137","address_name":"경기 군포시 당정동 986-8","phone":"031-427-5788","REFINE_ZIPNO":"","y":"37.347280619574185","x":"126.95797426000385","place_url":"http://place.map.kakao.com/11560683","id":"11560683"},
  {"SIGUN_NM":"군포시","place_name":"라메이즈마라탕","INDUTYPE_NM":"음식점 > 중식","road_address_name":"경기 군포시 산본천로 229","address_name":"경기 군포시 산본동 98-3","phone":"031-395-4684","REFINE_ZIPNO":"","y":"37.3726928418596","x":"126.942187077611","place_url":"http://place.map.kakao.com/463358656","id":"463358656"},
  {"SIGUN_NM":"군포시","place_name":"마왕족발 산본점","INDUTYPE_NM":"음식점 > 한식 > 육류,고기 > 족발,보쌈","road_address_name":"경기 군포시 산본로323번길 10-6","address_name":"경기 군포시 산본동 1129-2","phone":"031-392-7892","REFINE_ZIPNO":"","y":"37.3595472223243","x":"126.932643125037","place_url":"http://place.map.kakao.com/379119398","id":"379119398"},
  {"SIGUN_NM":"군포시","place_name":"우정원","INDUTYPE_NM":"음식점 > 한식 > 육류,고기","road_address_name":"경기 군포시 산본로323번길 10-26","address_name":"경기 군포시 산본동 1131-3","phone":"031-393-6332","REFINE_ZIPNO":"","y":"37.3602785126882","x":"126.932041951957","place_url":"http://place.map.kakao.com/27146595","id":"27146595"},
  {"SIGUN_NM":"군포시","place_name":"크린토피아 당동삼성마을점","INDUTYPE_NM":"가정,생활 > 세탁소 > 크린토피아","road_address_name":"경기 군포시 삼성로20번길 4-10","address_name":"경기 군포시 부곡동 1214-3","phone":"031-391-2999","REFINE_ZIPNO":"","y":"37.3369707239549","x":"126.93368566340676","place_url":"http://place.map.kakao.com/22854858","id":"22854858"},
  {"SIGUN_NM":"군포시","place_name":"명륜진사갈비 군포당동점","INDUTYPE_NM":"음식점 > 한식 > 육류,고기 > 갈비 > 명륜진사갈비","road_address_name":"경기 군포시 고산로 244","address_name":"경기 군포시 당동 922-27","phone":"031-391-9290","REFINE_ZIPNO":"","y":"37.3461933871586","x":"126.945484812374","place_url":"http://place.map.kakao.com/601403812","id":"601403812"},
  {"SIGUN_NM":"군포시","place_name":"아리랑","INDUTYPE_NM":"음식점 > 한식 > 육류,고기 > 갈비","road_address_name":"경기 군포시 고산로185번길 21","address_name":"경기 군포시 당정동 996-1","phone":"031-458-5080","REFINE_ZIPNO":"","y":"37.3455296138635","x":"126.952410230653","place_url":"http://place.map.kakao.com/14613046","id":"14613046"},
  {"SIGUN_NM":"군포시","place_name":"대경불한증막","INDUTYPE_NM":"가정,생활 > 목욕탕,사우나","road_address_name":"경기 군포시 봉성로 14","address_name":"경기 군포시 당동 898-13","phone":"031-455-5293","REFINE_ZIPNO":"","y":"37.3504393187294","x":"126.946100241976","place_url":"http://place.map.kakao.com/1512582192","id":"1512582192"},
  {"SIGUN_NM":"군포시","place_name":"커피언타이","INDUTYPE_NM":"음식점 > 카페","road_address_name":"경기 군포시 산본로323번길 4-21","address_name":"경기 군포시 산본동 1131-1","phone":"031-396-8686","REFINE_ZIPNO":"","y":"37.3602570846944","x":"126.932385125191","place_url":"http://place.map.kakao.com/1862191921","id":"1862191921"},
  {"SIGUN_NM":"군포시","place_name":"바다랑횟집","INDUTYPE_NM":"음식점 > 한식 > 해물,생선 > 회","road_address_name":"경기 군포시 군포로456번길 16","address_name":"경기 군포시 당동 922-2","phone":"031-394-0031","REFINE_ZIPNO":"","y":"37.3465031700392","x":"126.94511441092","place_url":"http://place.map.kakao.com/26816477","id":"26816477"},
  {"SIGUN_NM":"군포시","place_name":"정풍상사","INDUTYPE_NM":"교통,수송 > 자동차 > 자동차검사소","road_address_name":"경기 군포시 농심로 53","address_name":"경기 군포시 당정동 225-7","phone":"031-427-2734","REFINE_ZIPNO":"","y":"37.3629816888017","x":"126.954855560483","place_url":"http://place.map.kakao.com/9385276","id":"9385276"},
  {"SIGUN_NM":"군포시","place_name":"수랏간","INDUTYPE_NM":"음식점 > 한식 > 육류,고기","road_address_name":"경기 군포시 한세로78번길 1","address_name":"경기 군포시 당정동 976-1","phone":"031-427-3318","REFINE_ZIPNO":"","y":"37.3490814479918","x":"126.957057938504","place_url":"http://place.map.kakao.com/14722220","id":"14722220"},
  {"SIGUN_NM":"군포시","place_name":"능이야 산본점","INDUTYPE_NM":"음식점 > 한식 > 육류,고기 > 닭요리","road_address_name":"경기 군포시 산본로 341","address_name":"경기 군포시 산본동 1125","phone":"031-391-3625","REFINE_ZIPNO":"","y":"37.36088049703904","x":"126.93221298751827","place_url":"http://place.map.kakao.com/2073374974","id":"2073374974"},

  {"SIGUN_NM":"군포시","place_name":"군포참요양병원","INDUTYPE_NM":"의료,건강 > 병원 > 노인,요양병원","road_address_name":"경기 군포시 군포로 493","address_name":"경기 군포시 당동 785-3","phone":"031-395-7772","REFINE_ZIPNO":"","y":"37.3505969417237","x":"126.944036954914","place_url":"http://place.map.kakao.com/1072499011","id":"1072499011"},
  {"SIGUN_NM":"군포시","place_name":"서울굿모닝내과의원","INDUTYPE_NM":"의료,건강 > 병원 > 내과","road_address_name":"경기 군포시 산본천로 222","address_name":"경기 군포시 산본동 265-6","phone":"031-394-7700","REFINE_ZIPNO":"","y":"37.3714123461753","x":"126.941904690572","place_url":"http://place.map.kakao.com/861364263","id":"861364263"},
  {"SIGUN_NM":"군포시","place_name":"만들기전문점","INDUTYPE_NM":"음식점 > 양식 > 이탈리안","road_address_name":"경기 군포시 산본로323번길 10-22","address_name":"경기 군포시 산본동 1131-2","phone":"070-7739-6512","REFINE_ZIPNO":"","y":"37.3602209298915","x":"126.932186489667","place_url":"http://place.map.kakao.com/559149472","id":"559149472"},
  {"SIGUN_NM":"군포시","place_name":"IGA마트 금정중앙점","INDUTYPE_NM":"가정,생활 > 편의점 > IGA마트","road_address_name":"경기 군포시 군포로719번길 20-4","address_name":"경기 군포시 금정동 41-10","phone":"031-768-0708","REFINE_ZIPNO":"","y":"37.3693847146733","x":"126.943092762212","place_url":"http://place.map.kakao.com/788404522","id":"788404522"},
  {"SIGUN_NM":"군포시","place_name":"유니컴즈","INDUTYPE_NM":"서비스,산업 > 제조업 > 통신장비","road_address_name":"경기 군포시 엘에스로166번길 8","address_name":"경기 군포시 금정동 1-41","phone":"","REFINE_ZIPNO":"","y":"37.37539015090941","x":"126.94521530405032","place_url":"http://place.map.kakao.com/14934985","id":"14934985"},
  {"SIGUN_NM":"군포시","place_name":"코아전기","INDUTYPE_NM":"서비스,산업 > 제조업 > 전기,전자","road_address_name":"경기 군포시 군포첨단산업2로 53","address_name":"경기 군포시 부곡동 1247-5","phone":"031-453-3088","REFINE_ZIPNO":"","y":"37.32629849927029","x":"126.94521937314192","place_url":"http://place.map.kakao.com/10823672","id":"10823672"},
  {"SIGUN_NM":"군포시","place_name":"아름다운항외과의원","INDUTYPE_NM":"의료,건강 > 병원 > 항문외과","road_address_name":"경기 군포시 번영로 489","address_name":"경기 군포시 산본동 1142-7","phone":"031-392-7979","REFINE_ZIPNO":"","y":"37.35793557958","x":"126.931588045002","place_url":"http://place.map.kakao.com/1799422590","id":"1799422590"},
  {"SIGUN_NM":"군포시","place_name":"정관장 당정동점","INDUTYPE_NM":"의료,건강 > 건강식품판매 > 인삼,홍삼 > 정관장","road_address_name":"경기 군포시 고산로151번길 3","address_name":"경기 군포시 당정동 974-1","phone":"031-457-2304","REFINE_ZIPNO":"","y":"37.3484968999908","x":"126.955220878382","place_url":"http://place.map.kakao.com/12518933","id":"12518933"},
  {"SIGUN_NM":"군포시","place_name":"크린토피아 산본개나리점","INDUTYPE_NM":"가정,생활 > 세탁소 > 크린토피아","road_address_name":"경기 군포시 고산로677번길 36","address_name":"경기 군포시 산본동 1066-3","phone":"031-399-8939","REFINE_ZIPNO":"","y":"37.37294272299809","x":"126.93097831433995","place_url":"http://place.map.kakao.com/16429172","id":"16429172"},
  {"SIGUN_NM":"군포시","place_name":"세븐일레븐 금정희망점","INDUTYPE_NM":"가정,생활 > 편의점 > 세븐일레븐","road_address_name":"경기 군포시 산본천로221번길 17","address_name":"경기 군포시 산본동 94-5","phone":"031-391-0437","REFINE_ZIPNO":"","y":"37.3727427735111","x":"126.941121279453","place_url":"http://place.map.kakao.com/13055810","id":"13055810"},
  {"SIGUN_NM":"군포시","place_name":"크린토피아 대야미아이파크점","INDUTYPE_NM":"가정,생활 > 세탁소 > 크린토피아","road_address_name":"경기 군포시 대야2로55번길 6","address_name":"경기 군포시 대야미동 637-14","phone":"070-8808-2668","REFINE_ZIPNO":"","y":"37.3322176686424","x":"126.916432458143","place_url":"http://place.map.kakao.com/1492237520","id":"1492237520"},
  {"SIGUN_NM":"군포시","place_name":"손커피연구소 군포당동점","INDUTYPE_NM":"음식점 > 카페 > 커피전문점","road_address_name":"경기 군포시 고산로264번길 4","address_name":"경기 군포시 당동 921","phone":"0507-1362-3060","REFINE_ZIPNO":"","y":"37.3469493799425","x":"126.943624338635","place_url":"http://place.map.kakao.com/935207334","id":"935207334"},
  {"SIGUN_NM":"군포시","place_name":"도담한의원","INDUTYPE_NM":"의료,건강 > 병원 > 한방병원 > 한의원","road_address_name":"경기 군포시 금산로 98","address_name":"경기 군포시 산본동 213-7","phone":"031-396-1080","REFINE_ZIPNO":"","y":"37.37067910589333","x":"126.9370044756116","place_url":"http://place.map.kakao.com/19833444","id":"19833444"},
  {"SIGUN_NM":"군포시","place_name":"아덴카센타","INDUTYPE_NM":"교통,수송 > 자동차 > 자동차정비","road_address_name":"경기 군포시 군포로485번길 6","address_name":"경기 군포시 당동 785-21","phone":"010-3203-4949","REFINE_ZIPNO":"","y":"37.3495877041272","x":"126.943857122259","place_url":"http://place.map.kakao.com/11696408","id":"11696408"},
  {"SIGUN_NM":"군포시","place_name":"밀키","INDUTYPE_NM":"음식점 > 간식 > 제과,베이커리","road_address_name":"경기 군포시 공단로140번길 52","address_name":"경기 군포시 당정동 181-43","phone":"031-687-3500","REFINE_ZIPNO":"","y":"37.35712886393454","x":"126.95551374056761","place_url":"http://place.map.kakao.com/1996315619","id":"1996315619"},

  {"SIGUN_NM":"군포시","place_name":"산본골목냉면","INDUTYPE_NM":"음식점 > 한식 > 냉면","road_address_name":"경기 군포시 금산로 110","address_name":"경기 군포시 산본동 101-4","phone":"031-391-5997","REFINE_ZIPNO":"","y":"37.3716230492347","x":"126.936385012893","place_url":"http://place.map.kakao.com/27277556","id":"27277556"},
  {"SIGUN_NM":"군포시","place_name":"어사출또 당동점","INDUTYPE_NM":"음식점 > 한식 > 해물,생선 > 회","road_address_name":"경기 군포시 고산로 244","address_name":"경기 군포시 당동 922-27","phone":"031-391-9279","REFINE_ZIPNO":"","y":"37.3462294304074","x":"126.945489300659","place_url":"http://place.map.kakao.com/1369157935","id":"1369157935"},
  {"SIGUN_NM":"군포시","place_name":"참고기","INDUTYPE_NM":"음식점 > 한식 > 육류,고기","road_address_name":"경기 군포시 속달로 130","address_name":"경기 군포시 속달동 206-1","phone":"031-438-3192","REFINE_ZIPNO":"","y":"37.33583591672626","x":"126.90641250458964","place_url":"http://place.map.kakao.com/10773383","id":"10773383"},
  {"SIGUN_NM":"군포시","place_name":"카페그리너리","INDUTYPE_NM":"음식점 > 카페","road_address_name":"경기 군포시 군포로 454","address_name":"경기 군포시 당동 920-5","phone":"","REFINE_ZIPNO":"","y":"37.3471582352006","x":"126.943240458582","place_url":"http://place.map.kakao.com/532533169","id":"532533169"},
  {"SIGUN_NM":"군포시","place_name":"메이퓨어의원","INDUTYPE_NM":"의료,건강 > 병원 > 일반의원","road_address_name":"경기 군포시 산본로 339","address_name":"경기 군포시 산본동 1125-2","phone":"031-395-3955","REFINE_ZIPNO":"","y":"37.3606067990721","x":"126.932587995627","place_url":"http://place.map.kakao.com/44663487","id":"44663487"},
  {"SIGUN_NM":"군포시","place_name":"일품등심","INDUTYPE_NM":"음식점 > 한식 > 한정식","road_address_name":"경기 군포시 곡란로8번길 42","address_name":"경기 군포시 산본동 48","phone":"031-397-0606","REFINE_ZIPNO":"","y":"37.37532936312556","x":"126.93884540811749","place_url":"http://place.map.kakao.com/1386103378","id":"1386103378"},
  {"SIGUN_NM":"군포시","place_name":"연세피부과의원","INDUTYPE_NM":"의료,건강 > 병원 > 피부과","road_address_name":"경기 군포시 산본천로 62","address_name":"경기 군포시 산본동 1123-2","phone":"031-343-2420","REFINE_ZIPNO":"","y":"37.36048842187117","x":"126.93043999658177","place_url":"http://place.map.kakao.com/8498935","id":"8498935"},
  {"SIGUN_NM":"군포시","place_name":"아리따움 군포점","INDUTYPE_NM":"가정,생활 > 미용 > 화장품 > 아리따움","road_address_name":"경기 군포시 군포로 494","address_name":"경기 군포시 당동 898","phone":"031-451-2229","REFINE_ZIPNO":"","y":"37.35048555791047","x":"126.94476840248002","place_url":"http://place.map.kakao.com/18489650","id":"18489650"},
  {"SIGUN_NM":"군포시","place_name":"먹방촌","INDUTYPE_NM":"음식점 > 한식 > 육류,고기 > 곱창,막창","road_address_name":"경기 군포시 산본로323번길 4-7","address_name":"경기 군포시 산본동 1129","phone":"031-395-0888","REFINE_ZIPNO":"","y":"37.359745597086","x":"126.932904826591","place_url":"http://place.map.kakao.com/27225927","id":"27225927"},
  {"SIGUN_NM":"군포시","place_name":"군포문화재단 수리산상상마을","INDUTYPE_NM":"교육,학문 > 문화센터","road_address_name":"경기 군포시 수리산로 112","address_name":"경기 군포시 산본동 1151-10","phone":"031-390-3080","REFINE_ZIPNO":"","y":"37.358882448479","x":"126.918606271556","place_url":"http://place.map.kakao.com/1192119046","id":"1192119046"},
  {"SIGUN_NM":"군포시","place_name":"롯데리아 산본중앙점","INDUTYPE_NM":"음식점 > 패스트푸드 > 롯데리아","road_address_name":"경기 군포시 산본로343번길 21","address_name":"경기 군포시 산본동 1137","phone":"031-391-9595","REFINE_ZIPNO":"","y":"37.3599785116567","x":"126.9305612479","place_url":"http://place.map.kakao.com/7864761","id":"7864761"},
  {"SIGUN_NM":"군포시","place_name":"명륜진사갈비 군포산본점","INDUTYPE_NM":"음식점 > 한식 > 육류,고기 > 갈비 > 명륜진사갈비","road_address_name":"경기 군포시 광정로 78","address_name":"경기 군포시 산본동 1123-4","phone":"031-391-3694","REFINE_ZIPNO":"","y":"37.3600104848164","x":"126.929775579169","place_url":"http://place.map.kakao.com/1814258905","id":"1814258905"},
  {"SIGUN_NM":"군포시","place_name":"태을봉 쭈꾸미&누룽지백숙","INDUTYPE_NM":"음식점 > 한식","road_address_name":"경기 군포시 둔대로 7","address_name":"경기 군포시 둔대동 461-9","phone":"031-437-4339","REFINE_ZIPNO":"","y":"37.3243227517823","x":"126.887995565465","place_url":"http://place.map.kakao.com/10099318","id":"10099318"},
  {"SIGUN_NM":"군포시","place_name":"복성루","INDUTYPE_NM":"음식점 > 샤브샤브","road_address_name":"경기 군포시 산본천로226번길 4","address_name":"경기 군포시 산본동 265-10","phone":"031-395-8883","REFINE_ZIPNO":"","y":"37.371701764867","x":"126.942291703165","place_url":"http://place.map.kakao.com/26784194","id":"26784194"},
  {"SIGUN_NM":"군포시","place_name":"궁안골","INDUTYPE_NM":"음식점 > 한식","road_address_name":"경기 군포시 수리산로 191","address_name":"경기 군포시 산본동 1149-2","phone":"","REFINE_ZIPNO":"","y":"37.3650867182278","x":"126.920965677854","place_url":"http://place.map.kakao.com/13304993","id":"13304993"},

  {"SIGUN_NM":"군포시","place_name":"CU 산본하이어스점","INDUTYPE_NM":"가정,생활 > 편의점 > CU","road_address_name":"경기 군포시 금산로 91-1","address_name":"경기 군포시 산본동 1240","phone":"","REFINE_ZIPNO":"","y":"37.367856037580445","x":"126.93505382235143","place_url":"http://place.map.kakao.com/1680027408","id":"1680027408"},
  {"SIGUN_NM":"군포시","place_name":"페이펄문구센터 산본점","INDUTYPE_NM":"가정,생활 > 문구,사무용품","road_address_name":"경기 군포시 산본로323번길 22","address_name":"경기 군포시 산본동 1140-1","phone":"031-391-7021","REFINE_ZIPNO":"","y":"37.3587969641221","x":"126.931591778254","place_url":"http://place.map.kakao.com/12461872","id":"12461872"},
  {"SIGUN_NM":"군포시","place_name":"신화쭈꾸미","INDUTYPE_NM":"음식점 > 한식 > 해물,생선","road_address_name":"경기 군포시 산본로323번길 10-22","address_name":"경기 군포시 산본동 1131-2","phone":"","REFINE_ZIPNO":"","y":"37.3601055673785","x":"126.93213241138","place_url":"http://place.map.kakao.com/17745393","id":"17745393"},
  {"SIGUN_NM":"군포시","place_name":"커피인더스트리 4호점","INDUTYPE_NM":"음식점 > 카페","road_address_name":"경기 군포시 군포로 731","address_name":"경기 군포시 금정동 40-4","phone":"070-8816-9675","REFINE_ZIPNO":"","y":"37.3705057421345","x":"126.943408021279","place_url":"http://place.map.kakao.com/1255484331","id":"1255484331"},
  {"SIGUN_NM":"군포시","place_name":"봉비뇨의학과의원","INDUTYPE_NM":"의료,건강 > 병원 > 비뇨기과","road_address_name":"경기 군포시 산본천로 56","address_name":"경기 군포시 산본동 1123-3","phone":"031-397-2556","REFINE_ZIPNO":"","y":"37.360356631625756","x":"126.93003262241278","place_url":"http://place.map.kakao.com/1215321689","id":"1215321689"},
  {"SIGUN_NM":"군포시","place_name":"군포시늘푸른노인복지관","INDUTYPE_NM":"사회,공공기관 > 단체,협회 > 사회복지시설 > 노인복지시설","road_address_name":"경기 군포시 산본천로 101","address_name":"경기 군포시 산본동 1096","phone":"031-392-5755","REFINE_ZIPNO":"","y":"37.3642578895677","x":"126.932815016138","place_url":"http://place.map.kakao.com/27108361","id":"27108361"},
  {"SIGUN_NM":"군포시","place_name":"애니카랜드 군포점","INDUTYPE_NM":"교통,수송 > 자동차 > 자동차정비 > 애니카랜드","road_address_name":"경기 군포시 용호1로28번길 3","address_name":"경기 군포시 당동 969-3","phone":"031-392-7007","REFINE_ZIPNO":"","y":"37.3451917770358","x":"126.938799886203","place_url":"http://place.map.kakao.com/12765986","id":"12765986"},
  {"SIGUN_NM":"군포시","place_name":"투썸플레이스 산본역점","INDUTYPE_NM":"음식점 > 카페 > 커피전문점 > 투썸플레이스","road_address_name":"경기 군포시 산본로323번길 27","address_name":"경기 군포시 산본동 1142-8","phone":"031-341-5474","REFINE_ZIPNO":"","y":"37.3583210412392","x":"126.931280670578","place_url":"http://place.map.kakao.com/20460670","id":"20460670"},
  {"SIGUN_NM":"군포시","place_name":"더블진라인","INDUTYPE_NM":"교통,수송 > 자동차 > 자동차용품","road_address_name":"경기 군포시 공단로 107","address_name":"경기 군포시 당동 134-38","phone":"031-454-2509","REFINE_ZIPNO":"","y":"37.3547115129286","x":"126.94907698923","place_url":"http://place.map.kakao.com/2143333290","id":"2143333290"},
  {"SIGUN_NM":"군포시","place_name":"산본성심요양병원","INDUTYPE_NM":"의료,건강 > 병원 > 노인,요양병원","road_address_name":"경기 군포시 고산로 693","address_name":"경기 군포시 산본동 1060-1","phone":"031-391-2114","REFINE_ZIPNO":"","y":"37.37194128190546","x":"126.93504126887488","place_url":"http://place.map.kakao.com/13095908","id":"13095908"},
  {"SIGUN_NM":"군포시","place_name":"오라클피부과의원","INDUTYPE_NM":"의료,건강 > 병원 > 피부과","road_address_name":"경기 군포시 산본천로 56","address_name":"경기 군포시 산본동 1123-3","phone":"031-398-1931","REFINE_ZIPNO":"","y":"37.3604106718613","x":"126.92999645070638","place_url":"http://place.map.kakao.com/959864003","id":"959864003"},
  {"SIGUN_NM":"군포시","place_name":"럭키할인마트","INDUTYPE_NM":"가정,생활 > 슈퍼마켓 > 대형슈퍼","road_address_name":"경기 군포시 금산로 9","address_name":"금정동 710-8","phone":"031-244-4665","REFINE_ZIPNO":"","y":"37.36344013093018","x":"126.94075868472714","place_url":"https://place.map.kakao.com/1848492652","id":"1848492652"},
  {"SIGUN_NM":"군포시","place_name":"천일자동차공업사","INDUTYPE_NM":"교통,수송 > 자동차 > 자동차정비","road_address_name":"경기 군포시 한세로78번길 45","address_name":"경기 군포시 당정동 989-4","phone":"031-454-9792","REFINE_ZIPNO":"","y":"37.3452575763364","x":"126.957326458981","place_url":"http://place.map.kakao.com/1512231309","id":"1512231309"},
  {"SIGUN_NM":"군포시","place_name":"박은자맛사랑","INDUTYPE_NM":"음식점 > 한식 > 한정식","road_address_name":"경기 군포시 산본로323번길 6","address_name":"경기 군포시 산본동 1129-1","phone":"031-398-0292","REFINE_ZIPNO":"","y":"37.3595402038956","x":"126.932977251679","place_url":"http://place.map.kakao.com/26645803","id":"26645803"},
  {"SIGUN_NM":"군포시","place_name":"라무진 금정점","INDUTYPE_NM":"음식점 > 한식 > 육류,고기","road_address_name":"경기 군포시 산본천로226번길 45","address_name":"경기 군포시 금정동 40-15","phone":"031-397-8872","REFINE_ZIPNO":"","y":"37.3699543382756","x":"126.943458108877","place_url":"http://place.map.kakao.com/27028648","id":"27028648"},

  {"SIGUN_NM":"군포시","place_name":"자연별곡 산본점","INDUTYPE_NM":"음식점 > 뷔페 > 한식뷔페 > 자연별곡","road_address_name":"경기 군포시 산본천로 62","address_name":"경기 군포시 산본동 1123-2","phone":"031-340-3854","REFINE_ZIPNO":"","y":"37.36055507992572","x":"126.93040945745325","place_url":"http://place.map.kakao.com/27359287","id":"27359287"},
  {"SIGUN_NM":"군포시","place_name":"비스트로302","INDUTYPE_NM":"음식점 > 술집 > 호프,요리주점","road_address_name":"경기 군포시 산본로 329","address_name":"경기 군포시 산본동 1126","phone":"070-7779-4669","REFINE_ZIPNO":"","y":"37.360012388032","x":"126.933058104811","place_url":"http://place.map.kakao.com/497570902","id":"497570902"},
  {"SIGUN_NM":"군포시","place_name":"베이징스토리","INDUTYPE_NM":"음식점 > 중식 > 중화요리","road_address_name":"경기 군포시 용호1로 10","address_name":"경기 군포시 당동 974-3","phone":"031-392-1180","REFINE_ZIPNO":"","y":"37.3436814291765","x":"126.938372263824","place_url":"http://place.map.kakao.com/568620319","id":"568620319"},
  {"SIGUN_NM":"군포시","place_name":"플로렌스 군포산본점","INDUTYPE_NM":"음식점 > 뷔페","road_address_name":"경기 군포시 고산로 599","address_name":"경기 군포시 산본동 1101","phone":"031-393-6115","REFINE_ZIPNO":"","y":"37.3666657166186","x":"126.927204535052","place_url":"http://place.map.kakao.com/1890092250","id":"1890092250"},
  {"SIGUN_NM":"군포시","place_name":"밥보야뚠뚠이김밥 산본점","INDUTYPE_NM":"음식점 > 분식","road_address_name":"경기 군포시 산본로343번길 23","address_name":"경기 군포시 산본동 1137-3","phone":"031-399-1962","REFINE_ZIPNO":"","y":"37.3598702716416","x":"126.930362680592","place_url":"http://place.map.kakao.com/822774935","id":"822774935"},
  {"SIGUN_NM":"군포시","place_name":"산본어린이치과의원","INDUTYPE_NM":"의료,건강 > 병원 > 치과","road_address_name":"경기 군포시 산본로323번길 27","address_name":"경기 군포시 산본동 1142-8","phone":"031-393-5275","REFINE_ZIPNO":"","y":"37.358129196488825","x":"126.9314083958075","place_url":"http://place.map.kakao.com/7910700","id":"7910700"},
  {"SIGUN_NM":"군포시","place_name":"서가앤쿡 군포산본점","INDUTYPE_NM":"음식점 > 양식 > 서가앤쿡","road_address_name":"경기 군포시 광정로 68","address_name":"경기 군포시 산본동 1144-2","phone":"031-395-4843","REFINE_ZIPNO":"","y":"37.3592395607713","x":"126.930376808702","place_url":"http://place.map.kakao.com/845524119","id":"845524119"},
  {"SIGUN_NM":"군포시","place_name":"전주콩나물해장국","INDUTYPE_NM":"음식점 > 한식 > 해장국","road_address_name":"경기 군포시 농심로 88-3","address_name":"경기 군포시 당정동 12-2","phone":"031-455-3535","REFINE_ZIPNO":"","y":"37.3642084023246","x":"126.958449100157","place_url":"http://place.map.kakao.com/9575365","id":"9575365"},
  {"SIGUN_NM":"군포시","place_name":"이백","INDUTYPE_NM":"음식점 > 카페","road_address_name":"경기 군포시 속달로 129-49","address_name":"경기 군포시 속달동 158","phone":"031-437-9951","REFINE_ZIPNO":"","y":"37.3331638432298","x":"126.904637476765","place_url":"http://place.map.kakao.com/21087762","id":"21087762"},
  {"SIGUN_NM":"군포시","place_name":"예지미의원 산본점","INDUTYPE_NM":"의료,건강 > 병원 > 피부과","road_address_name":"경기 군포시 산본로323번길 15","address_name":"경기 군포시 산본동 1142-10","phone":"031-395-2300","REFINE_ZIPNO":"","y":"37.3586315545303","x":"126.932251130891","place_url":"http://place.map.kakao.com/14713969","id":"14713969"},
  {"SIGUN_NM":"군포시","place_name":"굴다리돼지갈비","INDUTYPE_NM":"음식점 > 한식 > 육류,고기","road_address_name":"경기 군포시 군포로753번길 42","address_name":"경기 군포시 산본동 90-44","phone":"031-393-3310","REFINE_ZIPNO":"","y":"37.3713146898351","x":"126.93941992167501","place_url":"http://place.map.kakao.com/503207001","id":"503207001"},
  {"SIGUN_NM":"군포시","place_name":"토이토이","INDUTYPE_NM":"가정,생활 > 유아 > 장난감,완구","road_address_name":"경기 군포시 금당로 39","address_name":"경기 군포시 당동 950-6","phone":"031-398-1533","REFINE_ZIPNO":"","y":"37.351047945804375","x":"126.93953891831009","place_url":"http://place.map.kakao.com/12583844","id":"12583844"},
  {"SIGUN_NM":"군포시","place_name":"피싱 스토어","INDUTYPE_NM":"스포츠,레저 > 스포츠용품 > 낚시용품","road_address_name":"경기 군포시 군포로 145","address_name":"경기 군포시 대야미동 652-10","phone":"031-501-1300","REFINE_ZIPNO":"","y":"37.3280718497387","x":"126.920097300543","place_url":"http://place.map.kakao.com/10031212","id":"10031212"},
  {"SIGUN_NM":"군포시","place_name":"IGA마트","INDUTYPE_NM":"가정,생활 > 편의점 > IGA마트","road_address_name":"경기 군포시 산본로77번길 24","address_name":"경기 군포시 당정동 369-5","phone":"","REFINE_ZIPNO":"","y":"37.3531619771969","x":"126.958947298093","place_url":"http://place.map.kakao.com/2039954785","id":"2039954785"},
  {"SIGUN_NM":"군포시","place_name":"연세공감정신건강의학과의원","INDUTYPE_NM":"의료,건강 > 병원 > 정신건강의학과","road_address_name":"경기 군포시 산본천로 56","address_name":"경기 군포시 산본동 1123-3","phone":"031-397-7535","REFINE_ZIPNO":"","y":"37.3604106718613","x":"126.929996450706","place_url":"http://place.map.kakao.com/1496725070","id":"1496725070"},

  {"SIGUN_NM":"군포시","place_name":"상쾌한이비인후과의원","INDUTYPE_NM":"의료,건강 > 병원 > 이비인후과","road_address_name":"경기 군포시 금산로 90-1","address_name":"경기 군포시 산본동 216-18","phone":"031-391-7038","REFINE_ZIPNO":"","y":"37.3700954356942","x":"126.937370741241","place_url":"http://place.map.kakao.com/13721975","id":"13721975"},
  {"SIGUN_NM":"군포시","place_name":"아이비클럽 산본점","INDUTYPE_NM":"가정,생활 > 패션 > 의류판매 > 단체복,유니폼 > 아이비클럽","road_address_name":"경기 군포시 광정로 78","address_name":"경기 군포시 산본동 1123-4","phone":"031-399-0300","REFINE_ZIPNO":"","y":"37.3598626842342","x":"126.92972153497","place_url":"http://place.map.kakao.com/16169444","id":"16169444"},
  {"SIGUN_NM":"군포시","place_name":"아리따움라이브 금정역점","INDUTYPE_NM":"가정,생활 > 미용 > 화장품 > 아리따움","road_address_name":"경기 군포시 산본천로 230","address_name":"경기 군포시 산본동 266-19","phone":"031-397-2131","REFINE_ZIPNO":"","y":"37.37196772606253","x":"126.94261777213062","place_url":"http://place.map.kakao.com/17792437","id":"17792437"},
  {"SIGUN_NM":"군포시","place_name":"대승식자재마트","INDUTYPE_NM":"가정,생활 > 식품판매","road_address_name":"경기 군포시 산본천로 184","address_name":"경기 군포시 산본1동 224-7","phone":"031-393-5949","REFINE_ZIPNO":"","y":"37.3693356352732","x":"126.938640292188","place_url":"http://place.map.kakao.com/10247953","id":"10247953"},
  {"SIGUN_NM":"군포시","place_name":"부산케키","INDUTYPE_NM":"음식점 > 간식 > 아이스크림","road_address_name":"경기 군포시 산본로249번길 13-1","address_name":"경기 군포시 당동 861-8","phone":"031-396-1960","REFINE_ZIPNO":"","y":"37.3556197238544","x":"126.941247529442","place_url":"http://place.map.kakao.com/1164878606","id":"1164878606"},
  {"SIGUN_NM":"군포시","place_name":"맥쓰세계치킨 산본점","INDUTYPE_NM":"음식점 > 치킨","road_address_name":"경기 군포시 산본로323번길 4-21","address_name":"경기 군포시 산본동 1131-1","phone":"031-399-8808","REFINE_ZIPNO":"","y":"37.36018498060161","x":"126.93234681085916","place_url":"http://place.map.kakao.com/922769047","id":"922769047"},
  {"SIGUN_NM":"군포시","place_name":"원조장충왕족발 본점","INDUTYPE_NM":"음식점 > 한식 > 육류,고기 > 족발,보쌈","road_address_name":"경기 군포시 산본천로 185","address_name":"경기 군포시 산본동 222-3","phone":"031-391-0645","REFINE_ZIPNO":"","y":"37.369883355551","x":"126.938441152669","place_url":"http://place.map.kakao.com/17125555","id":"17125555"},
  {"SIGUN_NM":"군포시","place_name":"수리골","INDUTYPE_NM":"음식점 > 한식 > 쌈밥","road_address_name":"경기 군포시 속달로 283","address_name":"경기 군포시 속달동 265","phone":"031-438-7088","REFINE_ZIPNO":"","y":"37.3430144551799","x":"126.896702689474","place_url":"http://place.map.kakao.com/1944681242","id":"1944681242"},
  {"SIGUN_NM":"군포시","place_name":"주연테크 산본역점","INDUTYPE_NM":"가정,생활 > 전자제품 > 전자제품판매 > 컴퓨터판매 > 주연테크","road_address_name":"경기 군포시 번영로 505","address_name":"경기 군포시 산본동 1142-3","phone":"031-394-1586","REFINE_ZIPNO":"","y":"37.35868256086392","x":"126.93321618526363","place_url":"http://place.map.kakao.com/17255044","id":"17255044"},
  {"SIGUN_NM":"군포시","place_name":"간절곶수산 2호점","INDUTYPE_NM":"음식점 > 한식 > 해물,생선 > 회","road_address_name":"경기 군포시 군포로741번길 10","address_name":"경기 군포시 산본동 259-15","phone":"031-391-9991","REFINE_ZIPNO":"","y":"37.3709773052273","x":"126.94222000489","place_url":"http://place.map.kakao.com/16467569","id":"16467569"},
  {"SIGUN_NM":"군포시","place_name":"스튜디오꽃들","INDUTYPE_NM":"가정,생활 > 꽃집,꽃배달","road_address_name":"경기 군포시 공단로 356-54","address_name":"경기 군포시 산본동 1026-10","phone":"031-459-9979","REFINE_ZIPNO":"","y":"37.373733219900785","x":"126.94341688669856","place_url":"http://place.map.kakao.com/1614569079","id":"1614569079"},
  {"SIGUN_NM":"군포시","place_name":"군포시니어클럽","INDUTYPE_NM":"사회,공공기관 > 단체,협회 > 사회복지시설 > 노인복지시설","road_address_name":"경기 군포시 금당로69번길 29","address_name":"경기 군포시 당동 948-5","phone":"031-454-2077","REFINE_ZIPNO":"","y":"37.3523534485553","x":"126.939367441028","place_url":"http://place.map.kakao.com/837513188","id":"837513188"},
  {"SIGUN_NM":"군포시","place_name":"서울 정보처리컴퓨터학원","INDUTYPE_NM":"교육,학문 > 학원 > 컴퓨터학원","road_address_name":"경기 군포시 광정로 70","address_name":"경기 군포시 산본동 1144-1","phone":"031-397-9991","REFINE_ZIPNO":"","y":"37.3594520940265","x":"126.930191491846","place_url":"http://place.map.kakao.com/16833585","id":"16833585"},
  {"SIGUN_NM":"군포시","place_name":"나능이능이버섯백숙","INDUTYPE_NM":"음식점 > 한식 > 육류,고기 > 닭요리","road_address_name":"경기 군포시 삼성로20번길 16-14","address_name":"경기 군포시 부곡동 1217-8","phone":"031-399-1616","REFINE_ZIPNO":"","y":"37.3377651650578","x":"126.934824708656","place_url":"http://place.map.kakao.com/23826093","id":"23826093"},
  {"SIGUN_NM":"군포시","place_name":"삼경요양병원","INDUTYPE_NM":"의료,건강 > 병원 > 노인,요양병원","road_address_name":"경기 군포시 번영로 516","address_name":"경기 군포시 금정동 873","phone":"031-390-1300","REFINE_ZIPNO":"","y":"37.3582291907936","x":"126.93455417397902","place_url":"http://place.map.kakao.com/26488852","id":"26488852"},

  {"SIGUN_NM":"군포시","place_name":"금정 가전가구중고매장","INDUTYPE_NM":"가정,생활 > 중고용품 > 중고가전","road_address_name":"경기 군포시 군포로 769","address_name":"산본동 86-57","phone":"031-391-0014","REFINE_ZIPNO":"","y":"37.37368990174296","x":"126.94196711939928","place_url":"https://place.map.kakao.com/1020517893","id":"1020517893"},
  {"SIGUN_NM":"군포시","place_name":"바다향왕코다리 군포점","INDUTYPE_NM":"음식점 > 한식 > 해물,생선","road_address_name":"경기 군포시 번영로 184","address_name":"경기 군포시 부곡동 751","phone":"031-461-4664","REFINE_ZIPNO":"","y":"37.33209099733016","x":"126.92796345379519","place_url":"http://place.map.kakao.com/1541653575","id":"1541653575"},
  {"SIGUN_NM":"군포시","place_name":"미샤 산본미샤점2","INDUTYPE_NM":"가정,생활 > 미용 > 화장품 > 미샤","road_address_name":"경기 군포시 산본로323번길 16-15","address_name":"경기 군포시 산본동 1135","phone":"","REFINE_ZIPNO":"","y":"37.359420469591","x":"126.931582182074","place_url":"http://place.map.kakao.com/11739537","id":"11739537"},
  {"SIGUN_NM":"군포시","place_name":"장원해장국 원조본점","INDUTYPE_NM":"음식점 > 한식 > 해장국","road_address_name":"경기 군포시 산본로323번길 16-12","address_name":"경기 군포시 산본동 1134-1","phone":"031-393-0035","REFINE_ZIPNO":"","y":"37.3594676791594","x":"126.932200712818","place_url":"http://place.map.kakao.com/13080701","id":"13080701"},
  {"SIGUN_NM":"군포시","place_name":"석기정 군포점","INDUTYPE_NM":"음식점 > 한식 > 찌개,전골","road_address_name":"경기 군포시 고산로151번길 21","address_name":"경기 군포시 당정동 980-3","phone":"031-456-6630","REFINE_ZIPNO":"","y":"37.3469294426006","x":"126.956111143164","place_url":"http://place.map.kakao.com/13616643","id":"13616643"},
  {"SIGUN_NM":"군포시","place_name":"정정열한의원","INDUTYPE_NM":"의료,건강 > 병원 > 한방병원 > 한의원","road_address_name":"경기 군포시 금산로 14","address_name":"경기 군포시 금정동 725-7","phone":"031-453-9050","REFINE_ZIPNO":"","y":"37.3637685342479","x":"126.94108313804","place_url":"http://place.map.kakao.com/8509166","id":"8509166"},
  {"SIGUN_NM":"군포시","place_name":"한길가든","INDUTYPE_NM":"음식점 > 한식","road_address_name":"경기 군포시 둔대로 20","address_name":"경기 군포시 둔대동 441","phone":"031-437-7522","REFINE_ZIPNO":"","y":"37.3251740447234","x":"126.888757012763","place_url":"http://place.map.kakao.com/8651193","id":"8651193"},
  {"SIGUN_NM":"군포시","place_name":"명문치과의원","INDUTYPE_NM":"의료,건강 > 병원 > 치과","road_address_name":"경기 군포시 산본로323번길 16-31","address_name":"경기 군포시 산본동 1136","phone":"031-397-2727","REFINE_ZIPNO":"","y":"37.3601085289847","x":"126.931021675872","place_url":"http://place.map.kakao.com/7870870","id":"7870870"},
  {"SIGUN_NM":"군포시","place_name":"용호수산","INDUTYPE_NM":"음식점 > 한식 > 해물,생선 > 회","road_address_name":"경기 군포시 당정역로76번길 9","address_name":"경기 군포시 당정동 1015-4","phone":"031-393-8006","REFINE_ZIPNO":"","y":"37.3431785389854","x":"126.949540708107","place_url":"http://place.map.kakao.com/2026389966","id":"2026389966"},
  {"SIGUN_NM":"군포시","place_name":"대초원샤브샤브뷔페전문점","INDUTYPE_NM":"음식점 > 샤브샤브","road_address_name":"경기 군포시 산본천로 204","address_name":"경기 군포시 산본동 238-2","phone":"031-391-5888","REFINE_ZIPNO":"","y":"37.3704790475344","x":"126.940423100285","place_url":"http://place.map.kakao.com/1754736382","id":"1754736382"},
  {"SIGUN_NM":"군포시","place_name":"써브웨이 산본점","INDUTYPE_NM":"음식점 > 간식 > 샌드위치 > 써브웨이","road_address_name":"경기 군포시 광정로 60","address_name":"경기 군포시 산본동 1143-2","phone":"031-391-0776","REFINE_ZIPNO":"","y":"37.35866870850872","x":"126.93074983077022","place_url":"http://place.map.kakao.com/1265625311","id":"1265625311"},
  {"SIGUN_NM":"군포시","place_name":"군포우리치과의원","INDUTYPE_NM":"의료,건강 > 병원 > 치과","road_address_name":"경기 군포시 금산로22번길 6","address_name":"경기 군포시 금정동 725-1","phone":"031-459-7528","REFINE_ZIPNO":"","y":"37.3643955065949","x":"126.940798175679","place_url":"http://place.map.kakao.com/8027771","id":"8027771"},
  {"SIGUN_NM":"군포시","place_name":"헤어숲 산본점","INDUTYPE_NM":"가정,생활 > 미용 > 미용실","road_address_name":"경기 군포시 산본로343번길 23","address_name":"경기 군포시 산본동 1137-3","phone":"031-396-4684","REFINE_ZIPNO":"","y":"37.3598738757491","x":"126.930362677262","place_url":"http://place.map.kakao.com/11989084","id":"11989084"},
  {"SIGUN_NM":"군포시","place_name":"원조시골집","INDUTYPE_NM":"음식점 > 한식 > 육류,고기 > 닭요리","road_address_name":"경기 군포시 둔대로 29-12","address_name":"경기 군포시 둔대동 426-3","phone":"031-437-1457","REFINE_ZIPNO":"","y":"37.3260242865703","x":"126.888403735028","place_url":"http://place.map.kakao.com/16384427","id":"16384427"},
  {"SIGUN_NM":"군포시","place_name":"카마루","INDUTYPE_NM":"교통,수송 > 자동차 > 자동차용품","road_address_name":"경기 군포시 흥안대로27번길 28-6","address_name":"경기 군포시 금정동 692-5","phone":"031-429-7960","REFINE_ZIPNO":"","y":"37.3690946921244","x":"126.947211311457","place_url":"http://place.map.kakao.com/26914696","id":"26914696"},

  {"SIGUN_NM":"군포시","place_name":"오종윤정형외과의원","INDUTYPE_NM":"의료,건강 > 병원 > 정형외과","road_address_name":"경기 군포시 군포로 545","address_name":"경기 군포시 당동 745-5","phone":"031-458-2320","REFINE_ZIPNO":"","y":"37.3546742603254","x":"126.946336501059","place_url":"http://place.map.kakao.com/9900037","id":"9900037"},
  {"SIGUN_NM":"군포시","place_name":"365PLUS 군포당정역점","INDUTYPE_NM":"가정,생활 > 편의점 > 365PLUS","road_address_name":"경기 군포시 당정역로 78-4","address_name":"경기 군포시 당정동 1015-1","phone":"031-427-3657","REFINE_ZIPNO":"","y":"37.3431385873209","x":"126.948827497825","place_url":"http://place.map.kakao.com/27155918","id":"27155918"},
  {"SIGUN_NM":"군포시","place_name":"애니카랜드 대야미점","INDUTYPE_NM":"교통,수송 > 자동차 > 자동차정비 > 애니카랜드","road_address_name":"경기 군포시 호수로 361","address_name":"경기 군포시 대야미동 645-15","phone":"031-438-1223","REFINE_ZIPNO":"","y":"37.3293888758206","x":"126.917067458184","place_url":"http://place.map.kakao.com/1574913863","id":"1574913863"},
  {"SIGUN_NM":"군포시","place_name":"호텔초콜릿","INDUTYPE_NM":"여행 > 숙박 > 여관,모텔","road_address_name":"경기 군포시 군포로741번길 7","address_name":"경기 군포시 산본1동 252-6","phone":"031-399-8383","REFINE_ZIPNO":"","y":"37.3708548780594","x":"126.942450405522","place_url":"http://place.map.kakao.com/17871303","id":"17871303"},
  {"SIGUN_NM":"군포시","place_name":"마시따통영","INDUTYPE_NM":"음식점 > 한식 > 해물,생선 > 회","road_address_name":"경기 군포시 산본로 329","address_name":"경기 군포시 산본동 1126","phone":"031-393-9189","REFINE_ZIPNO":"","y":"37.3600232233451","x":"126.933098731709","place_url":"http://place.map.kakao.com/24141404","id":"24141404"},
  {"SIGUN_NM":"군포시","place_name":"보타닉가든","INDUTYPE_NM":"음식점 > 양식","road_address_name":"경기 군포시 광정로 80","address_name":"경기 군포시 산본동 1123-5","phone":"031-392-4214","REFINE_ZIPNO":"","y":"37.3602914211594","x":"126.9294660272264","place_url":"http://place.map.kakao.com/1454420571","id":"1454420571"},
  {"SIGUN_NM":"군포시","place_name":"토끼굴","INDUTYPE_NM":"음식점 > 술집 > 호프,요리주점","road_address_name":"경기 군포시 군포로745번길 8","address_name":"경기 군포시 산본동 265-13","phone":"010-6636-5644","REFINE_ZIPNO":"","y":"37.3714205964594","x":"126.942192569792","place_url":"http://place.map.kakao.com/1182114758","id":"1182114758"},
  {"SIGUN_NM":"군포시","place_name":"짬뽕타운 산본점","INDUTYPE_NM":"음식점 > 중식 > 중화요리","road_address_name":"경기 군포시 산본로323번길 16-6","address_name":"경기 군포시 산본동 1134-2","phone":"031-396-0410","REFINE_ZIPNO":"","y":"37.3592587416975","x":"126.932376990576","place_url":"http://place.map.kakao.com/23717113","id":"23717113"},
  {"SIGUN_NM":"군포시","place_name":"산본할인마트","INDUTYPE_NM":"가정,생활 > 슈퍼마켓 > 대형슈퍼","road_address_name":"경기 군포시 광정로 59","address_name":"경기 군포시 산본동 1145-4","phone":"031-395-4005","REFINE_ZIPNO":"","y":"37.3583781922122","x":"126.930400179729","place_url":"http://place.map.kakao.com/29765677","id":"29765677"},
  {"SIGUN_NM":"군포시","place_name":"카페별","INDUTYPE_NM":"음식점 > 카페","road_address_name":"경기 군포시 호수로 69","address_name":"경기 군포시 둔대동 461-10","phone":"031-502-6212","REFINE_ZIPNO":"","y":"37.323547514002","x":"126.887626651321","place_url":"http://place.map.kakao.com/26594377","id":"26594377"},
  {"SIGUN_NM":"군포시","place_name":"어사출또 금정점","INDUTYPE_NM":"음식점 > 한식 > 해물,생선 > 회","road_address_name":"경기 군포시 번영로 591","address_name":"경기 군포시 금정동 722-10","phone":"031-429-9114","REFINE_ZIPNO":"","y":"37.3626477021641","x":"126.941174320848","place_url":"http://place.map.kakao.com/929966098","id":"929966098"},
  {"SIGUN_NM":"군포시","place_name":"투썸플레이스 산본사거리점","INDUTYPE_NM":"음식점 > 카페 > 커피전문점 > 투썸플레이스","road_address_name":"경기 군포시 고산로 685","address_name":"경기 군포시 산본동 1061","phone":"031-399-8566","REFINE_ZIPNO":"","y":"37.37148150770101","x":"126.93458556388482","place_url":"http://place.map.kakao.com/1011978319","id":"1011978319"},
  {"SIGUN_NM":"군포시","place_name":"긴자레스토랑","INDUTYPE_NM":"음식점 > 아시아음식 > 인도음식","road_address_name":"경기 군포시 산본로323번길 16-31","address_name":"경기 군포시 산본동 1136","phone":"031-392-2203","REFINE_ZIPNO":"","y":"37.3600688680022","x":"126.93099462114","place_url":"http://place.map.kakao.com/12518738","id":"12518738"},
  {"SIGUN_NM":"군포시","place_name":"중화요리서경","INDUTYPE_NM":"음식점 > 중식 > 중화요리","road_address_name":"경기 군포시 고산로211번길 30","address_name":"경기 군포시 당정동 1011-2","phone":"031-455-9220","REFINE_ZIPNO":"","y":"37.3436222385746","x":"126.950470333804","place_url":"http://place.map.kakao.com/2000194843","id":"2000194843"},
  {"SIGUN_NM":"군포시","place_name":"이베리코의전설 군포본점","INDUTYPE_NM":"음식점 > 한식 > 육류,고기","road_address_name":"경기 군포시 용호1로1번길 8-1","address_name":"경기 군포시 당동 977-6","phone":"031-396-2328","REFINE_ZIPNO":"","y":"37.34269009616088","x":"126.93798937277514","place_url":"http://place.map.kakao.com/514698828","id":"514698828"},

  {"SIGUN_NM":"군포시","place_name":"스쿨룩스 군포산본점","INDUTYPE_NM":"가정,생활 > 패션 > 의류판매 > 단체복,유니폼 > 스쿨룩스","road_address_name":"경기 군포시 산본로 339","address_name":"경기 군포시 산본동 1125-2","phone":"031-393-1318","REFINE_ZIPNO":"","y":"37.360606708969385","x":"126.93258799570711","place_url":"http://place.map.kakao.com/19603788","id":"19603788"},
  {"SIGUN_NM":"군포시","place_name":"곱창집","INDUTYPE_NM":"음식점 > 한식 > 육류,고기 > 곱창,막창","road_address_name":"경기 군포시 군포로735번길 6","address_name":"경기 군포시 산본동 266-10","phone":"031-399-7555","REFINE_ZIPNO":"","y":"37.3709848837961","x":"126.9429831737","place_url":"http://place.map.kakao.com/27321189","id":"27321189"},
  {"SIGUN_NM":"군포시","place_name":"스시한판","INDUTYPE_NM":"음식점 > 일식 > 초밥,롤","road_address_name":"경기 군포시 산본로323번길 20-5","address_name":"경기 군포시 산본동 1140","phone":"031-392-9591","REFINE_ZIPNO":"","y":"37.3589374590086","x":"126.931478773138","place_url":"http://place.map.kakao.com/788562783","id":"788562783"},
  {"SIGUN_NM":"군포시","place_name":"한국유로핀즈분석서비스","INDUTYPE_NM":"교육,학문 > 연구소 > 생명공학연구소","road_address_name":"경기 군포시 산본로101번길 13","address_name":"경기 군포시 당정동 352-18","phone":"031-361-7777","REFINE_ZIPNO":"","y":"37.35282416782107","x":"126.95663593600851","place_url":"http://place.map.kakao.com/8859188","id":"8859188"},
  {"SIGUN_NM":"군포시","place_name":"보싸마보싸마 당동점","INDUTYPE_NM":"음식점 > 한식 > 육류,고기 > 족발,보쌈","road_address_name":"경기 군포시 삼성로87번길 4-3","address_name":"경기 군포시 당동 1030-3","phone":"031-396-5222","REFINE_ZIPNO":"","y":"37.341438543229","x":"126.936252490164","place_url":"http://place.map.kakao.com/21800049","id":"21800049"},
  {"SIGUN_NM":"군포시","place_name":"몽마르치킨호프","INDUTYPE_NM":"음식점 > 술집 > 호프,요리주점","road_address_name":"경기 군포시 고산로 256","address_name":"경기 군포시 당동 921-5","phone":"031-394-9998","REFINE_ZIPNO":"","y":"37.346571283344","x":"126.944333376419","place_url":"http://place.map.kakao.com/16755337","id":"16755337"},
  {"SIGUN_NM":"군포시","place_name":"시장을여는사람들","INDUTYPE_NM":"음식점 > 술집 > 호프,요리주점","road_address_name":"경기 군포시 산본로323번길 10-14","address_name":"경기 군포시 산본동 1130-2","phone":"031-391-1110","REFINE_ZIPNO":"","y":"37.3597489571125","x":"126.9324758841","place_url":"http://place.map.kakao.com/1106195027","id":"1106195027"},
  {"SIGUN_NM":"군포시","place_name":"마산아구찜해물탕","INDUTYPE_NM":"음식점 > 한식 > 해물,생선 > 아구","road_address_name":"경기 군포시 산본천로226번길 35","address_name":"경기 군포시 금정동 40-19","phone":"031-397-8887","REFINE_ZIPNO":"","y":"37.3703939479105","x":"126.943268115741","place_url":"http://place.map.kakao.com/9753758","id":"9753758"},
  {"SIGUN_NM":"군포시","place_name":"더에스호텔","INDUTYPE_NM":"여행 > 숙박 > 여관,모텔","road_address_name":"경기 군포시 금정로 4","address_name":"경기 군포시 금정동 77-5","phone":"031-459-2532","REFINE_ZIPNO":"","y":"37.3679291884244","x":"126.944209225388","place_url":"http://place.map.kakao.com/1924338380","id":"1924338380"},
  {"SIGUN_NM":"군포시","place_name":"한우&흑돼지","INDUTYPE_NM":"음식점 > 한식 > 육류,고기","road_address_name":"경기 군포시 군포로735번길 12","address_name":"경기 군포시 산본동 252-10","phone":"031-398-9289","REFINE_ZIPNO":"","y":"37.3707973352102","x":"126.942703335114","place_url":"http://place.map.kakao.com/1920004241","id":"1920004241"},
  {"SIGUN_NM":"군포시","place_name":"엘리트 산본점","INDUTYPE_NM":"가정,생활 > 패션 > 의류판매 > 단체복,유니폼 > 엘리트","road_address_name":"경기 군포시 광정로 60","address_name":"경기 군포시 산본동 1143-2","phone":"031-399-1002","REFINE_ZIPNO":"","y":"37.358720828823","x":"126.930819766793","place_url":"http://place.map.kakao.com/26376180","id":"26376180"},
  {"SIGUN_NM":"군포시","place_name":"우리한우정육식당","INDUTYPE_NM":"음식점 > 한식 > 육류,고기","road_address_name":"경기 군포시 속달로110번길 20","address_name":"경기 군포시 속달동 24-6","phone":"031-501-7992","REFINE_ZIPNO":"","y":"37.3365948411484","x":"126.909052115877","place_url":"http://place.map.kakao.com/10699857","id":"10699857"},
  {"SIGUN_NM":"군포시","place_name":"요술잔","INDUTYPE_NM":"음식점 > 술집 > 호프,요리주점","road_address_name":"경기 군포시 산본로323번길 10-18","address_name":"경기 군포시 산본동 1130-3","phone":"","REFINE_ZIPNO":"","y":"37.3598642137392","x":"126.932344841212","place_url":"http://place.map.kakao.com/1427060035","id":"1427060035"},
  {"SIGUN_NM":"군포시","place_name":"송월타월 수건이야기","INDUTYPE_NM":"서비스,산업 > 제조업 > 생활용품제조 > 목욕용품,세면용품","road_address_name":"경기 군포시 산본로77번길 38","address_name":"경기 군포시 당정동 381-4","phone":"1661-8077","REFINE_ZIPNO":"","y":"37.3518649099495","x":"126.960157938897","place_url":"http://place.map.kakao.com/20555054","id":"20555054"},

  {"SIGUN_NM":"군포시","place_name":"사랑애요양병원","INDUTYPE_NM":"의료,건강 > 병원 > 노인,요양병원","road_address_name":"경기 군포시 군포로573번길 3","address_name":"경기 군포시 당동 732-3","phone":"031-455-5454","REFINE_ZIPNO":"","y":"37.3571469958854","x":"126.947034565198","place_url":"http://place.map.kakao.com/13517601","id":"13517601"},
  {"SIGUN_NM":"군포시","place_name":"미사리밀빛초계국수 반월호수점","INDUTYPE_NM":"음식점 > 한식 > 국수 > 미사리밀빛초계국수","road_address_name":"경기 군포시 호수로 124-3","address_name":"경기 군포시 둔대동 344-4","phone":"031-438-4886","REFINE_ZIPNO":"","y":"37.3234333723425","x":"126.892794180658","place_url":"http://place.map.kakao.com/24168022","id":"24168022"},
  {"SIGUN_NM":"군포시","place_name":"세븐일레븐 군포당동점","INDUTYPE_NM":"가정,생활 > 편의점 > 세븐일레븐","road_address_name":"경기 군포시 군포로565번길 3","address_name":"경기 군포시 당동 746-3","phone":"","REFINE_ZIPNO":"","y":"37.35639804094851","x":"126.94658811119882","place_url":"http://place.map.kakao.com/13119992","id":"13119992"},
  {"SIGUN_NM":"군포시","place_name":"하남돼지집 산본역점","INDUTYPE_NM":"음식점 > 한식 > 육류,고기 > 삼겹살 > 하남돼지집","road_address_name":"경기 군포시 산본로323번길 16-12","address_name":"경기 군포시 산본동 1134-1","phone":"031-398-6720","REFINE_ZIPNO":"","y":"37.359338829066594","x":"126.93219518481635","place_url":"http://place.map.kakao.com/449252247","id":"449252247"},
  {"SIGUN_NM":"군포시","place_name":"청년다방 군포산본점","INDUTYPE_NM":"음식점 > 분식 > 떡볶이 > 청년다방","road_address_name":"경기 군포시 산본로343번길 23","address_name":"경기 군포시 산본동 1137-3","phone":"031-399-8898","REFINE_ZIPNO":"","y":"37.35987387574908","x":"126.93036267726168","place_url":"http://place.map.kakao.com/1472330420","id":"1472330420"},
  {"SIGUN_NM":"군포시","place_name":"케이엘이디라이팅","INDUTYPE_NM":"가정,생활 > 전자제품 > 전자제품판매 > 조명기기판매","road_address_name":"경기 군포시 군포로 53","address_name":"경기 군포시 대야미동 527-1","phone":"070-4253-1777","REFINE_ZIPNO":"","y":"37.3210796778557","x":"126.914707349508","place_url":"http://place.map.kakao.com/902597492","id":"902597492"},
  {"SIGUN_NM":"군포시","place_name":"대영씨앤티","INDUTYPE_NM":"서비스,산업 > 제조업 > 전기,전자","road_address_name":"경기 군포시 공단로140번안길 10-10","address_name":"경기 군포시 당정동 181-29","phone":"031-458-1020","REFINE_ZIPNO":"","y":"37.35827435517068","x":"126.95390457266862","place_url":"http://place.map.kakao.com/1646937860","id":"1646937860"},
  {"SIGUN_NM":"군포시","place_name":"속편한내과의원","INDUTYPE_NM":"의료,건강 > 병원 > 내과","road_address_name":"경기 군포시 산본천로 43-6","address_name":"경기 군포시 산본동 1146","phone":"031-393-0068","REFINE_ZIPNO":"","y":"37.3606690766883","x":"126.928176581998","place_url":"http://place.map.kakao.com/9139961","id":"9139961"},
  {"SIGUN_NM":"군포시","place_name":"삼손종합정비","INDUTYPE_NM":"교통,수송 > 자동차 > 자동차정비","road_address_name":"경기 군포시 농심로 87","address_name":"경기 군포시 당정동 11-1","phone":"031-455-8222","REFINE_ZIPNO":"","y":"37.3649758177374","x":"126.957717171459","place_url":"http://place.map.kakao.com/22957499","id":"22957499"},
  {"SIGUN_NM":"군포시","place_name":"라멘키분","INDUTYPE_NM":"음식점 > 일식 > 일본식라면","road_address_name":"경기 군포시 산본로323번길 21","address_name":"경기 군포시 산본동 1141-1","phone":"031-396-3369","REFINE_ZIPNO":"","y":"37.3585628072487","x":"126.931782752973","place_url":"http://place.map.kakao.com/620785486","id":"620785486"},
  {"SIGUN_NM":"군포시","place_name":"설빙 군포산본점","INDUTYPE_NM":"음식점 > 카페 > 테마카페 > 디저트카페 > 설빙","road_address_name":"경기 군포시 산본로323번길 26-22","address_name":"경기 군포시 산본동 1138-2","phone":"031-393-5311","REFINE_ZIPNO":"","y":"37.35938305395315","x":"126.93076836373388","place_url":"http://place.map.kakao.com/24578987","id":"24578987"},
  {"SIGUN_NM":"군포시","place_name":"황소곱창","INDUTYPE_NM":"음식점 > 한식 > 육류,고기 > 곱창,막창","road_address_name":"경기 군포시 군포로456번길 17","address_name":"경기 군포시 당동 916-7","phone":"031-453-9792","REFINE_ZIPNO":"","y":"37.346737565057","x":"126.945389617103","place_url":"http://place.map.kakao.com/18605079","id":"18605079"},
  {"SIGUN_NM":"군포시","place_name":"좋구만","INDUTYPE_NM":"음식점 > 한식 > 육류,고기","road_address_name":"경기 군포시 당동로7번길 6","address_name":"경기 군포시 당동 786-7","phone":"031-395-9292","REFINE_ZIPNO":"","y":"37.350632658406","x":"126.943355222765","place_url":"http://place.map.kakao.com/8569734","id":"8569734"},
  {"SIGUN_NM":"군포시","place_name":"최비뇨기과의원","INDUTYPE_NM":"의료,건강 > 병원 > 비뇨기과","road_address_name":"경기 군포시 군포로 530","address_name":"경기 군포시 당동 777","phone":"031-453-7293","REFINE_ZIPNO":"","y":"37.3531893210015","x":"126.946238233404","place_url":"http://place.map.kakao.com/9502966","id":"9502966"},
  {"SIGUN_NM":"군포시","place_name":"크린위드 산본한라점","INDUTYPE_NM":"가정,생활 > 세탁소 > 크린위드","road_address_name":"경기 군포시 번영로 380-1","address_name":"경기 군포시 산본동 1156-8","phone":"031-397-9110","REFINE_ZIPNO":"","y":"37.34948087587294","x":"126.92648977523987","place_url":"http://place.map.kakao.com/12389215","id":"12389215"},

  {"SIGUN_NM":"군포시","place_name":"프라임솔루션","INDUTYPE_NM":"서비스,산업 > 제조업 > 전기,전자 > 전기자재,부품","road_address_name":"경기 군포시 당정로27번길 39","address_name":"경기 군포시 당정동 508-4","phone":"031-464-1051","REFINE_ZIPNO":"","y":"37.34995501111147","x":"126.95128331042409","place_url":"http://place.map.kakao.com/27031722","id":"27031722"},
  {"SIGUN_NM":"군포시","place_name":"이차돌 군포당정역점","INDUTYPE_NM":"음식점 > 한식 > 육류,고기 > 이차돌","road_address_name":"경기 군포시 고산로 260","address_name":"경기 군포시 당동 921-3","phone":"031-399-7784","REFINE_ZIPNO":"","y":"37.3466611622647","x":"126.943859301312","place_url":"http://place.map.kakao.com/623822672","id":"623822672"},
  {"SIGUN_NM":"군포시","place_name":"유가네들깨수제비","INDUTYPE_NM":"음식점 > 한식 > 수제비","road_address_name":"경기 군포시 호수로 306-6","address_name":"경기 군포시 둔대동 245-6","phone":"031-437-0119","REFINE_ZIPNO":"","y":"37.3260774678359","x":"126.913140155602","place_url":"http://place.map.kakao.com/19379288","id":"19379288"},
  {"SIGUN_NM":"군포시","place_name":"라모르플라워","INDUTYPE_NM":"가정,생활 > 꽃집,꽃배달","road_address_name":"경기 군포시 번영로 505","address_name":"경기 군포시 산본동 1142-3","phone":"070-4200-5430","REFINE_ZIPNO":"","y":"37.358718643348936","x":"126.9332895235198","place_url":"https://place.map.kakao.com/27380275","id":"27380275"},
  {"SIGUN_NM":"군포시","place_name":"김현철내과의원","INDUTYPE_NM":"의료,건강 > 병원 > 내과","road_address_name":"경기 군포시 고산로 248","address_name":"경기 군포시 당동 922-30","phone":"031-395-7776","REFINE_ZIPNO":"","y":"37.34629762203753","x":"126.94487078577728","place_url":"http://place.map.kakao.com/8819860","id":"8819860"},
  {"SIGUN_NM":"군포시","place_name":"투썸플레이스 금정역점","INDUTYPE_NM":"음식점 > 카페 > 커피전문점 > 투썸플레이스","road_address_name":"경기 군포시 공단로 356-54","address_name":"경기 군포시 산본동 1026-10","phone":"031-427-2308","REFINE_ZIPNO":"","y":"37.37362537150027","x":"126.94399388472362","place_url":"http://place.map.kakao.com/13064336","id":"13064336"},
  {"SIGUN_NM":"군포시","place_name":"오감만두","INDUTYPE_NM":"음식점 > 분식","road_address_name":"경기 군포시 삼성로20번길 3-8","address_name":"경기 군포시 부곡동 1213-5","phone":"031-394-5556","REFINE_ZIPNO":"","y":"37.3377391418567","x":"126.933398359335","place_url":"http://place.map.kakao.com/600732592","id":"600732592"},
  {"SIGUN_NM":"군포시","place_name":"산본척척마취통증의학과의원","INDUTYPE_NM":"의료,건강 > 병원 > 통증클리닉","road_address_name":"경기 군포시 산본천로 211","address_name":"경기 군포시 산본동 91-41","phone":"031-397-7588","REFINE_ZIPNO":"","y":"37.37132161410673","x":"126.94063693668406","place_url":"http://place.map.kakao.com/26989343","id":"26989343"},
  {"SIGUN_NM":"군포시","place_name":"원시쪽갈비 산본점","INDUTYPE_NM":"음식점 > 한식 > 육류,고기 > 갈비","road_address_name":"경기 군포시 군포로745번길 34","address_name":"경기 군포시 산본동 238-13","phone":"031-394-8800","REFINE_ZIPNO":"","y":"37.3706054583044","x":"126.940955865121","place_url":"http://place.map.kakao.com/1597955422","id":"1597955422"},
  {"SIGUN_NM":"군포시","place_name":"황실중국정통마사지","INDUTYPE_NM":"가정,생활 > 미용 > 체형관리","road_address_name":"경기 군포시 군포로 743","address_name":"경기 군포시 산본동 266-5","phone":"031-392-7080","REFINE_ZIPNO":"","y":"37.3714750350584","x":"126.942969255175","place_url":"http://place.map.kakao.com/17151200","id":"17151200"},
  {"SIGUN_NM":"군포시","place_name":"디델리 산본점","INDUTYPE_NM":"음식점 > 분식","road_address_name":"경기 군포시 광정로 68","address_name":"경기 군포시 산본동 1144-2","phone":"031-396-1194","REFINE_ZIPNO":"","y":"37.3592684016061","x":"126.930390327431","place_url":"http://place.map.kakao.com/16319254","id":"16319254"},
  {"SIGUN_NM":"군포시","place_name":"참별난참치","INDUTYPE_NM":"음식점 > 일식 > 참치회","road_address_name":"경기 군포시 공단로 356-54","address_name":"경기 군포시 산본동 1026-10","phone":"031-455-0266","REFINE_ZIPNO":"","y":"37.3739873855304","x":"126.943577014004","place_url":"http://place.map.kakao.com/16862100","id":"16862100"},
  {"SIGUN_NM":"군포시","place_name":"코리아모터펌프(주)","INDUTYPE_NM":"서비스,산업 > 제조업 > 전기,전자 > 전기자재,부품","road_address_name":"경기 군포시 엘에스로166번길 15-7","address_name":"경기 군포시 금정동 1-27","phone":"031-477-8833","REFINE_ZIPNO":"","y":"37.3761577841723","x":"126.945128939147","place_url":"http://place.map.kakao.com/16990347","id":"16990347"},
  {"SIGUN_NM":"군포시","place_name":"좋은숨김휘정내과의원","INDUTYPE_NM":"의료,건강 > 병원 > 내과","road_address_name":"경기 군포시 산본로323번길 16-7","address_name":"경기 군포시 산본동 1135-1","phone":"031-398-3004","REFINE_ZIPNO":"","y":"37.3592259442727","x":"126.931749418144","place_url":"http://place.map.kakao.com/1842395403","id":"1842395403"},
  {"SIGUN_NM":"군포시","place_name":"청우전기철물","INDUTYPE_NM":"가정,생활 > 생활용품점 > 철물점","road_address_name":"경기 군포시 번영로 505","address_name":"경기 군포시 산본동 1142-2","phone":"031-395-8204","REFINE_ZIPNO":"","y":"37.3588123552592","x":"126.93329847076912","place_url":"http://place.map.kakao.com/16167475","id":"16167475"},

  {"SIGUN_NM":"군포시","place_name":"도미노피자 군포점","INDUTYPE_NM":"음식점 > 양식 > 피자 > 도미노피자","road_address_name":"경기 군포시 금당로 23","address_name":"경기 군포시 당동 952-5","phone":"031-457-3331","REFINE_ZIPNO":"","y":"37.350143897137706","x":"126.94069311785658","place_url":"http://place.map.kakao.com/1729221137","id":"1729221137"},
  {"SIGUN_NM":"군포시","place_name":"조광페인트","INDUTYPE_NM":"서비스,산업 > 건설,건축 > 건설자재 > 페인트,도장","road_address_name":"경기 군포시 군포로 566","address_name":"경기 군포시 당동 747-33","phone":"031-452-5829","REFINE_ZIPNO":"","y":"37.3563397639108","x":"126.947233790162","place_url":"http://place.map.kakao.com/12202984","id":"12202984"},
  {"SIGUN_NM":"군포시","place_name":"구공탄곱창 군포산본점","INDUTYPE_NM":"음식점 > 한식 > 육류,고기 > 곱창,막창","road_address_name":"경기 군포시 번영로 495","address_name":"경기 군포시 산본동 1142-6","phone":"031-342-0828","REFINE_ZIPNO":"","y":"37.3581303448087","x":"126.931836196285","place_url":"http://place.map.kakao.com/1429271834","id":"1429271834"},
  {"SIGUN_NM":"군포시","place_name":"즉석산본우동","INDUTYPE_NM":"음식점 > 일식 > 돈까스,우동","road_address_name":"경기 군포시 수리산로 42","address_name":"경기 군포시 산본동 1151-5","phone":"031-391-5155","REFINE_ZIPNO":"","y":"37.3560149620255","x":"126.920645600765","place_url":"http://place.map.kakao.com/9123324","id":"9123324"},
  {"SIGUN_NM":"군포시","place_name":"마녀족발 한세대점","INDUTYPE_NM":"음식점 > 한식 > 육류,고기 > 족발,보쌈","road_address_name":"경기 군포시 고산로151번길 7","address_name":"경기 군포시 당정동 974-3","phone":"031-427-5458","REFINE_ZIPNO":"","y":"37.3481149267905","x":"126.955388140116","place_url":"http://place.map.kakao.com/376883143","id":"376883143"},
  {"SIGUN_NM":"군포시","place_name":"본가삼계탕","INDUTYPE_NM":"음식점 > 한식 > 육류,고기 > 닭요리","road_address_name":"경기 군포시 번영로 495","address_name":"경기 군포시 산본동 1142-6","phone":"031-393-7337","REFINE_ZIPNO":"","y":"37.35803583310333","x":"126.93200333860635","place_url":"http://place.map.kakao.com/26633090","id":"26633090"},
  {"SIGUN_NM":"군포시","place_name":"공차 산본점","INDUTYPE_NM":"음식점 > 카페 > 공차","road_address_name":"경기 군포시 산본로323번길 10-22","address_name":"경기 군포시 산본동 1131-2","phone":"031-391-0505","REFINE_ZIPNO":"","y":"37.3601019917572","x":"126.932182081511","place_url":"http://place.map.kakao.com/22512943","id":"22512943"},
  {"SIGUN_NM":"군포시","place_name":"카리브참치 산본점","INDUTYPE_NM":"음식점 > 일식 > 참치회","road_address_name":"경기 군포시 산본로323번길 23","address_name":"경기 군포시 산본동 1141","phone":"031-392-6644","REFINE_ZIPNO":"","y":"37.3584545607721","x":"126.931569513647","place_url":"http://place.map.kakao.com/12095164","id":"12095164"},
  {"SIGUN_NM":"군포시","place_name":"몽짬뽕","INDUTYPE_NM":"음식점 > 중식","road_address_name":"경기 군포시 고산로211번길 31","address_name":"경기 군포시 당정동 1004-2","phone":"031-427-7770","REFINE_ZIPNO":"","y":"37.3439035573213","x":"126.950944140471","place_url":"http://place.map.kakao.com/24168008","id":"24168008"},
  {"SIGUN_NM":"군포시","place_name":"송안과의원","INDUTYPE_NM":"의료,건강 > 병원 > 안과","road_address_name":"경기 군포시 금산로 114","address_name":"경기 군포시 산본1동 206-2","phone":"031-396-1874","REFINE_ZIPNO":"","y":"37.371911297039","x":"126.936235745398","place_url":"http://place.map.kakao.com/9863651","id":"9863651"},
  {"SIGUN_NM":"군포시","place_name":"귀뚜라미보일러 군포대리점","INDUTYPE_NM":"가정,생활 > 전자제품 > 전자제품판매 > 보일러판매 > 귀뚜라미보일러","road_address_name":"경기 군포시 군포로 693","address_name":"경기 군포시 금정동 85-2","phone":"031-429-9000","REFINE_ZIPNO":"","y":"37.3673420560029","x":"126.944927641782","place_url":"http://place.map.kakao.com/14951576","id":"14951576"},
  {"SIGUN_NM":"군포시","place_name":"청호마트","INDUTYPE_NM":"가정,생활 > 슈퍼마켓","road_address_name":"경기 군포시 당산로 160","address_name":"경기 군포시 금정동 735","phone":"031-429-6946","REFINE_ZIPNO":"","y":"37.3651607288457","x":"126.943145622577","place_url":"http://place.map.kakao.com/18066715","id":"18066715"},
  {"SIGUN_NM":"군포시","place_name":"토담길","INDUTYPE_NM":"음식점 > 한식 > 한정식","road_address_name":"경기 군포시 둔대로 21-8","address_name":"경기 군포시 둔대동 431","phone":"031-438-4020","REFINE_ZIPNO":"","y":"37.3255233473628","x":"126.88844058066","place_url":"http://place.map.kakao.com/12569574","id":"12569574"},
  {"SIGUN_NM":"군포시","place_name":"대성철물건재","INDUTYPE_NM":"서비스,산업 > 제조업 > 산업용품 > 철물","road_address_name":"경기 군포시 당산로36번길 2","address_name":"경기 군포시 당동 744","phone":"031-456-5262(팩스)","REFINE_ZIPNO":"","y":"37.3547421141464","x":"126.944977481998","place_url":"http://place.map.kakao.com/9714597","id":"9714597"},
  {"SIGUN_NM":"군포시","place_name":"맘모스 수족관","INDUTYPE_NM":"가정,생활 > 반려동물 > 열대어,관상어 > 수족관","road_address_name":"경기 군포시 군포로 558","address_name":"경기 군포시 당동 748-17","phone":"031-457-4822","REFINE_ZIPNO":"","y":"37.3557594556806","x":"126.947130353363","place_url":"http://place.map.kakao.com/8962505","id":"8962505"},

  {"SIGUN_NM":"군포시","place_name":"조순금닭도리탕","INDUTYPE_NM":"음식점 > 한식 > 육류,고기 > 닭요리","road_address_name":"경기 군포시 번영로 515","address_name":"경기 군포시 산본동 1142-1","phone":"031-393-5009","REFINE_ZIPNO":"","y":"37.3590540665495","x":"126.933718162185","place_url":"http://place.map.kakao.com/1922473143","id":"1922473143"},
  {"SIGUN_NM":"군포시","place_name":"빨간낙지집낙지마당 본점","INDUTYPE_NM":"음식점 > 한식 > 해물,생선","road_address_name":"경기 군포시 번영로 495","address_name":"경기 군포시 산본동 1142-6","phone":"031-391-5456","REFINE_ZIPNO":"","y":"37.3582313430195","x":"126.931980586921","place_url":"http://place.map.kakao.com/10457453","id":"10457453"},
  {"SIGUN_NM":"군포시","place_name":"갈비대통령","INDUTYPE_NM":"음식점 > 한식 > 육류,고기 > 갈비","road_address_name":"경기 군포시 용호1로2번길 47-7","address_name":"경기 군포시 당동 962-3","phone":"031-399-0092","REFINE_ZIPNO":"","y":"37.3465626982036","x":"126.941480305235","place_url":"http://place.map.kakao.com/11670092","id":"11670092"},
  {"SIGUN_NM":"군포시","place_name":"맘스터치 산본점","INDUTYPE_NM":"음식점 > 패스트푸드 > 맘스터치","road_address_name":"경기 군포시 광정로 68","address_name":"경기 군포시 산본동 1144-2","phone":"031-393-8009","REFINE_ZIPNO":"","y":"37.3592216092701","x":"126.93049421843","place_url":"http://place.map.kakao.com/27434041","id":"27434041"},
  {"SIGUN_NM":"군포시","place_name":"푸라닭치킨 군포산본점","INDUTYPE_NM":"음식점 > 치킨 > 푸라닭치킨","road_address_name":"경기 군포시 금산로62번길 28","address_name":"경기 군포시 산본동 231-9","phone":"031-399-9206","REFINE_ZIPNO":"","y":"37.368464158084","x":"126.940036345493","place_url":"http://place.map.kakao.com/1413874720","id":"1413874720"},
  {"SIGUN_NM":"군포시","place_name":"그곳에가면 통나무닭갈비","INDUTYPE_NM":"음식점 > 한식 > 육류,고기 > 닭요리","road_address_name":"경기 군포시 산본로323번길 16-14","address_name":"경기 군포시 산본동 1134","phone":"031-391-9226","REFINE_ZIPNO":"","y":"37.3596766293217","x":"126.932047009812","place_url":"http://place.map.kakao.com/460278867","id":"460278867"},
  {"SIGUN_NM":"군포시","place_name":"뷰엠테크놀로지","INDUTYPE_NM":"서비스,산업 > 제조업 > 의료용품 > 의료기기제조","road_address_name":"경기 군포시 흥안대로 25","address_name":"경기 군포시 금정동 694-29","phone":"031-453-0202","REFINE_ZIPNO":"","y":"37.366720178705","x":"126.94855409954","place_url":"http://place.map.kakao.com/1347163974","id":"1347163974"},
  {"SIGUN_NM":"군포시","place_name":"스마트 산본점","INDUTYPE_NM":"가정,생활 > 패션 > 의류판매 > 단체복,유니폼 > 스마트","road_address_name":"경기 군포시 산본로323번길 16-29","address_name":"경기 군포시 산본동 1136-1","phone":"031-395-3441","REFINE_ZIPNO":"","y":"37.3599283998963","x":"126.931152780467","place_url":"http://place.map.kakao.com/15282546","id":"15282546"},
  {"SIGUN_NM":"군포시","place_name":"배스킨라빈스 산본중심가점","INDUTYPE_NM":"음식점 > 간식 > 아이스크림 > 배스킨라빈스","road_address_name":"경기 군포시 산본로323번길 22","address_name":"경기 군포시 산본동 1140-1","phone":"031-391-3001","REFINE_ZIPNO":"","y":"37.35879697195482","x":"126.9316053235333","place_url":"http://place.map.kakao.com/12255666","id":"12255666"},
  {"SIGUN_NM":"군포시","place_name":"휴성심요양병원","INDUTYPE_NM":"의료,건강 > 병원 > 노인,요양병원","road_address_name":"경기 군포시 당정역로4번길 11","address_name":"경기 군포시 당정동 1013-6","phone":"031-477-9797","REFINE_ZIPNO":"","y":"37.34375716677222","x":"126.94950872157469","place_url":"http://place.map.kakao.com/17635473","id":"17635473"},
  {"SIGUN_NM":"군포시","place_name":"아미치0.3 산본점","INDUTYPE_NM":"가정,생활 > 미용 > 탈모관리 > 아미치0.3","road_address_name":"경기 군포시 광정로 80","address_name":"경기 군포시 산본동 1123-5","phone":"031-391-5657","REFINE_ZIPNO":"","y":"37.3602914763171","x":"126.929558588468","place_url":"http://place.map.kakao.com/1286593115","id":"1286593115"},
  {"SIGUN_NM":"군포시","place_name":"필한의원 하이키산본점","INDUTYPE_NM":"의료,건강 > 병원 > 한방병원 > 한의원","road_address_name":"경기 군포시 산본로 390","address_name":"경기 군포시 산본동 1099-4","phone":"031-346-5400","REFINE_ZIPNO":"","y":"37.3648401098396","x":"126.929978789645","place_url":"http://place.map.kakao.com/17112866","id":"17112866"},
  {"SIGUN_NM":"군포시","place_name":"이차돌 군포금정역점","INDUTYPE_NM":"음식점 > 한식 > 육류,고기 > 이차돌","road_address_name":"경기 군포시 군포로745번길 8","address_name":"경기 군포시 산본동 265-13","phone":"031-391-9179","REFINE_ZIPNO":"","y":"37.3713800602505","x":"126.942212922221","place_url":"http://place.map.kakao.com/1011191533","id":"1011191533"},
  {"SIGUN_NM":"군포시","place_name":"갓포야키 금정점","INDUTYPE_NM":"음식점 > 술집 > 일본식주점","road_address_name":"경기 군포시 산본천로226번길 11","address_name":"경기 군포시 산본동 266-14","phone":"031-393-1829","REFINE_ZIPNO":"","y":"37.3713740286151","x":"126.942779665959","place_url":"http://place.map.kakao.com/505945242","id":"505945242"},
  {"SIGUN_NM":"군포시","place_name":"천인감자탕","INDUTYPE_NM":"음식점 > 한식 > 감자탕","road_address_name":"경기 군포시 산본로323번길 13","address_name":"경기 군포시 산본동 1142-12","phone":"031-393-3443","REFINE_ZIPNO":"","y":"37.35886607674","x":"126.93269791496","place_url":"http://place.map.kakao.com/24663690","id":"24663690"},

  {"SIGUN_NM":"군포시","place_name":"열린세계로약국","INDUTYPE_NM":"의료,건강 > 약국","road_address_name":"경기 군포시 군포첨단산업2로 4","address_name":"경기 군포시 부곡동 1248","phone":"031-461-7585","REFINE_ZIPNO":"","y":"37.32582673519788","x":"126.94040647061094","place_url":"http://place.map.kakao.com/803802449","id":"803802449"},
  {"SIGUN_NM":"군포시","place_name":"팀유승민탁구클럽","INDUTYPE_NM":"스포츠,레저 > 탁구 > 탁구장","road_address_name":"경기 군포시 흥안대로27번길 7","address_name":"경기 군포시 금정동 694-5","phone":"031-427-2004","REFINE_ZIPNO":"","y":"37.3672173656612","x":"126.948142840431","place_url":"http://place.map.kakao.com/1307438747","id":"1307438747"},
  {"SIGUN_NM":"군포시","place_name":"크린에이드 백두한양점","INDUTYPE_NM":"가정,생활 > 세탁소 > 크린에이드","road_address_name":"경기 군포시 고산로 571","address_name":"경기 군포시 산본동 1119","phone":"031-399-2340","REFINE_ZIPNO":"","y":"37.364011151243005","x":"126.92553018988245","place_url":"http://place.map.kakao.com/8806051","id":"8806051"},
  {"SIGUN_NM":"군포시","place_name":"유씨티","INDUTYPE_NM":"서비스,산업 > 제조업 > 전기,전자 > 전기자재,부품","road_address_name":"경기 군포시 흥안대로 28","address_name":"경기 군포시 금정동 175-3","phone":"031-451-1493","REFINE_ZIPNO":"","y":"37.366125786338436","x":"126.949213773484","place_url":"http://place.map.kakao.com/16005560","id":"16005560"},
  {"SIGUN_NM":"군포시","place_name":"뚝딱철물장식","INDUTYPE_NM":"가정,생활 > 생활용품점 > 철물점","road_address_name":"경기 군포시 번영로 569","address_name":"경기 군포시 금정동 720-5","phone":"031-427-1379","REFINE_ZIPNO":"","y":"37.36141750140534","x":"126.93880928865006","place_url":"http://place.map.kakao.com/1742706076","id":"1742706076"},
  {"SIGUN_NM":"군포시","place_name":"조상일커피","INDUTYPE_NM":"음식점 > 카페 > 커피전문점","road_address_name":"경기 군포시 산본천로214번길 30","address_name":"경기 군포시 산본동 1028","phone":"031-392-2048","REFINE_ZIPNO":"","y":"37.3699104004864","x":"126.942035676895","place_url":"http://place.map.kakao.com/26796671","id":"26796671"},
  {"SIGUN_NM":"군포시","place_name":"만복순대국 산본점","INDUTYPE_NM":"음식점 > 한식 > 순대","road_address_name":"경기 군포시 산본로386번길 93-1","address_name":"경기 군포시 산본동 207-31","phone":"","REFINE_ZIPNO":"","y":"37.3713650443293","x":"126.935808331069","place_url":"http://place.map.kakao.com/226289341","id":"226289341"},
  {"SIGUN_NM":"군포시","place_name":"노랑강정 산본직영점","INDUTYPE_NM":"음식점 > 간식 > 닭강정","road_address_name":"경기 군포시 산본로323번길 15","address_name":"경기 군포시 산본동 1142-10","phone":"031-399-9192","REFINE_ZIPNO":"","y":"37.3586315545303","x":"126.932251130891","place_url":"http://place.map.kakao.com/27464661","id":"27464661"},
  {"SIGUN_NM":"군포시","place_name":"산본연세안과","INDUTYPE_NM":"의료,건강 > 병원 > 안과","road_address_name":"경기 군포시 산본천로 62","address_name":"경기 군포시 산본동 1123-2","phone":"031-343-3431","REFINE_ZIPNO":"","y":"37.360259592914964","x":"126.9304943899779","place_url":"http://place.map.kakao.com/9803382","id":"9803382"},
  {"SIGUN_NM":"군포시","place_name":"두온시스템","INDUTYPE_NM":"서비스,산업 > 제조업 > 전기,전자","road_address_name":"경기 군포시 공단로 298-29","address_name":"경기 군포시 금정동 689-3","phone":"031-389-6100","REFINE_ZIPNO":"","y":"37.3714729026776","x":"126.946107776334","place_url":"http://place.map.kakao.com/8959001","id":"8959001"},
  {"SIGUN_NM":"군포시","place_name":"호텔파티앤","INDUTYPE_NM":"여행 > 숙박 > 여관,모텔","road_address_name":"경기 군포시 번영로 616","address_name":"경기 군포시 금정동 742-8","phone":"031-459-8486","REFINE_ZIPNO":"","y":"37.363358900779","x":"126.943616580388","place_url":"http://place.map.kakao.com/26099766","id":"26099766"},
  {"SIGUN_NM":"군포시","place_name":"연세코웰이비인후과","INDUTYPE_NM":"의료,건강 > 병원 > 이비인후과","road_address_name":"경기 군포시 산본로323번길 20-17","address_name":"경기 군포시 산본동 1139","phone":"031-399-0015","REFINE_ZIPNO":"","y":"37.35925986615533","x":"126.93120192872539","place_url":"http://place.map.kakao.com/8012639","id":"8012639"},
  {"SIGUN_NM":"군포시","place_name":"부곡사랑빛의원","INDUTYPE_NM":"의료,건강 > 병원 > 일반의원","road_address_name":"경기 군포시 송부로291번안길 3-33","address_name":"경기 군포시 부곡동 1141-1","phone":"031-461-2260","REFINE_ZIPNO":"","y":"37.3219662488162","x":"126.94503748927","place_url":"http://place.map.kakao.com/17802866","id":"17802866"},
  {"SIGUN_NM":"군포시","place_name":"T world 투마이스대리점 본점","INDUTYPE_NM":"서비스,산업 > 정보통신 > SK텔레콤 > SKT대리점","road_address_name":"경기 군포시 광정로 68","address_name":"경기 군포시 산본동 1144-2","phone":"031-393-4011","REFINE_ZIPNO":"","y":"37.3592144302277","x":"126.930543891377","place_url":"http://place.map.kakao.com/8095078","id":"8095078"},
  {"SIGUN_NM":"군포시","place_name":"그랜드동물병원","INDUTYPE_NM":"가정,생활 > 반려동물 > 동물병원","road_address_name":"경기 군포시 군포로 521-1","address_name":"경기 군포시 당동 775-8","phone":"031-453-7582","REFINE_ZIPNO":"","y":"37.3529654062637","x":"126.945236119341","place_url":"http://place.map.kakao.com/9671484","id":"9671484"},

  {"SIGUN_NM":"군포시","place_name":"한국직업능력교육원 군포","INDUTYPE_NM":"교육,학문 > 직업전문교육","road_address_name":"경기 군포시 군포로534번길 19","address_name":"경기 군포시 당동 750-11","phone":"031-397-4474","REFINE_ZIPNO":"","y":"37.3537702448603","x":"126.947714157022","place_url":"http://place.map.kakao.com/14738170","id":"14738170"},
  {"SIGUN_NM":"군포시","place_name":"홍두깨손칼국수","INDUTYPE_NM":"음식점 > 한식 > 국수","road_address_name":"경기 군포시 광정로 70","address_name":"경기 군포시 산본동 1144-1","phone":"031-396-1500","REFINE_ZIPNO":"","y":"37.3594521046836","x":"126.930209552375","place_url":"http://place.map.kakao.com/22047879","id":"22047879"},
  {"SIGUN_NM":"군포시","place_name":"꽃소담","INDUTYPE_NM":"가정,생활 > 꽃집,꽃배달","road_address_name":"경기 군포시 삼성로20번길 8-20","address_name":"경기 군포시 부곡동 1215-6","phone":"031-399-3886","REFINE_ZIPNO":"","y":"37.3369756704659","x":"126.934477829052","place_url":"http://place.map.kakao.com/27487650","id":"27487650"},
  {"SIGUN_NM":"군포시","place_name":"인카","INDUTYPE_NM":"교통,수송 > 자동차 > 카인테리어","road_address_name":"경기 군포시 당정역로 92","address_name":"경기 군포시 당정동 1010-1","phone":"070-4207-8787","REFINE_ZIPNO":"","y":"37.3443784450713","x":"126.948921455371","place_url":"http://place.map.kakao.com/14973006","id":"14973006"},
  {"SIGUN_NM":"군포시","place_name":"한성GT 본사","INDUTYPE_NM":"서비스,산업 > 제조업 > 산업용품 > 공구,공작기계","road_address_name":"경기 군포시 고래들길 48","address_name":"경기 군포시 당정동 91-10","phone":"031-428-8200","REFINE_ZIPNO":"","y":"37.3576172950659","x":"126.960818607196","place_url":"http://place.map.kakao.com/492850790","id":"492850790"},
  {"SIGUN_NM":"군포시","place_name":"오월한의원","INDUTYPE_NM":"의료,건강 > 병원 > 한방병원 > 한의원","road_address_name":"경기 군포시 번영로 497","address_name":"경기 군포시 산본동 1142-5","phone":"031-396-7573","REFINE_ZIPNO":"","y":"37.35833242645439","x":"126.93227397510341","place_url":"http://place.map.kakao.com/27571666","id":"27571666"},
  {"SIGUN_NM":"군포시","place_name":"온누리예치과의원","INDUTYPE_NM":"의료,건강 > 병원 > 치과","road_address_name":"경기 군포시 금산로 94","address_name":"경기 군포시 산본동 216-21","phone":"031-393-4048","REFINE_ZIPNO":"","y":"37.370401664559","x":"126.937144697121","place_url":"http://place.map.kakao.com/16096785","id":"16096785"},
  {"SIGUN_NM":"군포시","place_name":"당정회센타","INDUTYPE_NM":"음식점 > 한식 > 해물,생선 > 회","road_address_name":"경기 군포시 한세로4번길 10","address_name":"경기 군포시 당정동 1007-5","phone":"031-427-7152","REFINE_ZIPNO":"","y":"37.3451031324128","x":"126.949525877475","place_url":"http://place.map.kakao.com/1649317893","id":"1649317893"},
  {"SIGUN_NM":"군포시","place_name":"산본문구","INDUTYPE_NM":"가정,생활 > 문구,사무용품","road_address_name":"경기 군포시 산본로323번길 16-15","address_name":"경기 군포시 산본동 1135","phone":"031-391-7188","REFINE_ZIPNO":"","y":"37.3594168576477","x":"126.931568639954","place_url":"http://place.map.kakao.com/16167967","id":"16167967"},
  {"SIGUN_NM":"군포시","place_name":"투썸플레이스 군포당동점","INDUTYPE_NM":"음식점 > 카페 > 커피전문점 > 투썸플레이스","road_address_name":"경기 군포시 용호2로 63-8","address_name":"경기 군포시 당동 871-3","phone":"031-391-0373","REFINE_ZIPNO":"","y":"37.34606468952341","x":"126.94387780273037","place_url":"http://place.map.kakao.com/1524749191","id":"1524749191"},
  {"SIGUN_NM":"군포시","place_name":"연세항맥외과의원","INDUTYPE_NM":"의료,건강 > 병원 > 외과","road_address_name":"경기 군포시 군포로 470","address_name":"경기 군포시 당동 904-4","phone":"031-393-3305","REFINE_ZIPNO":"","y":"37.34816237656112","x":"126.9440692345296","place_url":"http://place.map.kakao.com/10645492","id":"10645492"},
  {"SIGUN_NM":"군포시","place_name":"약초약국","INDUTYPE_NM":"의료,건강 > 약국","road_address_name":"경기 군포시 군포로 567","address_name":"경기 군포시 당동 732-13","phone":"031-458-9962","REFINE_ZIPNO":"","y":"37.35660897907748","x":"126.9468046800421","place_url":"http://place.map.kakao.com/13522296","id":"13522296"},
  {"SIGUN_NM":"군포시","place_name":"햇살고시텔","INDUTYPE_NM":"부동산 > 주거시설 > 고시원,고시텔","road_address_name":"경기 군포시 번영로 585","address_name":"경기 군포시 금정동 721-15","phone":"031-346-2002","REFINE_ZIPNO":"","y":"37.362301355521","x":"126.940470203504","place_url":"http://place.map.kakao.com/20630836","id":"20630836"},
  {"SIGUN_NM":"군포시","place_name":"개성손만두요리전문점 군포점","INDUTYPE_NM":"음식점 > 분식","road_address_name":"경기 군포시 고산로 246","address_name":"경기 군포시 당동 922-28","phone":"031-391-3535","REFINE_ZIPNO":"","y":"37.34623923071965","x":"126.94524890476451","place_url":"http://place.map.kakao.com/373197347","id":"373197347"},
  {"SIGUN_NM":"군포시","place_name":"정통집 금정역점","INDUTYPE_NM":"음식점 > 한식 > 육류,고기","road_address_name":"경기 군포시 산본천로226번길 32","address_name":"경기 군포시 산본동 248-2","phone":"031-393-9955","REFINE_ZIPNO":"","y":"37.3705136327982","x":"126.94295304871","place_url":"http://place.map.kakao.com/270048574","id":"270048574"},

  {"SIGUN_NM":"군포시","place_name":"수정대중사우나","INDUTYPE_NM":"가정,생활 > 목욕탕,사우나","road_address_name":"경기 군포시 군포로 494","address_name":"경기 군포시 당동 898","phone":"031-477-3866","REFINE_ZIPNO":"","y":"37.3503702346845","x":"126.944786545327","place_url":"http://place.map.kakao.com/9156605","id":"9156605"},
  {"SIGUN_NM":"군포시","place_name":"조이분식","INDUTYPE_NM":"음식점 > 분식","road_address_name":"경기 군포시 고산로 695","address_name":"경기 군포시 산본동 1060","phone":"","REFINE_ZIPNO":"","y":"37.3720909672173","x":"126.935251128798","place_url":"http://place.map.kakao.com/2027216206","id":"2027216206"},
  {"SIGUN_NM":"군포시","place_name":"금정자동차서비스","INDUTYPE_NM":"교통,수송 > 자동차 > 자동차정비","road_address_name":"경기 군포시 공단로 177","address_name":"경기 군포시 금정동 214-2","phone":"031-429-5511","REFINE_ZIPNO":"","y":"37.3612313438263","x":"126.949063553692","place_url":"http://place.map.kakao.com/13327192","id":"13327192"},
  {"SIGUN_NM":"군포시","place_name":"커피빈 산본역점","INDUTYPE_NM":"음식점 > 카페 > 커피전문점 > 커피빈","road_address_name":"경기 군포시 광정로 58","address_name":"경기 군포시 산본동 1143-3","phone":"031-399-8812","REFINE_ZIPNO":"","y":"37.3583929288344","x":"126.930946489755","place_url":"http://place.map.kakao.com/2013869022","id":"2013869022"},
  {"SIGUN_NM":"군포시","place_name":"쓰리고갈비살","INDUTYPE_NM":"음식점 > 한식 > 육류,고기 > 갈비","road_address_name":"경기 군포시 산본로323번길 26-6","address_name":"경기 군포시 산본동 1140-3","phone":"031-392-6868","REFINE_ZIPNO":"","y":"37.358811173736","x":"126.931235072739","place_url":"http://place.map.kakao.com/14517941","id":"14517941"},


  {"SIGUN_NM":"군포시","place_name":"유화정밀","INDUTYPE_NM":"서비스,산업 > 제조업 > 산업용품 > 공구,공작기계","road_address_name":"경기 군포시 엘에스로182번길 34-25","address_name":"경기 군포시 산본동 1","phone":"031-458-5884","REFINE_ZIPNO":"","y":"37.3782645391184","x":"126.941695044771","place_url":"http://place.map.kakao.com/25834368","id":"25834368"},
  {"SIGUN_NM":"군포시","place_name":"백산크레인모터스","INDUTYPE_NM":"서비스,산업 > 건설,건축 > 건설자재 > 건설기계","road_address_name":"경기 군포시 엘에스로182번길 28-6","address_name":"경기 군포시 산본동 1-20","phone":"031-454-2629","REFINE_ZIPNO":"","y":"37.3780163245537","x":"126.94265268143","place_url":"http://place.map.kakao.com/10391703","id":"10391703"},
  {"SIGUN_NM":"군포시","place_name":"명성모터스","INDUTYPE_NM":"교통,수송 > 자동차 > 자동차정비","road_address_name":"경기 군포시 엘에스로182번길 28-2","address_name":"경기 군포시 산본1동 18-25","phone":"031-477-3100","REFINE_ZIPNO":"","y":"37.3779659655631","x":"126.942855950785","place_url":"http://place.map.kakao.com/9025431","id":"9025431"},
  {"SIGUN_NM":"군포시","place_name":"성우산업","INDUTYPE_NM":"서비스,산업 > 제조업","road_address_name":"경기 군포시 엘에스로182번길 26","address_name":"경기 군포시 산본동 18-27","phone":"031-458-4074","REFINE_ZIPNO":"","y":"37.3777930973357","x":"126.943122539765","place_url":"http://place.map.kakao.com/16392023","id":"16392023"},
  {"SIGUN_NM":"군포시","place_name":"알파웰","INDUTYPE_NM":"서비스,산업 > 제조업 > 산업용품 > 공구,공작기계","road_address_name":"경기 군포시 엘에스로182번길 26","address_name":"경기 군포시 산본동 18-27","phone":"031-429-0700","REFINE_ZIPNO":"","y":"37.3777786787739","x":"126.943118034419","place_url":"http://place.map.kakao.com/83322116","id":"83322116"},
  {"SIGUN_NM":"군포시","place_name":"알리코","INDUTYPE_NM":"서비스,산업 > 인쇄,복사","road_address_name":"경기 군포시 엘에스로182번길 22","address_name":"경기 군포시 산본동 18-1","phone":"031-427-4071","REFINE_ZIPNO":"","y":"37.3775985952675","x":"126.94337107889","place_url":"http://place.map.kakao.com/9893749","id":"9893749"},
  {"SIGUN_NM":"군포시","place_name":"황금밥상한식부페","INDUTYPE_NM":"음식점 > 뷔페 > 한식뷔페","road_address_name":"경기 군포시 엘에스로182번길 18","address_name":"경기 군포시 산본동 18-39","phone":"","REFINE_ZIPNO":"","y":"37.37716438839345","x":"126.94355318225911","place_url":"http://place.map.kakao.com/89997960","id":"89997960"},
  {"SIGUN_NM":"군포시","place_name":"하백기술","INDUTYPE_NM":"서비스,산업 > 제조업 > 전기,전자 > 전기자재,부품","road_address_name":"경기 군포시 엘에스로182번길 7","address_name":"경기 군포시 산본동 18-17","phone":"031-712-6588","REFINE_ZIPNO":"","y":"37.3765679613143","x":"126.943660888047","place_url":"http://place.map.kakao.com/23356840","id":"23356840"},
  {"SIGUN_NM":"군포시","place_name":"우스타","INDUTYPE_NM":"가정,생활 > 통신판매 > 인터넷쇼핑몰","road_address_name":"경기 군포시 엘에스로182번길 13","address_name":"경기 군포시 산본1동 18-16","phone":"031-477-4377","REFINE_ZIPNO":"","y":"37.3767444910353","x":"126.943511722348","place_url":"http://place.map.kakao.com/11071003","id":"11071003"},
  {"SIGUN_NM":"군포시","place_name":"제이메디테크","INDUTYPE_NM":"의료,건강 > 의료기기판매","road_address_name":"경기 군포시 엘에스로182번길 13","address_name":"경기 군포시 산본동 18-16","phone":"031-427-6861","REFINE_ZIPNO":"","y":"37.3767192494032","x":"126.943484644259","place_url":"http://place.map.kakao.com/18937750","id":"18937750"},
  {"SIGUN_NM":"군포시","place_name":"유진식당","INDUTYPE_NM":"음식점 > 한식","road_address_name":"경기 군포시 엘에스로182번길 17-10","address_name":"경기 군포시 산본동 18-13","phone":"031-427-8956","REFINE_ZIPNO":"","y":"37.3769279898122","x":"126.942865770638","place_url":"http://place.map.kakao.com/9332897","id":"9332897"},
  {"SIGUN_NM":"군포시","place_name":"오피스마켓","INDUTYPE_NM":"가정,생활 > 중고용품 > 중고가전","road_address_name":"경기 군포시 엘에스로182번길 3-15","address_name":"경기 군포시 산본동 18-14","phone":"031-477-1542","REFINE_ZIPNO":"","y":"37.3767728889613","x":"126.942608466418","place_url":"http://place.map.kakao.com/2053639143","id":"2053639143"},
  {"SIGUN_NM":"군포시","place_name":"효성큐비클","INDUTYPE_NM":"서비스,산업 > 건설,건축 > 시공업체","road_address_name":"경기 군포시 엘에스로182번길 3-15","address_name":"경기 군포시 산본동 18-14","phone":"1661-2098","REFINE_ZIPNO":"","y":"37.3767620766672","x":"126.942608474656","place_url":"http://place.map.kakao.com/18143063","id":"18143063"},
  {"SIGUN_NM":"군포시","place_name":"메디엔인터내셔날","INDUTYPE_NM":"의료,건강 > 의료기기판매","road_address_name":"경기 군포시 엘에스로 196","address_name":"경기 군포시 산본동 18-11","phone":"031-451-9466","REFINE_ZIPNO":"","y":"37.377165764107865","x":"126.94266687762101","place_url":"http://place.map.kakao.com/17390462","id":"17390462"},
  {"SIGUN_NM":"군포시","place_name":"참메드","INDUTYPE_NM":"의료,건강 > 의료기기판매","road_address_name":"경기 군포시 엘에스로182번길 31","address_name":"경기 군포시 산본동 18-8","phone":"031-429-8240","REFINE_ZIPNO":"","y":"37.3775081643317","x":"126.942689198075","place_url":"http://place.map.kakao.com/8483036","id":"8483036"},
  {"SIGUN_NM":"군포시","place_name":"금강모터스 1급공업사","INDUTYPE_NM":"교통,수송 > 자동차 > 자동차정비","road_address_name":"경기 군포시 엘에스로182번길 35","address_name":"경기 군포시 산본동 18-10","phone":"031-456-8737","REFINE_ZIPNO":"","y":"37.3772771917934","x":"126.942052589143","place_url":"http://place.map.kakao.com/8739692","id":"8739692"},
  {"SIGUN_NM":"군포시","place_name":"배스킨라빈스 산본이마트점","INDUTYPE_NM":"음식점 > 간식 > 아이스크림 > 배스킨라빈스","road_address_name":"경기 군포시 산본로 347","address_name":"경기 군포시 산본동 1123","phone":"031-396-3155","REFINE_ZIPNO":"","y":"37.3612476211877","x":"126.931354761252","place_url":"http://place.map.kakao.com/7892977","id":"7892977"},
  {"SIGUN_NM":"군포시","place_name":"스쿨푸드 산본이마트점","INDUTYPE_NM":"음식점 > 분식 > 스쿨푸드","road_address_name":"경기 군포시 산본로 347","address_name":"경기 군포시 산본동 1123","phone":"070-8851-0982","REFINE_ZIPNO":"","y":"37.3611215638283","x":"126.93150387882","place_url":"http://place.map.kakao.com/19616216","id":"19616216"},
  {"SIGUN_NM":"군포시","place_name":"라이스페이포 산본점","INDUTYPE_NM":"음식점 > 아시아음식 > 동남아음식","road_address_name":"경기 군포시 산본로 341","address_name":"경기 군포시 산본동 1125","phone":"031-399-7278","REFINE_ZIPNO":"","y":"37.3609274692758","x":"126.932420645538","place_url":"http://place.map.kakao.com/21292884","id":"21292884"},
  {"SIGUN_NM":"군포시","place_name":"튼튼영어 베이비리그 경기군포산본센터","INDUTYPE_NM":"교육,학문 > 유아교육","road_address_name":"경기 군포시 산본로 341","address_name":"경기 군포시 산본동 1125","phone":"031-393-7517","REFINE_ZIPNO":"","y":"37.360884196768","x":"126.932380047354","place_url":"http://place.map.kakao.com/1776520432","id":"1776520432"},
  {"SIGUN_NM":"군포시","place_name":"다우정보통신","INDUTYPE_NM":"서비스,산업 > 정보통신","road_address_name":"경기 군포시 산본로 341","address_name":"경기 군포시 산본동 1125","phone":"070-7019-3052","REFINE_ZIPNO":"","y":"37.3608661813949","x":"126.932389093957","place_url":"http://place.map.kakao.com/15177024","id":"15177024"},
  {"SIGUN_NM":"군포시","place_name":"닐리 산본점","INDUTYPE_NM":"음식점 > 양식 > 이탈리안 > 닐리","road_address_name":"경기 군포시 산본로 341","address_name":"경기 군포시 산본동 1125","phone":"031-396-9966","REFINE_ZIPNO":"","y":"37.3608446392513","x":"126.932533600267","place_url":"http://place.map.kakao.com/11325449","id":"11325449"},
  {"SIGUN_NM":"군포시","place_name":"짬뽕데이 산본점","INDUTYPE_NM":"음식점 > 중식 > 중화요리","road_address_name":"경기 군포시 산본로 341","address_name":"경기 군포시 산본동 1125","phone":"031-392-3922","REFINE_ZIPNO":"","y":"37.3608210874495","x":"126.932314633333","place_url":"http://place.map.kakao.com/551889646","id":"551889646"},
  {"SIGUN_NM":"군포시","place_name":"세무사김정수","INDUTYPE_NM":"금융,보험 > 세무,회계 > 세무사사무소","road_address_name":"경기 군포시 산본로 339","address_name":"경기 군포시 광정동 1125-2","phone":"031-399-5550","REFINE_ZIPNO":"","y":"37.3606212155009","x":"126.932587982732","place_url":"http://place.map.kakao.com/16631304","id":"16631304"},
  {"SIGUN_NM":"군포시","place_name":"메디파스","INDUTYPE_NM":"서비스,산업 > 제조업 > 산업용품","road_address_name":"경기 군포시 산본로 339","address_name":"경기 군포시 산본동 1125-2","phone":"031-394-2340","REFINE_ZIPNO":"","y":"37.3606176113937","x":"126.932587985955","place_url":"http://place.map.kakao.com/11064303","id":"11064303"},
  {"SIGUN_NM":"군포시","place_name":"남궁훈영어","INDUTYPE_NM":"교육,학문 > 학원 > 어학원 > 영어학원","road_address_name":"경기 군포시 산본로 339","address_name":"경기 군포시 산본동 1125-2","phone":"","REFINE_ZIPNO":"","y":"37.3606104031793","x":"126.932587992403","place_url":"http://place.map.kakao.com/22513457","id":"22513457"},
  {"SIGUN_NM":"군포시","place_name":"문태연세무회계사무소","INDUTYPE_NM":"금융,보험 > 세무,회계","road_address_name":"경기 군포시 산본로 339","address_name":"경기 군포시 산본동 1125-2","phone":"031-392-7474","REFINE_ZIPNO":"","y":"37.3606067990721","x":"126.932587995627","place_url":"http://place.map.kakao.com/1483610743","id":"1483610743"},
  {"SIGUN_NM":"군포시","place_name":"고은한의원","INDUTYPE_NM":"의료,건강 > 병원 > 한방병원 > 한의원","road_address_name":"경기 군포시 산본로 329","address_name":"경기 군포시 산본동 1126","phone":"031-391-0075","REFINE_ZIPNO":"","y":"37.36010788154799","x":"126.93303092894857","place_url":"http://place.map.kakao.com/1683423061","id":"1683423061"},
  {"SIGUN_NM":"군포시","place_name":"사주카페","INDUTYPE_NM":"음식점 > 카페 > 테마카페 > 사주카페","road_address_name":"경기 군포시 산본로 329","address_name":"경기 군포시 산본동 1126","phone":"031-393-5171","REFINE_ZIPNO":"","y":"37.3600232003548","x":"126.933058095208","place_url":"http://place.map.kakao.com/8386147","id":"8386147"},
  {"SIGUN_NM":"군포시","place_name":"블루노트 실용음악학원","INDUTYPE_NM":"교육,학문 > 학원 > 음악학원 > 실용음악학원","road_address_name":"경기 군포시 산본로 329","address_name":"경기 군포시 광정동 1126","phone":"031-399-9993","REFINE_ZIPNO":"","y":"37.3600159946948","x":"126.933062616776","place_url":"http://place.map.kakao.com/15274954","id":"15274954"},
  {"SIGUN_NM":"군포시","place_name":"모로미 산본점","INDUTYPE_NM":"음식점 > 술집 > 일본식주점 > 모로미","road_address_name":"경기 군포시 산본로 329","address_name":"경기 군포시 산본동 1126","phone":"031-689-5766","REFINE_ZIPNO":"","y":"37.3599979792666","x":"126.933071663112","place_url":"http://place.map.kakao.com/26881477","id":"26881477"},
  {"SIGUN_NM":"군포시","place_name":"꼬마이패밀리치과","INDUTYPE_NM":"의료,건강 > 병원 > 치과","road_address_name":"경기 군포시 산본로 329","address_name":"경기 군포시 산본동 1126","phone":"1566-8683","REFINE_ZIPNO":"","y":"37.3600052002533","x":"126.933094232539","place_url":"http://place.map.kakao.com/13525046","id":"13525046"},
  {"SIGUN_NM":"군포시","place_name":"법무사윤재진사무소","INDUTYPE_NM":"서비스,산업 > 법률,행정 > 법무사","road_address_name":"경기 군포시 산본로 329","address_name":"경기 군포시 산본동 1126","phone":"031-396-7500","REFINE_ZIPNO":"","y":"37.36001871182581","x":"126.9330874477917","place_url":"http://place.map.kakao.com/1984462491","id":"1984462491"},
  {"SIGUN_NM":"군포시","place_name":"우림세무회계사무소","INDUTYPE_NM":"금융,보험 > 세무,회계 > 회계사사무소","road_address_name":"경기 군포시 산본로 329","address_name":"경기 군포시 산본동 1126","phone":"","REFINE_ZIPNO":"","y":"37.3600232233451","x":"126.933098731709","place_url":"http://place.map.kakao.com/8019902","id":"8019902"},
  {"SIGUN_NM":"군포시","place_name":"한스타일모","INDUTYPE_NM":"가정,생활 > 미용 > 가발","road_address_name":"경기 군포시 산본로 329","address_name":"경기 군포시 산본동 1126","phone":"031-392-2323","REFINE_ZIPNO":"","y":"37.3600268274527","x":"126.93309872851","place_url":"http://place.map.kakao.com/26540766","id":"26540766"},
  {"SIGUN_NM":"군포시","place_name":"여우비뷰티","INDUTYPE_NM":"가정,생활 > 미용","road_address_name":"경기 군포시 산본로343번길 7","address_name":"경기 군포시 산본동 1132","phone":"010-4934-8890","REFINE_ZIPNO":"","y":"37.3607397994817","x":"126.931973807833","place_url":"http://place.map.kakao.com/1944674033","id":"1944674033"},
  {"SIGUN_NM":"군포시","place_name":"아이유","INDUTYPE_NM":"가정,생활 > 미용","road_address_name":"경기 군포시 산본로343번길 7","address_name":"경기 군포시 산본동 1132","phone":"010-8811-0599","REFINE_ZIPNO":"","y":"37.3607398020783","x":"126.931978323042","place_url":"http://place.map.kakao.com/1409461795","id":"1409461795"},
  {"SIGUN_NM":"군포시","place_name":"김홍수수학학원","INDUTYPE_NM":"교육,학문 > 학원 > 입시학원","road_address_name":"경기 군포시 산본로343번길 7","address_name":"경기 군포시 산본동 1132","phone":"031-395-7100","REFINE_ZIPNO":"","y":"37.3607289897571","x":"126.931978332801","place_url":"http://place.map.kakao.com/24872539","id":"24872539"},
  {"SIGUN_NM":"군포시","place_name":"대한논리속독학원","INDUTYPE_NM":"교육,학문 > 학원","road_address_name":"경기 군포시 산본로343번길 7","address_name":"경기 군포시 산본동 1132","phone":"031-396-0890","REFINE_ZIPNO":"","y":"37.3607253830534","x":"126.931973820845","place_url":"http://place.map.kakao.com/8288579","id":"8288579"},
  {"SIGUN_NM":"군포시","place_name":"산본나란이치과의원","INDUTYPE_NM":"의료,건강 > 병원 > 치과","road_address_name":"경기 군포시 산본로343번길 9","address_name":"경기 군포시 산본동 1132-3","phone":"031-392-2875","REFINE_ZIPNO":"","y":"37.3606171297907","x":"126.931748158324","place_url":"http://place.map.kakao.com/23664912","id":"23664912"},
  {"SIGUN_NM":"군포시","place_name":"경희 모던실용음악학원","INDUTYPE_NM":"교육,학문 > 학원 > 음악학원 > 실용음악학원","road_address_name":"경기 군포시 산본로343번길 9","address_name":"경기 군포시 산본동 1132-3","phone":"031-392-9009","REFINE_ZIPNO":"","y":"37.3606135308938","x":"126.931757191992","place_url":"http://place.map.kakao.com/10167139","id":"10167139"},
  {"SIGUN_NM":"군포시","place_name":"애니포스만화학원 산본점","INDUTYPE_NM":"교육,학문 > 학원 > 미술학원","road_address_name":"경기 군포시 산본로343번길 9","address_name":"경기 군포시 산본동 1132-3","phone":"031-391-5575","REFINE_ZIPNO":"","y":"37.3606099137598","x":"126.931734619247","place_url":"http://place.map.kakao.com/27345094","id":"27345094"},
  {"SIGUN_NM":"군포시","place_name":"비에이블스터디카페 산본센터","INDUTYPE_NM":"서비스,산업 > 전문대행 > 공간대여 > 스터디카페,스터디룸","road_address_name":"경기 군포시 산본로343번길 9","address_name":"경기 군포시 산본동 1132-3","phone":"","REFINE_ZIPNO":"","y":"37.3606063148639","x":"126.931743652914","place_url":"http://place.map.kakao.com/454211303","id":"454211303"},
  {"SIGUN_NM":"군포시","place_name":"펜톤미술학원 산본캠퍼스","INDUTYPE_NM":"교육,학문 > 학원 > 미술학원","road_address_name":"경기 군포시 산본로343번길 9","address_name":"경기 군포시 산본동 1132-3","phone":"031-393-5575","REFINE_ZIPNO":"","y":"37.36060087872898","x":"126.93169173299567","place_url":"http://place.map.kakao.com/18769325","id":"18769325"},
  {"SIGUN_NM":"군포시","place_name":"마산아구찜","INDUTYPE_NM":"음식점 > 한식 > 해물,생선 > 아구","road_address_name":"경기 군포시 산본로343번길 9","address_name":"경기 군포시 산본동 1132-3","phone":"031-393-5955","REFINE_ZIPNO":"","y":"37.36055763791639","x":"126.93170644659048","place_url":"http://place.map.kakao.com/1161940895","id":"1161940895"},
  {"SIGUN_NM":"군포시","place_name":"갈비도둑","INDUTYPE_NM":"음식점 > 한식 > 육류,고기 > 갈비","road_address_name":"경기 군포시 산본로323번길 10-34","address_name":"경기 군포시 산본동 1132-2","phone":"","REFINE_ZIPNO":"","y":"37.3604730409842","x":"126.931879229495","place_url":"http://place.map.kakao.com/1085559016","id":"1085559016"},
  {"SIGUN_NM":"군포시","place_name":"오르다코리아 군포의왕지사","INDUTYPE_NM":"교육,학문 > 학습교재","road_address_name":"경기 군포시 산본로323번길 10-34","address_name":"경기 군포시 산본동 1132-2","phone":"031-391-8333","REFINE_ZIPNO":"","y":"37.3604622234615","x":"126.931870208882","place_url":"http://place.map.kakao.com/8453193","id":"8453193"},
  {"SIGUN_NM":"군포시","place_name":"깔레소나무장작구이 산본점","INDUTYPE_NM":"음식점 > 한식 > 육류,고기","road_address_name":"경기 군포시 산본로323번길 10-34","address_name":"경기 군포시 산본동 1132-2","phone":"031-395-9504","REFINE_ZIPNO":"","y":"37.3604442133264","x":"126.93188828594","place_url":"http://place.map.kakao.com/549512103","id":"549512103"},
  {"SIGUN_NM":"군포시","place_name":"내맘에쏙눈썹","INDUTYPE_NM":"가정,생활 > 미용","road_address_name":"경기 군포시 산본로323번길 4-25","address_name":"경기 군포시 산본동 1131","phone":"","REFINE_ZIPNO":"","y":"37.3603939658535","x":"126.932254061842","place_url":"http://place.map.kakao.com/2089524079","id":"2089524079"},
  {"SIGUN_NM":"군포시","place_name":"송탄부대찌개 오삼철판구이","INDUTYPE_NM":"음식점 > 한식 > 찌개,전골","road_address_name":"경기 군포시 산본로323번길 4-25","address_name":"경기 군포시 산본동 1131","phone":"031-393-0126","REFINE_ZIPNO":"","y":"37.36041112413336","x":"126.93232177430345","place_url":"http://place.map.kakao.com/9307173","id":"9307173"},
  {"SIGUN_NM":"군포시","place_name":"짬모텔","INDUTYPE_NM":"여행 > 숙박 > 여관,모텔","road_address_name":"경기 군포시 산본로323번길 10-26","address_name":"경기 군포시 산본동 1131-3","phone":"031-399-1000","REFINE_ZIPNO":"","y":"37.3602857105253","x":"126.932023884727","place_url":"http://place.map.kakao.com/25815138","id":"25815138"},
  {"SIGUN_NM":"군포시","place_name":"레인보우마카롱 산본로데오점","INDUTYPE_NM":"음식점 > 간식 > 제과,베이커리","road_address_name":"경기 군포시 산본로323번길 10-22","address_name":"경기 군포시 산본동 1131-2","phone":"031-393-7661","REFINE_ZIPNO":"","y":"37.3600686097301","x":"126.932105353629","place_url":"http://place.map.kakao.com/1551952762","id":"1551952762"},
  {"SIGUN_NM":"군포시","place_name":"찬란한헤어 산본점","INDUTYPE_NM":"가정,생활 > 미용 > 미용실","road_address_name":"경기 군포시 산본로323번길 10-22","address_name":"경기 군포시 산본동 1131-2","phone":"031-393-7093","REFINE_ZIPNO":"","y":"37.3601217916906","x":"126.932142555913","place_url":"http://place.map.kakao.com/932229984","id":"932229984"},
  {"SIGUN_NM":"군포시","place_name":"바디플레이스","INDUTYPE_NM":"가정,생활 > 미용 > 피부관리","road_address_name":"경기 군포시 산본로323번길 10-22","address_name":"경기 군포시 산본동 1131-2","phone":"070-4137-3566","REFINE_ZIPNO":"","y":"37.3601308064918","x":"126.932150449354","place_url":"http://place.map.kakao.com/19977592","id":"19977592"},
  {"SIGUN_NM":"군포시","place_name":"신동승치과의원","INDUTYPE_NM":"의료,건강 > 병원 > 치과","road_address_name":"경기 군포시 산본로323번길 10-22","address_name":"경기 군포시 산본동 1131-2","phone":"031-394-8125","REFINE_ZIPNO":"","y":"37.3601416188142","x":"126.93215043962","place_url":"http://place.map.kakao.com/10520514","id":"10520514"},
  {"SIGUN_NM":"군포시","place_name":"지아르","INDUTYPE_NM":"가정,생활 > 패션 > 의류판매","road_address_name":"경기 군포시 산본로323번길 10-22","address_name":"경기 군포시 산본동 1131-2","phone":"031-399-5497","REFINE_ZIPNO":"","y":"37.3601488192586","x":"126.932136887608","place_url":"http://place.map.kakao.com/21223318","id":"21223318"},
  {"SIGUN_NM":"군포시","place_name":"등촌샤브칼국수 산본점","INDUTYPE_NM":"음식점 > 샤브샤브 > 등촌샤브샤브칼국수","road_address_name":"경기 군포시 산본로323번길 10-22","address_name":"경기 군포시 산본동 1131-2","phone":"031-393-9522","REFINE_ZIPNO":"","y":"37.360156032654","x":"126.932145911467","place_url":"http://place.map.kakao.com/13107831","id":"13107831"},
  {"SIGUN_NM":"군포시","place_name":"새론세무법인","INDUTYPE_NM":"금융,보험 > 세무,회계 > 세무사사무소","road_address_name":"경기 군포시 산본로323번길 4-21","address_name":"경기 군포시 산본동 1131-1","phone":"031-394-0232","REFINE_ZIPNO":"","y":"37.3602462646285","x":"126.932371589351","place_url":"http://place.map.kakao.com/7924282","id":"7924282"},
  {"SIGUN_NM":"군포시","place_name":"스타일래쉬","INDUTYPE_NM":"가정,생활 > 미용","road_address_name":"경기 군포시 산본로323번길 4-21","address_name":"경기 군포시 산본동 1131-1","phone":"","REFINE_ZIPNO":"","y":"37.3602498687359","x":"126.932371586117","place_url":"http://place.map.kakao.com/712267774","id":"712267774"},
  {"SIGUN_NM":"군포시","place_name":"현문학원","INDUTYPE_NM":"교육,학문 > 학원","road_address_name":"경기 군포시 산본로323번길 4-21","address_name":"경기 군포시 산본동 1131-1","phone":"031-393-8285","REFINE_ZIPNO":"","y":"37.3602570846944","x":"126.932385125191","place_url":"http://place.map.kakao.com/11360397","id":"11360397"},
  {"SIGUN_NM":"군포시","place_name":"늘푸른영수전문학원","INDUTYPE_NM":"교육,학문 > 학원 > 입시학원","road_address_name":"경기 군포시 산본로323번길 4-21","address_name":"경기 군포시 산본동 1131-1","phone":"031-391-1917","REFINE_ZIPNO":"","y":"37.3602570872753","x":"126.932389640372","place_url":"http://place.map.kakao.com/15692725","id":"15692725"},
  {"SIGUN_NM":"군포시","place_name":"더참맛수육국밥&족발 산본점","INDUTYPE_NM":"음식점 > 한식 > 국밥","road_address_name":"경기 군포시 산본로323번길 4-21","address_name":"경기 군포시 산본동 1131-1","phone":"","REFINE_ZIPNO":"","y":"37.3602570924365","x":"126.932398670733","place_url":"http://place.map.kakao.com/1804861282","id":"1804861282"},
  {"SIGUN_NM":"군포시","place_name":"수재학원","INDUTYPE_NM":"교육,학문 > 학원","road_address_name":"경기 군포시 산본로323번길 4-21","address_name":"경기 군포시 산본동 1131-1","phone":"031-399-5004","REFINE_ZIPNO":"","y":"37.3602751000691","x":"126.932376078661","place_url":"http://place.map.kakao.com/10438660","id":"10438660"},
  {"SIGUN_NM":"군포시","place_name":"박종혁수학전문학원","INDUTYPE_NM":"교육,학문 > 학원","road_address_name":"경기 군포시 산본로323번길 4-21","address_name":"경기 군포시 산본동 1131-1","phone":"031-393-8283","REFINE_ZIPNO":"","y":"37.3602787093388","x":"126.932385105791","place_url":"http://place.map.kakao.com/10397111","id":"10397111"},
  {"SIGUN_NM":"군포시","place_name":"이삭토스트 군포산본점","INDUTYPE_NM":"음식점 > 간식 > 토스트 > 이삭토스트","road_address_name":"경기 군포시 산본로323번길 4-21","address_name":"경기 군포시 산본동 1131-1","phone":"031-391-3239","REFINE_ZIPNO":"","y":"37.3602715346619","x":"126.932443809619","place_url":"http://place.map.kakao.com/10753656","id":"10753656"},
  {"SIGUN_NM":"군포시","place_name":"바125","INDUTYPE_NM":"음식점 > 술집","road_address_name":"경기 군포시 산본로323번길 4-21","address_name":"경기 군포시 산본동 1131-1","phone":"031-342-1255","REFINE_ZIPNO":"","y":"37.3602751523052","x":"126.932467511093","place_url":"http://place.map.kakao.com/656467437","id":"656467437"},
  {"SIGUN_NM":"군포시","place_name":"월드종합조경","INDUTYPE_NM":"서비스,산업 > 건설,건축 > 시공업체 > 조경시공","road_address_name":"경기 군포시 산본로323번길 10-18","address_name":"경기 군포시 산본동 1130-3","phone":"031-395-6135","REFINE_ZIPNO":"","y":"37.3598966610364","x":"126.932362872732","place_url":"http://place.map.kakao.com/16169952","id":"16169952"},
  {"SIGUN_NM":"군포시","place_name":"박홍근세무회계","INDUTYPE_NM":"금융,보험 > 세무,회계 > 회계사사무소","road_address_name":"경기 군포시 산본로323번길 4-17","address_name":"경기 군포시 산본동 1130","phone":"031-395-2456","REFINE_ZIPNO":"","y":"37.36010586158637","x":"126.93264714095173","place_url":"http://place.map.kakao.com/10411646","id":"10411646"},
  {"SIGUN_NM":"군포시","place_name":"거부기식당","INDUTYPE_NM":"음식점 > 한식","road_address_name":"경기 군포시 산본로323번길 4-17","address_name":"경기 군포시 산본동 1130","phone":"","REFINE_ZIPNO":"","y":"37.360030172757","x":"126.932642693422","place_url":"http://place.map.kakao.com/293818683","id":"293818683"},
  {"SIGUN_NM":"군포시","place_name":"풋인샵","INDUTYPE_NM":"가정,생활 > 미용 > 발관리","road_address_name":"경기 군포시 산본로323번길 4-17","address_name":"경기 군포시 산본동 1130","phone":"031-393-7896","REFINE_ZIPNO":"","y":"37.3600229311029","x":"126.932584002697","place_url":"http://place.map.kakao.com/14491200","id":"14491200"},
  {"SIGUN_NM":"군포시","place_name":"엘가","INDUTYPE_NM":"음식점 > 카페","road_address_name":"경기 군포시 산본로323번길 4-17","address_name":"경기 군포시 산본동 1130","phone":"031-399-0370","REFINE_ZIPNO":"","y":"37.3600157228878","x":"126.932584009144","place_url":"http://place.map.kakao.com/21358750","id":"21358750"},
  {"SIGUN_NM":"군포시","place_name":"신의주찹쌀순대 산본점","INDUTYPE_NM":"음식점 > 한식 > 순대 > 신의주찹쌀순대","road_address_name":"경기 군포시 산본로323번길 4-17","address_name":"경기 군포시 산본동 1130","phone":"031-393-9388","REFINE_ZIPNO":"","y":"37.360012103337","x":"126.932556921371","place_url":"http://place.map.kakao.com/1697623869","id":"1697623869"},
  {"SIGUN_NM":"군포시","place_name":"코코호도 산본점","INDUTYPE_NM":"음식점 > 간식 > 제과,베이커리 > 코코호도","road_address_name":"경기 군포시 산본로323번길 4-17","address_name":"경기 군포시 산본동 1130","phone":"031-393-5166","REFINE_ZIPNO":"","y":"37.3600192935272","x":"126.932525308756","place_url":"http://place.map.kakao.com/11235791","id":"11235791"},
  {"SIGUN_NM":"군포시","place_name":"경성양꼬치 산본점","INDUTYPE_NM":"음식점 > 중식 > 양꼬치 > 경성양꼬치","road_address_name":"경기 군포시 산본로323번길 10-14","address_name":"경기 군포시 산본동 1130-2","phone":"031-392-0040","REFINE_ZIPNO":"","y":"37.3597489106903","x":"126.932394611394","place_url":"http://place.map.kakao.com/19977559","id":"19977559"},
  {"SIGUN_NM":"군포시","place_name":"배부장찌개가 산본직영점","INDUTYPE_NM":"음식점 > 한식 > 찌개,전골","road_address_name":"경기 군포시 산본로323번길 10-14","address_name":"경기 군포시 산본동 1130-2","phone":"031-398-9969","REFINE_ZIPNO":"","y":"37.3597489468013","x":"126.932457823499","place_url":"http://place.map.kakao.com/2057636464","id":"2057636464"},
  {"SIGUN_NM":"군포시","place_name":"중앙숯불닭발꼼장어","INDUTYPE_NM":"음식점 > 한식 > 한정식","road_address_name":"경기 군포시 산본로323번길 10-14","address_name":"경기 군포시 산본동 1130-2","phone":"031-393-3220","REFINE_ZIPNO":"","y":"37.3597606685295","x":"126.932472487242","place_url":"http://place.map.kakao.com/901104827","id":"901104827"},
  {"SIGUN_NM":"군포시","place_name":"명성고시텔","INDUTYPE_NM":"부동산 > 주거시설 > 고시원,고시텔","road_address_name":"경기 군포시 산본로323번길 10-14","address_name":"경기 군포시 산본동 1130-2","phone":"031-397-5767","REFINE_ZIPNO":"","y":"37.3597453504273","x":"126.932471372179","place_url":"http://place.map.kakao.com/11950633","id":"11950633"},
  {"SIGUN_NM":"군포시","place_name":"광명대창집 산본점","INDUTYPE_NM":"음식점 > 한식 > 육류,고기 > 곱창,막창","road_address_name":"경기 군포시 산본로323번길 4-11","address_name":"경기 군포시 산본동 1130-1","phone":"031-393-7881","REFINE_ZIPNO":"","y":"37.35983558435527","x":"126.9327015643797","place_url":"http://place.map.kakao.com/1644142024","id":"1644142024"},
  {"SIGUN_NM":"군포시","place_name":"GEM뷰티아카데미","INDUTYPE_NM":"가정,생활 > 미용","road_address_name":"경기 군포시 산본로323번길 4-11","address_name":"경기 군포시 산본동 1130-1","phone":"070-8764-3763","REFINE_ZIPNO":"","y":"37.35985810360557","x":"126.93269025637366","place_url":"http://place.map.kakao.com/208438647","id":"208438647"},
  {"SIGUN_NM":"군포시","place_name":"붉은닭발 산본점","INDUTYPE_NM":"음식점 > 한식 > 육류,고기 > 닭요리","road_address_name":"경기 군포시 산본로323번길 4-11","address_name":"경기 군포시 산본동 1130-1","phone":"031-399-8880","REFINE_ZIPNO":"","y":"37.3598680290301","x":"126.932715080888","place_url":"http://place.map.kakao.com/27263566","id":"27263566"},
  {"SIGUN_NM":"군포시","place_name":"스타일바이남궁","INDUTYPE_NM":"가정,생활 > 패션 > 의류대여서비스 > 한복대여","road_address_name":"경기 군포시 산본로323번길 4-11","address_name":"경기 군포시 산본동 1130-1","phone":"031-8059-1877","REFINE_ZIPNO":"","y":"37.3598716280008","x":"126.932706047355","place_url":"http://place.map.kakao.com/23610009","id":"23610009"},
  {"SIGUN_NM":"군포시","place_name":"뽕잎사랑 산본점","INDUTYPE_NM":"음식점 > 샤브샤브 > 뽕잎사랑","road_address_name":"경기 군포시 산본로323번길 4-11","address_name":"경기 군포시 산본동 1130-1","phone":"031-391-5554","REFINE_ZIPNO":"","y":"37.3598788362161","x":"126.932706040919","place_url":"http://place.map.kakao.com/25467235","id":"25467235"},
  {"SIGUN_NM":"군포시","place_name":"남오토코 안양산본점","INDUTYPE_NM":"음식점 > 술집 > 일본식주점 > 남오토코","road_address_name":"경기 군포시 산본로323번길 4-7","address_name":"경기 군포시 산본동 1129","phone":"031-342-2038","REFINE_ZIPNO":"","y":"37.3596662887831","x":"126.93287329116","place_url":"http://place.map.kakao.com/922007803","id":"922007803"},
  {"SIGUN_NM":"군포시","place_name":"야호양꼬치 1호점","INDUTYPE_NM":"음식점 > 중식 > 양꼬치","road_address_name":"경기 군포시 산본로323번길 4-7","address_name":"경기 군포시 산본동 1129","phone":"031-397-5372","REFINE_ZIPNO":"","y":"37.3596554790219","x":"126.932877815935","place_url":"http://place.map.kakao.com/1780578138","id":"1780578138"},
  {"SIGUN_NM":"군포시","place_name":"김수사","INDUTYPE_NM":"음식점 > 일식 > 초밥,롤","road_address_name":"경기 군포시 산본로323번길 4-7","address_name":"경기 군포시 산본동 1129","phone":"031-391-3115","REFINE_ZIPNO":"","y":"37.3596518518481","x":"126.932837182843","place_url":"http://place.map.kakao.com/12560073","id":"12560073"},
  {"SIGUN_NM":"군포시","place_name":"던컴퍼니","INDUTYPE_NM":"서비스,산업 > 무역업,중개업","road_address_name":"경기 군포시 산본로323번길 6","address_name":"경기 군포시 산본동 1129-1","phone":"","REFINE_ZIPNO":"","y":"37.359565435209","x":"126.932981744384","place_url":"http://place.map.kakao.com/12978305","id":"12978305"},
  {"SIGUN_NM":"군포시","place_name":"동대문엽기떡볶이 군포산본점","INDUTYPE_NM":"음식점 > 분식 > 떡볶이 > 동대문엽기떡볶이","road_address_name":"경기 군포시 산본로323번길 10-6","address_name":"경기 군포시 산본동 1129-2","phone":"031-398-7888","REFINE_ZIPNO":"","y":"37.35953005264337","x":"126.93255509516112","place_url":"http://place.map.kakao.com/17515127","id":"17515127"},
  {"SIGUN_NM":"군포시","place_name":"석기정","INDUTYPE_NM":"음식점 > 한식 > 찌개,전골","road_address_name":"경기 군포시 산본로323번길 10-6","address_name":"경기 군포시 산본동 1129-2","phone":"031-391-0889","REFINE_ZIPNO":"","y":"37.3595184228706","x":"126.93270184758","place_url":"http://place.map.kakao.com/27529998","id":"27529998"},
  {"SIGUN_NM":"군포시","place_name":"그러니모텔","INDUTYPE_NM":"여행 > 숙박 > 여관,모텔","road_address_name":"경기 군포시 산본로323번길 10-6","address_name":"경기 군포시 산본동 1129-2","phone":"","REFINE_ZIPNO":"","y":"37.3594895874386","x":"126.93269735819","place_url":"http://place.map.kakao.com/89720332","id":"89720332"},
  {"SIGUN_NM":"군포시","place_name":"예은미용실","INDUTYPE_NM":"가정,생활 > 미용 > 미용실","road_address_name":"경기 군포시 산본로323번길 10-6","address_name":"경기 군포시 산본동 1129-2","phone":"031-396-6941","REFINE_ZIPNO":"","y":"37.3594787776838","x":"126.93270188298","place_url":"http://place.map.kakao.com/16402611","id":"16402611"},
  {"SIGUN_NM":"군포시","place_name":"뚜리바","INDUTYPE_NM":"음식점 > 분식","road_address_name":"경기 군포시 산본로323번길 10-6","address_name":"경기 군포시 산본동 1129-2","phone":"031-399-7701","REFINE_ZIPNO":"","y":"37.359464353545","x":"126.932688350452","place_url":"http://place.map.kakao.com/16631364","id":"16631364"},
  {"SIGUN_NM":"군포시","place_name":"종로 빈대떡홍어전문 산본역본점","INDUTYPE_NM":"음식점 > 한식 > 한정식","road_address_name":"경기 군포시 산본로323번길 10-6","address_name":"경기 군포시 산본동 1129-2","phone":"031-391-2535","REFINE_ZIPNO":"","y":"37.3593922790936","x":"126.932701960215","place_url":"http://place.map.kakao.com/12011493","id":"12011493"},
  {"SIGUN_NM":"군포시","place_name":"주민밥집","INDUTYPE_NM":"음식점 > 한식","road_address_name":"경기 군포시 산본로323번길 10-6","address_name":"경기 군포시 산본동 1129-2","phone":"031-394-0612","REFINE_ZIPNO":"","y":"37.3593886852595","x":"126.932720023948","place_url":"http://place.map.kakao.com/15386491","id":"15386491"},
  {"SIGUN_NM":"군포시","place_name":"아라","INDUTYPE_NM":"음식점 > 술집 > 일본식주점","road_address_name":"경기 군포시 산본로323번길 10-6","address_name":"경기 군포시 산본동 1129-2","phone":"","REFINE_ZIPNO":"","y":"37.35938510040761","x":"126.93275389062964","place_url":"http://place.map.kakao.com/1839336904","id":"1839336904"},
  {"SIGUN_NM":"군포시","place_name":"삼정약국","INDUTYPE_NM":"의료,건강 > 약국","road_address_name":"경기 군포시 산본로323번길 16-36","address_name":"경기 군포시 산본동 1133","phone":"031-399-3707","REFINE_ZIPNO":"","y":"37.36034388939323","x":"126.93135219800135","place_url":"http://place.map.kakao.com/7929025","id":"7929025"},
  {"SIGUN_NM":"군포시","place_name":"연세키즈소아청소년과의원","INDUTYPE_NM":"의료,건강 > 병원 > 소아청소년과","road_address_name":"경기 군포시 산본로323번길 16-36","address_name":"경기 군포시 산본동 1133","phone":"031-392-8600","REFINE_ZIPNO":"","y":"37.3603502535337","x":"126.931450397557","place_url":"http://place.map.kakao.com/21557220","id":"21557220"},
  {"SIGUN_NM":"군포시","place_name":"엠디치과의원","INDUTYPE_NM":"의료,건강 > 병원 > 치과","road_address_name":"경기 군포시 산본로323번길 16-36","address_name":"경기 군포시 산본동 1133","phone":"031-399-0075","REFINE_ZIPNO":"","y":"37.3603430531683","x":"126.931463949671","place_url":"http://place.map.kakao.com/8000979","id":"8000979"},
  {"SIGUN_NM":"군포시","place_name":"예스","INDUTYPE_NM":"가정,생활 > 패션 > 의류판매","road_address_name":"경기 군포시 산본로323번길 16-36","address_name":"경기 군포시 산본동 1133","phone":"031-394-8872","REFINE_ZIPNO":"","y":"37.3603358449537","x":"126.931463956226","place_url":"http://place.map.kakao.com/14538011","id":"14538011"},
  {"SIGUN_NM":"군포시","place_name":"선비뇨기과의원","INDUTYPE_NM":"의료,건강 > 병원 > 비뇨기과","road_address_name":"경기 군포시 산본로323번길 16-36","address_name":"경기 군포시 산본동 1133","phone":"031-399-1110","REFINE_ZIPNO":"","y":"37.3603358318709","x":"126.931441380299","place_url":"http://place.map.kakao.com/13517830","id":"13517830"},
  {"SIGUN_NM":"군포시","place_name":"서울수이비인후과","INDUTYPE_NM":"의료,건강 > 병원 > 이비인후과","road_address_name":"경기 군포시 산본로323번길 16-36","address_name":"경기 군포시 산본동 1133","phone":"031-392-5250","REFINE_ZIPNO":"","y":"37.3603142150774","x":"126.931454945522","place_url":"http://place.map.kakao.com/18067110","id":"18067110"},
  {"SIGUN_NM":"군포시","place_name":"수한의원","INDUTYPE_NM":"의료,건강 > 병원 > 한방병원 > 한의원","road_address_name":"경기 군포시 산본로323번길 16-36","address_name":"경기 군포시 산본동 1133","phone":"031-396-1075","REFINE_ZIPNO":"","y":"37.36031239928491","x":"126.93143124244531","place_url":"http://place.map.kakao.com/9216421","id":"9216421"},
  {"SIGUN_NM":"군포시","place_name":"임창정의모서리족발 산본점","INDUTYPE_NM":"음식점 > 한식 > 육류,고기 > 족발,보쌈","road_address_name":"경기 군포시 산본로323번길 16-36","address_name":"경기 군포시 산본동 1133","phone":"031-393-4531","REFINE_ZIPNO":"","y":"37.3602745725134","x":"126.931459496761","place_url":"http://place.map.kakao.com/2045543135","id":"2045543135"},
  {"SIGUN_NM":"군포시","place_name":"물만난오징어 산본점","INDUTYPE_NM":"음식점 > 한식 > 해물,생선","road_address_name":"경기 군포시 산본로323번길 16-30","address_name":"경기 군포시 산본동 1133-1","phone":"031-392-1263","REFINE_ZIPNO":"","y":"37.3602674844657","x":"126.931667201656","place_url":"http://place.map.kakao.com/16449840","id":"16449840"},
  {"SIGUN_NM":"군포시","place_name":"쉬즈","INDUTYPE_NM":"가정,생활 > 미용 > 피부관리","road_address_name":"경기 군포시 산본로323번길 16-30","address_name":"경기 군포시 산본동 1133-1","phone":"","REFINE_ZIPNO":"","y":"37.3601917668983","x":"126.931613088156","place_url":"http://place.map.kakao.com/18428235","id":"18428235"},
  {"SIGUN_NM":"군포시","place_name":"하늘장어 산본점","INDUTYPE_NM":"음식점 > 한식 > 해물,생선 > 장어","road_address_name":"경기 군포시 산본로323번길 16-30","address_name":"경기 군포시 산본동 1133-1","phone":"031-391-3339","REFINE_ZIPNO":"","y":"37.3601665329254","x":"126.931604080698","place_url":"http://place.map.kakao.com/1185912431","id":"1185912431"},
  {"SIGUN_NM":"군포시","place_name":"육쌈냉면 산본점","INDUTYPE_NM":"음식점 > 한식 > 냉면 > 육쌈냉면","road_address_name":"경기 군포시 산본로323번길 16-30","address_name":"경기 군포시 산본동 1133-1","phone":"031-393-6392","REFINE_ZIPNO":"","y":"37.3601628582646","x":"126.931482174243","place_url":"http://place.map.kakao.com/18420790","id":"18420790"},
  {"SIGUN_NM":"군포시","place_name":"연세웰치과","INDUTYPE_NM":"의료,건강 > 병원 > 치과","road_address_name":"경기 군포시 산본로323번길 16-26","address_name":"경기 군포시 산본동 1133-2","phone":"031-393-2804","REFINE_ZIPNO":"","y":"37.3599756169182","x":"126.931780345435","place_url":"http://place.map.kakao.com/7999094","id":"7999094"},
  {"SIGUN_NM":"군포시","place_name":"샘물약국","INDUTYPE_NM":"의료,건강 > 약국","road_address_name":"경기 군포시 산본로323번길 16-26","address_name":"경기 군포시 산본동 1133-2","phone":"031-393-2519","REFINE_ZIPNO":"","y":"37.359952205840315","x":"126.93180745761427","place_url":"http://place.map.kakao.com/13518278","id":"13518278"},
  {"SIGUN_NM":"군포시","place_name":"김양식한의원","INDUTYPE_NM":"의료,건강 > 병원 > 한방병원 > 한의원","road_address_name":"경기 군포시 산본로323번길 16-14","address_name":"경기 군포시 산본동 1134","phone":"031-391-2400","REFINE_ZIPNO":"","y":"37.35967662672774","x":"126.93204249466595","place_url":"http://place.map.kakao.com/8821750","id":"8821750"},
  {"SIGUN_NM":"군포시","place_name":"폰케이스몰","INDUTYPE_NM":"가정,생활 > 패션 > 패션잡화점 > 액세서리","road_address_name":"경기 군포시 산본로323번길 16-14","address_name":"경기 군포시 산본동 1134","phone":"","REFINE_ZIPNO":"","y":"37.3596730200259","x":"126.93203798277","place_url":"http://place.map.kakao.com/15765841","id":"15765841"},
  {"SIGUN_NM":"군포시","place_name":"블리스","INDUTYPE_NM":"가정,생활 > 미용 > 피부관리","road_address_name":"경기 군포시 산본로323번길 16-14","address_name":"경기 군포시 산본동 1134","phone":"031-391-8782","REFINE_ZIPNO":"","y":"37.3596766293217","x":"126.932047009812","place_url":"http://place.map.kakao.com/1813005731","id":"1813005731"},
  {"SIGUN_NM":"군포시","place_name":"블라썸네일&속눈썹","INDUTYPE_NM":"가정,생활 > 미용","road_address_name":"경기 군포시 산본로323번길 16-14","address_name":"경기 군포시 산본동 1134","phone":"031-392-5787","REFINE_ZIPNO":"","y":"37.3596694185123","x":"126.932042501165","place_url":"http://place.map.kakao.com/691778929","id":"691778929"},
  {"SIGUN_NM":"군포시","place_name":"바른이갖기 김현치과","INDUTYPE_NM":"의료,건강 > 병원 > 치과","road_address_name":"경기 군포시 산본로323번길 16-14","address_name":"경기 군포시 산본동 1134","phone":"031-393-2800","REFINE_ZIPNO":"","y":"37.3596703292655","x":"126.93205943214882","place_url":"http://place.map.kakao.com/16529980","id":"16529980"},
  {"SIGUN_NM":"군포시","place_name":"커피헌터","INDUTYPE_NM":"음식점 > 카페","road_address_name":"경기 군포시 산본로323번길 16-14","address_name":"경기 군포시 산본동 1134","phone":"031-396-6208","REFINE_ZIPNO":"","y":"37.3596550046752","x":"126.932047029309","place_url":"http://place.map.kakao.com/16100776","id":"16100776"},
  {"SIGUN_NM":"군포시","place_name":"나주설렁탕","INDUTYPE_NM":"음식점 > 한식 > 설렁탕","road_address_name":"경기 군포시 산본로323번길 16-12","address_name":"경기 군포시 광정동 1134-1","phone":"031-397-1122","REFINE_ZIPNO":"","y":"37.3595614144204","x":"126.932250295053","place_url":"http://place.map.kakao.com/9724580","id":"9724580"},
  {"SIGUN_NM":"군포시","place_name":"산본 의류상설타운","INDUTYPE_NM":"가정,생활 > 상설할인매장 > 의류할인매장","road_address_name":"경기 군포시 산본로323번길 16-12","address_name":"경기 군포시 산본동 1134-1","phone":"031-398-5382","REFINE_ZIPNO":"","y":"37.3594857074618","x":"126.932214242011","place_url":"http://place.map.kakao.com/19883129","id":"19883129"},
  {"SIGUN_NM":"군포시","place_name":"아이러니","INDUTYPE_NM":"가정,생활 > 전자제품 > 전자제품서비스센터 > 통신기기수리","road_address_name":"경기 군포시 산본로323번길 16-12","address_name":"경기 군포시 산본동 1134-1","phone":"031-391-1588","REFINE_ZIPNO":"","y":"37.3594676998575","x":"126.932236833886","place_url":"http://place.map.kakao.com/1138619041","id":"1138619041"},
  {"SIGUN_NM":"군포시","place_name":"커브스 산본클럽","INDUTYPE_NM":"스포츠,레저 > 스포츠시설 > 헬스클럽","road_address_name":"경기 군포시 산본로323번길 16-12","address_name":"경기 군포시 산본동 1134-1","phone":"031-397-3080","REFINE_ZIPNO":"","y":"37.35946408540199","x":"126.93221877659322","place_url":"http://place.map.kakao.com/16168386","id":"16168386"},
  {"SIGUN_NM":"군포시","place_name":"얼짱몸짱 산본점","INDUTYPE_NM":"가정,생활 > 미용 > 피부관리","road_address_name":"경기 군포시 산본로323번길 16-12","address_name":"경기 군포시 산본동 1134-1","phone":"031-398-1945","REFINE_ZIPNO":"","y":"37.3594676895099","x":"126.932218773352","place_url":"http://place.map.kakao.com/8422956","id":"8422956"},
  {"SIGUN_NM":"군포시","place_name":"암사해물탕아구찜","INDUTYPE_NM":"음식점 > 한식 > 해물,생선 > 매운탕,해물탕","road_address_name":"경기 군포시 산본로323번길 16-12","address_name":"경기 군포시 산본동 1134-1","phone":"031-391-8883","REFINE_ZIPNO":"","y":"37.3594712858552","x":"126.93220522471","place_url":"http://place.map.kakao.com/8431423","id":"8431423"},
  {"SIGUN_NM":"군포시","place_name":"센타안경 산본점","INDUTYPE_NM":"가정,생활 > 패션 > 패션잡화점 > 안경,렌즈","road_address_name":"경기 군포시 산본로323번길 16-12","address_name":"경기 군포시 산본동 1134-1","phone":"031-394-4488","REFINE_ZIPNO":"","y":"37.3594604787068","x":"126.932214264701","place_url":"http://place.map.kakao.com/15101478","id":"15101478"},
  {"SIGUN_NM":"군포시","place_name":"홀리카홀리카 산본점","INDUTYPE_NM":"가정,생활 > 미용 > 화장품 > 홀리카홀리카","road_address_name":"경기 군포시 산본로323번길 16-12","address_name":"경기 군포시 산본동 1134-1","phone":"031-392-9606","REFINE_ZIPNO":"","y":"37.359407276694455","x":"126.93214207043586","place_url":"http://place.map.kakao.com/18240045","id":"18240045"},
  {"SIGUN_NM":"군포시","place_name":"담소소사골순대육개장 산본점","INDUTYPE_NM":"음식점 > 한식 > 순대 > 담소소사골순대육개장","road_address_name":"경기 군포시 산본로323번길 16-6","address_name":"경기 군포시 산본동 1134-2","phone":"031-394-1821","REFINE_ZIPNO":"","y":"37.3593200605453","x":"126.932462722972","place_url":"http://place.map.kakao.com/575350516","id":"575350516"},
  {"SIGUN_NM":"군포시","place_name":"샘","INDUTYPE_NM":"음식점","road_address_name":"경기 군포시 산본로323번길 16-6","address_name":"경기 군포시 산본동 1134-2","phone":"031-394-3378","REFINE_ZIPNO":"","y":"37.3592551375894","x":"126.93237699381","place_url":"http://place.map.kakao.com/15224369","id":"15224369"},
  {"SIGUN_NM":"군포시","place_name":"가이아","INDUTYPE_NM":"음식점 > 술집 > 호프,요리주점","road_address_name":"경기 군포시 산본로323번길 16-6","address_name":"경기 군포시 산본동 1134-2","phone":"031-398-0909","REFINE_ZIPNO":"","y":"37.359255129845","x":"126.932363448448","place_url":"http://place.map.kakao.com/8725142","id":"8725142"},
  {"SIGUN_NM":"군포시","place_name":"카페베네 산본역점","INDUTYPE_NM":"음식점 > 카페 > 커피전문점 > 카페베네","road_address_name":"경기 군포시 산본로323번길 16-6","address_name":"경기 군포시 산본동 1134-2","phone":"031-399-8201","REFINE_ZIPNO":"","y":"37.359223672562216","x":"126.93250118787286","place_url":"http://place.map.kakao.com/14515887","id":"14515887"}


]